{"type":"FeatureCollection","features":[{"type":"Feature","properties":{"code":"G04040","name":"Ala","type":"Grama Panchayat","leading":"UDF","seats":{"LDF":3,"UDF":5,"NDA":4,"OTHERS":2}},"geometry":{"type":"MultiPolygon","coordinates":[[[[76.6047526182,9.2679440211],[76.6047526182,9.2679440211],[76.6047526182,9.2679440211]]]]}},{"type":"Feature","properties":{"code":"G04023","name":"Ambalappuzha North","type":"Grama Panchayat","leading":"LDF","seats":{"LDF":9,"UDF":3,"NDA":1,"OTHERS":7}},"geometry":{"type":"MultiPolygon","coordinates":[[[[76.353059602,9.392256098],[76.353059602,9.392256098],[76.353059602,9.392256098]],[[76.3510936138,9.4048443249],[76.3510936138,9.4048443249],[76.3510936138,9.4048443249]]]]}},{"type":"Feature","properties":{"code":"G04022","name":"Ambalappuzha South","type":"Grama Panchayat","leading":"LDF","seats":{"LDF":7,"UDF":5,"NDA":4,"OTHERS":1}},"geometry":{"type":"MultiPolygon","coordinates":[[[[76.3572218309,9.3763631416],[76.3540061783,9.3752920073],[76.3528646703,9.376914951],[76.3475595382,9.3907265395],[76.3753955917,9.3994872604],[76.3851054564,9.4009309929],[76.38880833,9.3962024536],[76.3932413345,9.3946280063],[76.392940786,9.3856747146],[76.3944362025,9.3760618703],[76.3959273933,9.3759851385],[76.3932078004,9.3609720125],[76.384088356,9.3626048359],[76.3842528977,9.3727959914],[76.3799220578,9.3733009095],[76.3751347344,9.3716227982],[76.3736790998,9.3756386764],[76.372068531,9.3758976673],[76.3716222075,9.3803258329],[76.3670426762,9.3803428525],[76.3574072485,9.3764433485],[76.3572218309,9.3763631416]]]]}},{"type":"Feature","properties":{"code":"G04070","name":"Aarattupuzha","type":"Grama Panchayat","leading":"UDF","seats":{"LDF":6,"UDF":10,"NDA":2,"OTHERS":1}},"geometry":{"type":"MultiPolygon","coordinates":[[[[76.4162590206,9.238283872],[76.4194008433,9.2392450954],[76.4203358458,9.241792387],[76.4241040565,9.2422771793],[76.4218442869,9.2467315132],[76.4276311792,9.2496848757],[76.4304985126,9.2500877747],[76.4346917864,9.246169105],[76.4375123221,9.2468037621],[76.4394592749,9.2437662599],[76.4422720843,9.2351415565],[76.4436173913,9.2139076302],[76.4463742419,9.2086871711],[76.4463514687,9.2024709496],[76.4541757328,9.1837993845],[76.4554542601,9.1770308105],[76.4591542006,9.1705625311],[76.4630078349,9.1691757624],[76.4645260254,9.1668217635],[76.4687953955,9.1587168182],[76.4701529852,9.1499536086],[76.4728515486,9.1449150035],[76.4686653581,9.1359882298],[76.4619059524,9.136610225],[76.4549993182,9.1547825202],[76.4160921154,9.2380650487],[76.4162590206,9.238283872]],[[76.4450791785,9.1941457367],[76.4451101407,9.194070313],[76.4450791785,9.1941457367]]]]}},{"type":"Feature","properties":{"code":"G04001","name":"Arookutty","type":"Grama Panchayat","leading":"LDF","seats":{"LDF":7,"UDF":6,"NDA":1,"OTHERS":1}},"geometry":{"type":"MultiPolygon","coordinates":[[[[76.3254200666,9.8254421749],[76.3215657335,9.8273845518],[76.3219248952,9.8352231463],[76.3177781587,9.8434797179],[76.3195464663,9.849449352],[76.3186836551,9.869974674],[76.324186183,9.8794162718],[76.3311617476,9.8763964214],[76.3390739101,9.8754786763],[76.3430428476,9.8671909712],[76.3466477868,9.8507148267],[76.3245996622,9.8480564619],[76.3280765754,9.8441167437],[76.3286998319,9.8403070456],[76.3274167718,9.837322629],[76.3291394503,9.8267481975],[76.325967632,9.8249224651],[76.3254200666,9.8254421749]]]]}},{"type":"Feature","properties":{"code":"G04006","name":"Aroor","type":"Grama Panchayat","leading":"UDF","seats":{"LDF":6,"UDF":16,"NDA":1,"OTHERS":1}},"geometry":{"type":"MultiPolygon","coordinates":[[[[76.2969090487,9.8518885867],[76.2926147019,9.8906797363],[76.3031196888,9.890038243],[76.3122284037,9.8822941833],[76.324186183,9.8794162718],[76.3199023716,9.8734618991],[76.3184214881,9.866976415],[76.3195464663,9.849449352],[76.3177781587,9.8434797179],[76.32177512,9.8338766249],[76.3124031781,9.8360950131],[76.3099001681,9.8355554697],[76.3099430914,9.834141996],[76.3028069574,9.8336356094],[76.2973355284,9.8512688481],[76.2969090487,9.8518885867]]]]}},{"type":"Feature","properties":{"code":"G04018","name":"Aryad","type":"Grama Panchayat","leading":"LDF","seats":{"LDF":16,"UDF":3,"NDA":0,"OTHERS":1}},"geometry":{"type":"MultiPolygon","coordinates":[[[[76.3117980783,9.5202752029],[76.3111564459,9.5239763246],[76.3155516897,9.5246278003],[76.315451567,9.5257635973],[76.3264208824,9.5249704847],[76.3271937399,9.5383569075],[76.3285280614,9.5386727992],[76.3297160924,9.5466305422],[76.352395155,9.5427527969],[76.3935091447,9.5518381411],[76.3930508979,9.5477669188],[76.3821159584,9.5425663739],[76.3833622073,9.5239004444],[76.378429939,9.5190548658],[76.3743731732,9.5221948081],[76.3717621264,9.5207781373],[76.3587837487,9.5248197143],[76.3588227877,9.5260909478],[76.3576424266,9.5251024556],[76.3569423766,9.5269290469],[76.3516991538,9.525059495],[76.3472683331,9.5283066665],[76.3336380156,9.5256739892],[76.3314549891,9.5246383332],[76.3313966669,9.5219333332],[76.3244172872,9.5223970456],[76.3119634492,9.520301915],[76.3117980783,9.5202752029]],[[76.3403863119,9.5271170784],[76.3403885334,9.5272368492],[76.3403863119,9.5271170784]]]]}},{"type":"Feature","properties":{"code":"G04063","name":"Bharanikkavu","type":"Grama Panchayat","leading":"LDF","seats":{"LDF":14,"UDF":7,"NDA":1,"OTHERS":0}},"geometry":{"type":"MultiPolygon","coordinates":[[[[76.5530892971,9.1438866233],[76.5530892971,9.1438866233],[76.5530892971,9.1438866233]]]]}},{"type":"Feature","properties":{"code":"G04042","name":"Budhannur","type":"Grama Panchayat","leading":"NDA","seats":{"LDF":5,"UDF":2,"NDA":7,"OTHERS":1}},"geometry":{"type":"MultiPolygon","coordinates":[[[[76.5587870764,9.2702653455],[76.5541420184,9.2714932508],[76.5516879162,9.2691298013],[76.5521079738,9.2664540924],[76.5486245713,9.2599896757],[76.5453594971,9.2616502643],[76.5458532911,9.270973407],[76.5493148763,9.2773114278],[76.5490859379,9.2861351607],[76.5512183228,9.2897695502],[76.5498055046,9.3026364306],[76.5505327897,9.3096338037],[76.5527798095,9.3099669058],[76.5533471791,9.3132219535],[76.551555748,9.3250739938],[76.5533160184,9.3258984832],[76.5546229063,9.3255339852],[76.554466939,9.321932245],[76.5561432393,9.3197404591],[76.5564477125,9.3219934305],[76.5611730547,9.3231453827],[76.5617870857,9.3194628639],[76.5635999677,9.3206023376],[76.5651286793,9.3192454476],[76.56674591,9.320843651],[76.5692982753,9.3188757373],[76.5730715749,9.3193382651],[76.5738518318,9.3153860871],[76.5806252486,9.315953899],[76.5812738573,9.3146568897],[76.5731249996,9.3137976621],[76.5730087674,9.3052427742],[76.5706891269,9.3045884327],[76.5710506054,9.3022559202],[76.5695199732,9.3010811863],[76.572281468,9.2993673963],[76.5704187771,9.286458684],[76.5640288386,9.2857921359],[76.5669656218,9.2802910661],[76.5654616587,9.2744719313],[76.5664660848,9.268706436],[76.5623922421,9.272220498],[76.5591282494,9.2703089193],[76.5587870764,9.2702653455]]]]}},{"type":"Feature","properties":{"code":"G04029","name":"Champakkulam","type":"Grama Panchayat","leading":"UDF","seats":{"LDF":3,"UDF":9,"NDA":1,"OTHERS":1}},"geometry":{"type":"MultiPolygon","coordinates":[[[[76.4270874631,9.3938873481],[76.4205692299,9.3895573827],[76.4154845587,9.3940476156],[76.4182750979,9.4017224305],[76.4129261433,9.4048108099],[76.4120829604,9.4129725094],[76.4057042149,9.4219703723],[76.4043381854,9.4332512003],[76.4009654778,9.4394280385],[76.4042943261,9.442566178],[76.406151725,9.45152973],[76.4092226014,9.4532200407],[76.4171326241,9.4402782371],[76.4277045374,9.4385756172],[76.4339250842,9.4353834342],[76.4358560713,9.4367872778],[76.43917382,9.4472449092],[76.4411391569,9.4492208555],[76.449170356,9.4488577375],[76.4549857976,9.4439140237],[76.447701527,9.4359031112],[76.4461871758,9.4282595711],[76.4406074988,9.4177088449],[76.4445035291,9.4162834659],[76.4432711393,9.4120353504],[76.4450218974,9.4115718338],[76.4441013901,9.4086851021],[76.4461517436,9.4075459093],[76.4443388041,9.402816358],[76.4448229727,9.3991891961],[76.441999247,9.3959387656],[76.4414235042,9.3858341749],[76.4272875655,9.3940420338],[76.4270874631,9.3938873481]]]]}},{"type":"Feature","properties":{"code":"G04002","name":"Chennam Pallippuram","type":"Grama Panchayat","leading":"TIE","seats":{"LDF":5,"UDF":7,"NDA":7,"OTHERS":0}},"geometry":{"type":"MultiPolygon","coordinates":[[[[76.3472418894,9.7137674573],[76.3467120702,9.7275756696],[76.3438364552,9.7307062648],[76.3444725657,9.7496259775],[76.3379684954,9.7542891806],[76.3357331133,9.7540698528],[76.3359459781,9.7593510673],[76.3380659159,9.7582616772],[76.3356560666,9.7651337245],[76.3367427846,9.7665773975],[76.3409224327,9.7617913723],[76.3514294714,9.7592411368],[76.3530381718,9.7601005097],[76.353544995,9.7650968924],[76.3567462376,9.7660918521],[76.3569340502,9.7709437462],[76.3718311548,9.7721769309],[76.3808839001,9.7518742183],[76.3804871205,9.7264012931],[76.3758081591,9.696645982],[76.3648410851,9.7003366852],[76.3623763595,9.7024612595],[76.3615068945,9.7061491466],[76.3555761765,9.7077947887],[76.3537082413,9.7124289683],[76.3477495391,9.7136986651],[76.3472418894,9.7137674573]],[[76.3464682729,9.759656516],[76.3459527342,9.7603806218],[76.3464682729,9.759656516]],[[76.3489858949,9.7586095167],[76.3487355425,9.7586276365],[76.3489858949,9.7586095167]],[[76.3533672534,9.7487766272],[76.353213725,9.748912113],[76.3533672534,9.7487766272]]]]}},{"type":"Feature","properties":{"code":"G04057","name":"Chennithala Thripperuthura","type":"Grama Panchayat","leading":"NDA","seats":{"LDF":6,"UDF":5,"NDA":7,"OTHERS":1}},"geometry":{"type":"MultiPolygon","coordinates":[[[[76.5291703348,9.2613953804],[76.5291703348,9.2613953804],[76.5291703348,9.2613953804]]]]}},{"type":"Feature","properties":{"code":"G04068","name":"Cheppad","type":"Grama Panchayat","leading":"TIE","seats":{"LDF":7,"UDF":7,"NDA":1,"OTHERS":1}},"geometry":{"type":"MultiPolygon","coordinates":[[[[76.4739413506,9.2291364217],[76.4739413506,9.2291364217],[76.4739413506,9.2291364217]]]]}},{"type":"Feature","properties":{"code":"G04039","name":"Cheriyanad","type":"Grama Panchayat","leading":"TIE","seats":{"LDF":6,"UDF":6,"NDA":4,"OTHERS":0}},"geometry":{"type":"MultiPolygon","coordinates":[[[[76.5890109499,9.2496295213],[76.5779155416,9.2587820088],[76.5768996009,9.2682650955],[76.5735783604,9.2735860637],[76.5737636945,9.2790997703],[76.5759697556,9.2796306928],[76.5770358493,9.2871176809],[76.5763765002,9.2960583592],[76.5821665519,9.2959166928],[76.5874425067,9.2931081671],[76.5924193808,9.2939820323],[76.5941611091,9.2900716231],[76.5994485039,9.2889897802],[76.5984413604,9.28366001],[76.6009789601,9.2807601452],[76.6048612586,9.2812503102],[76.6046102882,9.2759826754],[76.6059511432,9.2758771055],[76.6044115449,9.2659812316],[76.6073372815,9.2610694687],[76.6024526139,9.2585548455],[76.602264257,9.2560556307],[76.6057271079,9.248764311],[76.5991448042,9.2439450625],[76.5979439516,9.2401618574],[76.596308441,9.2410135],[76.596482336,9.2454212071],[76.5921250353,9.2447061445],[76.5895789088,9.2484434262],[76.5890109499,9.2496295213]]]]}},{"type":"Feature","properties":{"code":"G04014","name":"Cherthala South","type":"Grama Panchayat","leading":"UDF","seats":{"LDF":10,"UDF":13,"NDA":1,"OTHERS":0}},"geometry":{"type":"MultiPolygon","coordinates":[[[[76.3058261897,9.6399389832],[76.3058261897,9.6399389832],[76.3058261897,9.6399389832]]]]}},{"type":"Feature","properties":{"code":"G04053","name":"Cheruthana","type":"Grama Panchayat","leading":"LDF","seats":{"LDF":7,"UDF":4,"NDA":3,"OTHERS":0}},"geometry":{"type":"MultiPolygon","coordinates":[[[[76.4438154501,9.2989320233],[76.4438154501,9.2989320233],[76.4438154501,9.2989320233]]]]}},{"type":"Feature","properties":{"code":"G04056","name":"Chettikulangara","type":"Grama Panchayat","leading":"LDF","seats":{"LDF":11,"UDF":2,"NDA":8,"OTHERS":1}},"geometry":{"type":"MultiPolygon","coordinates":[[[[76.5150837666,9.2142399568],[76.5123220588,9.2156007374],[76.5051883323,9.2151661377],[76.5034434636,9.216684857],[76.5001042972,9.2152941874],[76.4958814419,9.2175195031],[76.4956301472,9.220481402],[76.5013986707,9.2369260587],[76.5039478775,9.2503973286],[76.5043853867,9.2630431359],[76.5059430564,9.2633575502],[76.5051607693,9.2653504543],[76.5146242693,9.2660039887],[76.5196616639,9.2683433458],[76.5211212295,9.2667655584],[76.5211627655,9.2555843891],[76.5194551439,9.2422628181],[76.528479622,9.2414056618],[76.5296547522,9.2357284987],[76.5273384211,9.2361627867],[76.5271715339,9.2343311885],[76.5293707587,9.2344532142],[76.5282395813,9.2319534266],[76.5294108928,9.2289097837],[76.5269413765,9.2275027904],[76.5295476371,9.2250650932],[76.5317558856,9.2276387235],[76.5342103929,9.2262091047],[76.5326067465,9.2129894877],[76.5330619219,9.2092528624],[76.5344369282,9.2093334259],[76.5354663868,9.2061801106],[76.5308923908,9.1893614828],[76.5245782315,9.1911413718],[76.5220455016,9.1936804371],[76.5179504371,9.1926371806],[76.5137722891,9.1936660084],[76.5135401178,9.1950677928],[76.5100648189,9.1950106767],[76.5159941912,9.2101946745],[76.5160054246,9.2137335794],[76.5150837666,9.2142399568]]]]}},{"type":"Feature","properties":{"code":"G04073","name":"Chingoli","type":"Grama Panchayat","leading":"LDF","seats":{"LDF":6,"UDF":5,"NDA":2,"OTHERS":1}},"geometry":{"type":"MultiPolygon","coordinates":[[[[76.4540050053,9.2371863601],[76.4422720843,9.2351415565],[76.4406577785,9.2380294181],[76.4375123221,9.2468037621],[76.4431802675,9.2541117618],[76.4433843648,9.2596546705],[76.4566095618,9.2614133439],[76.4634156664,9.2590053144],[76.4682914496,9.2452057885],[76.4649479399,9.2441831003],[76.4628516385,9.239019183],[76.4551593854,9.2375172469],[76.4540050053,9.2371863601]],[[76.4422128529,9.2527422529],[76.4423549745,9.2527306461],[76.4422128529,9.2527422529]]]]}},{"type":"Feature","properties":{"code":"G04060","name":"Chunakkara","type":"Grama Panchayat","leading":"LDF","seats":{"LDF":9,"UDF":4,"NDA":3,"OTHERS":1}},"geometry":{"type":"MultiPolygon","coordinates":[[[[76.59583342,9.1680841578],[76.590304249,9.1650309923],[76.5861370758,9.1651280488],[76.5845508091,9.1750719068],[76.5703685227,9.1873000011],[76.5711638237,9.1939690026],[76.5809617961,9.193458752],[76.5837931592,9.1993804932],[76.5832169726,9.2056972532],[76.5842464509,9.2099144584],[76.5866962932,9.2104655548],[76.5869899058,9.213453563],[76.5866309911,9.2167061409],[76.5827219667,9.2173756512],[76.5835044982,9.2199035178],[76.5932233281,9.2168851284],[76.5947815108,9.2148740622],[76.5945623209,9.2104386362],[76.6140756333,9.2107032524],[76.6147131318,9.2003344589],[76.6108821216,9.1927306399],[76.6091992159,9.182802359],[76.6099294717,9.1776435013],[76.6080416882,9.1734084164],[76.5961541042,9.1682001271],[76.59583342,9.1680841578]]]]}},{"type":"Feature","properties":{"code":"G04072","name":"Devikulangara","type":"Grama Panchayat","leading":"LDF","seats":{"LDF":7,"UDF":6,"NDA":3,"OTHERS":0}},"geometry":{"type":"MultiPolygon","coordinates":[[[[76.4686653581,9.1359882298],[76.4734938045,9.1478926785],[76.4773858902,9.1493506196],[76.4766680806,9.1525431792],[76.478352702,9.1541601337],[76.4746589724,9.1644350376],[76.4770390013,9.1709453972],[76.4855152348,9.1683746703],[76.4907343029,9.170095896],[76.4944943623,9.1664978627],[76.4968074065,9.1666885207],[76.4974467204,9.16267151],[76.5038932941,9.1515629512],[76.4987918514,9.1486080698],[76.5064458318,9.1249263183],[76.4905466664,9.1251716664],[76.4787697261,9.1280964205],[76.4729841696,9.1271252741],[76.468949506,9.1352552939],[76.4686653581,9.1359882298]]]]}},{"type":"Feature","properties":{"code":"G04027","name":"Edathua","type":"Grama Panchayat","leading":"UDF","seats":{"LDF":1,"UDF":10,"NDA":1,"OTHERS":3}},"geometry":{"type":"MultiPolygon","coordinates":[[[[76.459868011,9.3505205486],[76.4589168406,9.3585729864],[76.4563251363,9.3587772158],[76.457624049,9.3596736099],[76.4566092564,9.3625439499],[76.4499992558,9.3628667048],[76.4385292096,9.368602235],[76.4380940136,9.3781770613],[76.4428249605,9.3789221137],[76.4388048684,9.386591969],[76.4414235042,9.3858341749],[76.441999247,9.3959387656],[76.4449144679,9.3995102737],[76.4443388041,9.402816358],[76.4461517436,9.4075459093],[76.4441013901,9.4086851021],[76.4450218974,9.4115718338],[76.4432711393,9.4120353504],[76.4443406906,9.4161638947],[76.453765766,9.4131741376],[76.4561015016,9.4144425754],[76.4579317903,9.4140113283],[76.4561951357,9.398981153],[76.4575965139,9.3922624286],[76.4583995808,9.3912472381],[76.463777338,9.3940664328],[76.4713067922,9.3910619144],[76.4726610582,9.3933305858],[76.4744548456,9.3920504082],[76.4768046425,9.3884696731],[76.4753091892,9.3793919924],[76.4845393024,9.376995702],[76.4824281636,9.3671768569],[76.4855705117,9.3648712409],[76.4849022523,9.3619196081],[76.4862598016,9.3599911858],[76.4808336081,9.3595669573],[76.479486446,9.3549513865],[76.4835449958,9.3527964323],[76.4826563132,9.3447201888],[76.4799342157,9.3404922774],[76.4767082865,9.3420639218],[76.4706444266,9.3397538536],[76.4640685341,9.3413485265],[76.4634368029,9.3403875602],[76.4601245168,9.3504640321],[76.459868011,9.3505205486]]]]}},{"type":"Feature","properties":{"code":"G04007","name":"Ezhupunna","type":"Grama Panchayat","leading":"UDF","seats":{"LDF":5,"UDF":9,"NDA":1,"OTHERS":1}},"geometry":{"type":"MultiPolygon","coordinates":[[[[76.3072410201,9.8139479197],[76.3046997554,9.8174079708],[76.3028397244,9.8174874033],[76.2963704656,9.8162483837],[76.2966147327,9.8143068921],[76.2891737806,9.8135289766],[76.2872973689,9.8196790679],[76.2838773874,9.8178795503],[76.2797700905,9.8264799164],[76.2800921203,9.8311408002],[76.284495731,9.8360453141],[76.2861513018,9.8491975074],[76.2969090487,9.8518885867],[76.3028069574,9.8336356094],[76.3099430914,9.834141996],[76.3099001681,9.8355554697],[76.3124031781,9.8360950131],[76.321722035,9.8339644382],[76.3215657335,9.8273845518],[76.3254200666,9.8254421749],[76.329598476,9.8174509435],[76.3279651169,9.8107481635],[76.3286582606,9.8073217915],[76.3225717343,9.8065909853],[76.3218459459,9.809635265],[76.3189874582,9.8114560026],[76.3086199997,9.8095750001],[76.3074506402,9.813922256],[76.3072410201,9.8139479197]]]]}},{"type":"Feature","properties":{"code":"G04016","name":"Kadakkarapally","type":"Grama Panchayat","leading":"UDF","seats":{"LDF":5,"UDF":7,"NDA":1,"OTHERS":1}},"geometry":{"type":"MultiPolygon","coordinates":[[[[76.2974171798,9.6847136501],[76.2902448527,9.6842288252],[76.2869849357,9.717778048],[76.2991602025,9.7191835438],[76.2993923236,9.7075128696],[76.3021447589,9.7061754925],[76.317305131,9.7066583022],[76.317573217,9.6898375752],[76.3113679515,9.689545293],[76.3113144577,9.6876206486],[76.2980543108,9.684752285],[76.2974171798,9.6847136501]]]]}},{"type":"Feature","properties":{"code":"G04028","name":"Kainakary","type":"Grama Panchayat","leading":"UDF","seats":{"LDF":6,"UDF":7,"NDA":0,"OTHERS":2}},"geometry":{"type":"MultiPolygon","coordinates":[[[[76.3630026846,9.4593610998],[76.3620929338,9.4675929845],[76.365211244,9.4725657602],[76.3646852094,9.4870442047],[76.3671072911,9.5008980937],[76.3695518154,9.5034485934],[76.370209728,9.5075351525],[76.3687238714,9.511135823],[76.3745895801,9.5183270408],[76.374809626,9.5216076585],[76.378429939,9.5190548658],[76.3833622073,9.5239004444],[76.3821159584,9.5425663739],[76.4047266888,9.5540901835],[76.4046932805,9.5594832034],[76.4143444107,9.5633652732],[76.4158619194,9.5583137318],[76.4228478856,9.5560260902],[76.4267915113,9.5496629036],[76.4357470814,9.5520462227],[76.4344536583,9.5283547596],[76.4057136705,9.5270221532],[76.4061883107,9.5114093571],[76.4086539984,9.4997344142],[76.4074821452,9.4966180965],[76.4108110501,9.4939188564],[76.4071759041,9.4805570807],[76.4072738573,9.4684289654],[76.4107722743,9.460003421],[76.4011665306,9.4625667975],[76.395762008,9.4602556108],[76.3902062739,9.465969836],[76.3848029326,9.4622325368],[76.3867954794,9.46129649],[76.3859893511,9.460054843],[76.3817150052,9.4618703169],[76.3787913555,9.4612526628],[76.3789298515,9.4561795346],[76.3666354321,9.4619032991],[76.3631531605,9.4593505499],[76.3630026846,9.4593610998]]]]}},{"type":"Feature","properties":{"code":"G04067","name":"Kandalloor","type":"Grama Panchayat","leading":"LDF","seats":{"LDF":10,"UDF":4,"NDA":1,"OTHERS":0}},"geometry":{"type":"MultiPolygon","coordinates":[[[[76.4489153549,9.1969305889],[76.4605656956,9.1991553826],[76.4657457013,9.1986560051],[76.471366743,9.2017145517],[76.4751834664,9.1937369832],[76.4730103959,9.18154048],[76.4777008665,9.1713391425],[76.4747130618,9.162772167],[76.4783576796,9.153972942],[76.4766680806,9.1525431792],[76.4773858902,9.1493506196],[76.4734938045,9.1478926785],[76.4728515486,9.1449150035],[76.4701529852,9.1499536086],[76.4687953955,9.1587168182],[76.4645260254,9.1668217635],[76.4573282634,9.1729697485],[76.4490057757,9.1963711944],[76.4489153549,9.1969305889]]]]}},{"type":"Feature","properties":{"code":"G04013","name":"Kanjikkuzhy","type":"Grama Panchayat","leading":"LDF","seats":{"LDF":17,"UDF":2,"NDA":0,"OTHERS":0}},"geometry":{"type":"MultiPolygon","coordinates":[[[[76.3453283557,9.5959356986],[76.3453283557,9.5959356986],[76.3453283557,9.5959356986]]]]}},{"type":"Feature","properties":{"code":"G04047","name":"Karthikapally","type":"Grama Panchayat","leading":"NDA","seats":{"LDF":4,"UDF":3,"NDA":6,"OTHERS":1}},"geometry":{"type":"MultiPolygon","coordinates":[[[[76.4318104069,9.2493081471],[76.4318104069,9.2493081471],[76.4318104069,9.2493081471]]]]}},{"type":"Feature","properties":{"code":"G04050","name":"Karuvatta","type":"Grama Panchayat","leading":"TIE","seats":{"LDF":7,"UDF":7,"NDA":2,"OTHERS":0}},"geometry":{"type":"MultiPolygon","coordinates":[[[[76.4129889167,9.2967250508],[76.4090025456,9.2977152823],[76.4079732712,9.2961379313],[76.4043969577,9.2962029059],[76.4000305211,9.3192129899],[76.4021498086,9.3312358737],[76.4013580164,9.3384740051],[76.4119687692,9.3435126584],[76.4140726802,9.3410014226],[76.4200574525,9.3405437066],[76.4291732721,9.3467800303],[76.4351662424,9.32464873],[76.4380540808,9.3066399981],[76.4366369749,9.3003464654],[76.433578913,9.3009651064],[76.4147848008,9.2943941207],[76.4132520117,9.296824197],[76.4129889167,9.2967250508]]]]}},{"type":"Feature","properties":{"code":"G04033","name":"Kavalam","type":"Grama Panchayat","leading":"LDF","seats":{"LDF":9,"UDF":2,"NDA":1,"OTHERS":2}},"geometry":{"type":"MultiPolygon","coordinates":[[[[76.4587241663,9.4702685414],[76.4587241663,9.4702685414],[76.4587241663,9.4702685414]],[[76.4471395278,9.4805177368],[76.4471395278,9.4805177368],[76.4471395278,9.4805177368]]]]}},{"type":"Feature","properties":{"code":"G04009","name":"Kodamthuruth","type":"Grama Panchayat","leading":"LDF","seats":{"LDF":10,"UDF":1,"NDA":6,"OTHERS":1}},"geometry":{"type":"MultiPolygon","coordinates":[[[[76.305362748,9.7938177575],[76.305362748,9.7938177575],[76.305362748,9.7938177575]]]]}},{"type":"Feature","properties":{"code":"G04071","name":"Krishnapuram","type":"Grama Panchayat","leading":"UDF","seats":{"LDF":5,"UDF":8,"NDA":5,"OTHERS":0}},"geometry":{"type":"MultiPolygon","coordinates":[[[[76.5185272076,9.1418509137],[76.5185272076,9.1418509137],[76.5185272076,9.1418509137]]]]}},{"type":"Feature","properties":{"code":"G04049","name":"Kumarapuram","type":"Grama Panchayat","leading":"LDF","seats":{"LDF":8,"UDF":5,"NDA":3,"OTHERS":0}},"geometry":{"type":"MultiPolygon","coordinates":[[[[76.4319981296,9.2672308068],[76.4319981296,9.2672308068],[76.4319981296,9.2672308068]]]]}},{"type":"Feature","properties":{"code":"G04008","name":"Kuthiathode","type":"Grama Panchayat","leading":"LDF","seats":{"LDF":7,"UDF":6,"NDA":4,"OTHERS":0}},"geometry":{"type":"MultiPolygon","coordinates":[[[[76.3097647147,9.7672232646],[76.3029863034,9.7655029749],[76.3021879544,9.7728275101],[76.2870073739,9.7767078742],[76.2796450495,9.7755959301],[76.2770909415,9.7901235763],[76.2843264866,9.7907306759],[76.2859604512,9.7884079295],[76.2988316051,9.7903088583],[76.2992216724,9.7888583754],[76.3014843589,9.7891018269],[76.3066312078,9.790121188],[76.3052191918,9.7947952401],[76.310829831,9.7945226371],[76.3121894779,9.791761307],[76.3243127834,9.7932555817],[76.3228588718,9.7911938004],[76.3196942239,9.7913973476],[76.3221020026,9.7686100221],[76.3130207771,9.7689470158],[76.3099464691,9.767265533],[76.3097647147,9.7672232646]]]]}},{"type":"Feature","properties":{"code":"G04019","name":"Mannanchery","type":"Grama Panchayat","leading":"LDF","seats":{"LDF":12,"UDF":8,"NDA":0,"OTHERS":4}},"geometry":{"type":"MultiPolygon","coordinates":[[[[76.3294553474,9.5465524603],[76.3276900959,9.5543157372],[76.3286471116,9.6000341256],[76.3367712316,9.5991882572],[76.351149692,9.5924723452],[76.3615311427,9.5906547348],[76.3964678835,9.5899766124],[76.3935091447,9.5518381411],[76.352395155,9.5427527969],[76.3297160924,9.5466305422],[76.3294553474,9.5465524603]]]]}},{"type":"Feature","properties":{"code":"G04059","name":"Mannar","type":"Grama Panchayat","leading":"LDF","seats":{"LDF":8,"UDF":5,"NDA":5,"OTHERS":1}},"geometry":{"type":"MultiPolygon","coordinates":[[[[76.5397435236,9.2882940318],[76.535798696,9.2885582685],[76.5360447796,9.29126834],[76.5341024405,9.2922189893],[76.5350793359,9.297084742],[76.5316245303,9.2982364303],[76.5328030589,9.3045996806],[76.5308884247,9.3062188421],[76.5271829568,9.305035182],[76.5246883488,9.3067142568],[76.5241235896,9.3038986052],[76.4975708667,9.3061471205],[76.4911759955,9.3158015844],[76.4966780832,9.3181062912],[76.4943207045,9.3222960322],[76.4951456597,9.3255049702],[76.501859988,9.3235976404],[76.516964342,9.3272432395],[76.5269376494,9.3261242386],[76.5318354341,9.3296860807],[76.5339668452,9.3240479307],[76.5366781674,9.3221332975],[76.5409570883,9.322381432],[76.5463532269,9.3254674568],[76.5522541576,9.3245268199],[76.5533471791,9.3132219535],[76.5527798095,9.3099669058],[76.5505327897,9.3096338037],[76.5512183228,9.2897695502],[76.5490391312,9.2831218203],[76.5473485953,9.2839524877],[76.5429856046,9.2806643563],[76.5376028132,9.2814616055],[76.5400422467,9.2882465888],[76.5397435236,9.2882940318]]]]}},{"type":"Feature","properties":{"code":"G04015","name":"Mararikkulam North","type":"Grama Panchayat","leading":"LDF","seats":{"LDF":10,"UDF":9,"NDA":1,"OTHERS":0}},"geometry":{"type":"MultiPolygon","coordinates":[[[[76.3112863216,9.5958823908],[76.3112863216,9.5958823908],[76.3112863216,9.5958823908]]]]}},{"type":"Feature","properties":{"code":"G04020","name":"Mararikkulam South","type":"Grama Panchayat","leading":"LDF","seats":{"LDF":15,"UDF":7,"NDA":1,"OTHERS":1}},"geometry":{"type":"MultiPolygon","coordinates":[[[[76.3111564459,9.5239763246],[76.2992270174,9.5939973311],[76.3123479587,9.5959817937],[76.3217593869,9.5948377058],[76.3221342925,9.5983648171],[76.3203997984,9.5990546959],[76.3222122798,9.6014748373],[76.3281442221,9.5991788436],[76.3276900959,9.5543157372],[76.3294553474,9.5465524603],[76.3285280614,9.5386727992],[76.3271937399,9.5383569075],[76.3268716669,9.5261216665],[76.3264208824,9.5249704847],[76.3214686005,9.5248055616],[76.3166915511,9.5260904614],[76.3115592127,9.5240386429],[76.3111564459,9.5239763246]]]]}},{"type":"Feature","properties":{"code":"G04064","name":"Mavelikkara -Thamarakkulam","type":"Grama Panchayat","leading":"TIE","seats":{"LDF":7,"UDF":7,"NDA":3,"OTHERS":1}},"geometry":{"type":"MultiPolygon","coordinates":[[[[76.5926386201,9.1320868704],[76.5918549837,9.1343300634],[76.5943999136,9.1373026572],[76.5934872603,9.1395166273],[76.5974466343,9.1437040665],[76.5997641503,9.156855195],[76.5940337028,9.1572342828],[76.593704861,9.1620049197],[76.5785752832,9.1575963876],[76.5629828844,9.145494742],[76.5612900281,9.145736994],[76.5604560941,9.1568948655],[76.5640525811,9.1580595369],[76.5679905968,9.1642044711],[76.5898196322,9.1648897069],[76.6027486088,9.1718567448],[76.6149477582,9.1753802183],[76.6297740433,9.1746464617],[76.6294508501,9.1721216311],[76.6349603291,9.1690249486],[76.6336056346,9.1659209866],[76.6300396526,9.1641481074],[76.627903414,9.1588841541],[76.628329325,9.1571949041],[76.6319896265,9.155988563],[76.6303744997,9.1534115615],[76.6326702001,9.14868156],[76.6375944464,9.1469777104],[76.6358030872,9.1413951383],[76.632615578,9.1382971895],[76.6296015191,9.1392897998],[76.6226457435,9.1381561605],[76.6150354203,9.1305362203],[76.6099110886,9.1311849341],[76.6082903383,9.1293986985],[76.5998294399,9.1312256514],[76.5980731742,9.1331629498],[76.5932063895,9.1320011159],[76.5926386201,9.1320868704]]]]}},{"type":"Feature","properties":{"code":"G04055","name":"Mavelikkara Thekkekkara","type":"Grama Panchayat","leading":"LDF","seats":{"LDF":14,"UDF":0,"NDA":5,"OTHERS":1}},"geometry":{"type":"MultiPolygon","coordinates":[[[[76.5479571895,9.1938775938],[76.5479571895,9.1938775938],[76.5479571895,9.1938775938]]]]}},{"type":"Feature","properties":{"code":"G04021","name":"Muhamma","type":"Grama Panchayat","leading":"LDF","seats":{"LDF":12,"UDF":5,"NDA":0,"OTHERS":1}},"geometry":{"type":"MultiPolygon","coordinates":[[[[76.3513923225,9.5924343932],[76.3530083324,9.5971942642],[76.3525365929,9.6012552086],[76.3505417886,9.6021655646],[76.3521238117,9.6099543849],[76.3501454834,9.6096622911],[76.3506272588,9.6120901279],[76.3488369569,9.6118802125],[76.3557535237,9.6350284221],[76.3551251154,9.6413187558],[76.3578549814,9.6415111821],[76.3595338536,9.63952597],[76.3614248918,9.6423810797],[76.366017923,9.6427548342],[76.3788969605,9.6381220866],[76.4001292666,9.6332715487],[76.3964678835,9.5899766124],[76.3654047537,9.5904395757],[76.3517173465,9.5924279724],[76.3513923225,9.5924343932]]]]}},{"type":"Feature","properties":{"code":"G04045","name":"Mulakkuzha","type":"Grama Panchayat","leading":"LDF","seats":{"LDF":8,"UDF":5,"NDA":6,"OTHERS":0}},"geometry":{"type":"MultiPolygon","coordinates":[[[[76.6310685686,9.2588350123],[76.6310685686,9.2588350123],[76.6310685686,9.2588350123]]]]}},{"type":"Feature","properties":{"code":"G04069","name":"Muthukulam","type":"Grama Panchayat","leading":"UDF","seats":{"LDF":5,"UDF":10,"NDA":1,"OTHERS":0}},"geometry":{"type":"MultiPolygon","coordinates":[[[[76.4460987861,9.2087980372],[76.4460987861,9.2087980372],[76.4460987861,9.2087980372]]]]}},{"type":"Feature","properties":{"code":"G04036","name":"Muttar","type":"Grama Panchayat","leading":"UDF","seats":{"LDF":4,"UDF":9,"NDA":1,"OTHERS":0}},"geometry":{"type":"MultiPolygon","coordinates":[[[[76.4948270005,9.39012914],[76.4917275377,9.3922216379],[76.4848259081,9.3918726856],[76.4774302724,9.3957586511],[76.4695731083,9.4008878262],[76.4702317998,9.4049168096],[76.4656989449,9.4075093274],[76.468545424,9.410035224],[76.4701436733,9.4143074469],[76.4679090934,9.4164481637],[76.4691047762,9.4157221331],[76.4717006037,9.4197119285],[76.4776409183,9.4168732486],[76.4774299616,9.4153869035],[76.4851135962,9.4060737606],[76.48856022,9.4058070022],[76.489738798,9.4082807485],[76.4932214738,9.4075253948],[76.4976663648,9.4135352779],[76.500474501,9.4126777784],[76.5032700501,9.4149691972],[76.5061052131,9.4145446382],[76.5055544946,9.4044309989],[76.5116198296,9.4007322104],[76.5107457554,9.3914380771],[76.5140036071,9.390329841],[76.5116440733,9.3863368095],[76.5120300956,9.3824519613],[76.5085104676,9.3828076803],[76.4947753886,9.3898994998],[76.4948270005,9.39012914]]]]}},{"type":"Feature","properties":{"code":"G04032","name":"Nedumudi","type":"Grama Panchayat","leading":"LDF","seats":{"LDF":9,"UDF":6,"NDA":0,"OTHERS":0}},"geometry":{"type":"MultiPolygon","coordinates":[[[[76.3969877709,9.3936928103],[76.38880833,9.3962024536],[76.3848043052,9.4012911817],[76.3805332463,9.4100464941],[76.3791211773,9.4169469351],[76.3754296558,9.4207962006],[76.3750721856,9.4286050882],[76.3698433106,9.4384891516],[76.3708073565,9.4434532279],[76.3661860957,9.4457545585],[76.3626725394,9.4557633558],[76.3630026846,9.4593610998],[76.3666354321,9.4619032991],[76.3789298515,9.4561795346],[76.3787913555,9.4612526628],[76.3817150052,9.4618703169],[76.3859893511,9.460054843],[76.3867954794,9.46129649],[76.3848029326,9.4622325368],[76.3902062739,9.465969836],[76.395762008,9.4602556108],[76.4011665306,9.4625667975],[76.4107722743,9.460003421],[76.4089164457,9.4577038214],[76.4092226014,9.4532200407],[76.4055633608,9.4510100855],[76.4042943261,9.442566178],[76.4009654778,9.4394280385],[76.4043381854,9.4332512003],[76.4057042149,9.4219703723],[76.4120829604,9.4129725094],[76.4129261433,9.4048108099],[76.4183164815,9.4015807822],[76.4154845587,9.3940476156],[76.410627006,9.3963750798],[76.405991267,9.3964735426],[76.3974444879,9.393581619],[76.3969877709,9.3936928103]]]]}},{"type":"Feature","properties":{"code":"G04035","name":"Neelamperoor","type":"Grama Panchayat","leading":"NDA","seats":{"LDF":4,"UDF":2,"NDA":7,"OTHERS":1}},"geometry":{"type":"MultiPolygon","coordinates":[[[[76.4877524917,9.4617007938],[76.4701715911,9.4579395278],[76.4659896748,9.462430544],[76.4642011183,9.475061629],[76.4700422056,9.4851486172],[76.4633880082,9.4902681113],[76.4672097253,9.4927544719],[76.4743021607,9.5020289593],[76.4453596783,9.5095090029],[76.4354355636,9.5085756517],[76.4354257728,9.550455181],[76.4365027675,9.5529482241],[76.4408736176,9.5554126908],[76.466467009,9.5604560078],[76.465590114,9.5422965554],[76.4798250345,9.5375275803],[76.4804719868,9.5082850276],[76.4953156021,9.5068763854],[76.4978267132,9.5037809552],[76.5033401142,9.5024632528],[76.5079094758,9.5037416307],[76.5126764478,9.4975592124],[76.5132238632,9.4952638657],[76.5100472128,9.4950257032],[76.5101269626,9.4921175228],[76.5076434257,9.4919732325],[76.5087625699,9.4873742344],[76.5069907579,9.485680895],[76.5091256303,9.4780633696],[76.5058680058,9.4756732826],[76.5055329476,9.4672878001],[76.5036816618,9.464661115],[76.4880566694,9.4617784121],[76.4877524917,9.4617007938]]]]}},{"type":"Feature","properties":{"code":"G04061","name":"Nooranad","type":"Grama Panchayat","leading":"LDF","seats":{"LDF":11,"UDF":5,"NDA":1,"OTHERS":1}},"geometry":{"type":"MultiPolygon","coordinates":[[[[76.624274231,9.174960835],[76.6149477582,9.1753802183],[76.6082651019,9.1737671356],[76.6082834329,9.1761471804],[76.6099294717,9.1776435013],[76.6091992159,9.182802359],[76.6111451088,9.1939590946],[76.6147131318,9.2003344589],[76.6151447453,9.2057424471],[76.6127804711,9.2116635516],[76.6140082004,9.2153922073],[76.6179736578,9.2160045985],[76.6181153895,9.2215047841],[76.6159317926,9.2272262226],[76.620727163,9.2264097404],[76.6227515911,9.2295583468],[76.627222085,9.2303596018],[76.6274081126,9.2349892343],[76.6258549838,9.2372707467],[76.6301735654,9.2384394521],[76.6321124415,9.243855378],[76.6451827124,9.2237543491],[76.6465296625,9.205576044],[76.6490572567,9.2032046424],[76.6493558989,9.1982297671],[76.6518496877,9.1966092101],[76.648020918,9.1921385219],[76.6418867613,9.1907383949],[76.6405072382,9.1879559858],[76.634393723,9.188333375],[76.6336850412,9.1849290429],[76.6357347524,9.1765874017],[76.6319889106,9.175279518],[76.6320710588,9.1717692537],[76.6294508501,9.1721216311],[76.6297740433,9.1746464617],[76.6248928253,9.1750078002],[76.624274231,9.174960835]]]]}},{"type":"Feature","properties":{"code":"G04062","name":"Palamel","type":"Grama Panchayat","leading":"TIE","seats":{"LDF":8,"UDF":8,"NDA":2,"OTHERS":3}},"geometry":{"type":"MultiPolygon","coordinates":[[[[76.6358628332,9.1478599958],[76.6326702001,9.14868156],[76.6308555358,9.1510319319],[76.6304010853,9.1540334473],[76.6319896265,9.155988563],[76.628329325,9.1571949041],[76.6276529763,9.1604030819],[76.6349603291,9.1690249486],[76.631902463,9.1707966576],[76.6319889106,9.175279518],[76.6357347524,9.1765874017],[76.6336850412,9.1849290429],[76.634393723,9.188333375],[76.6405072382,9.1879559858],[76.6418867613,9.1907383949],[76.648020918,9.1921385219],[76.6518496877,9.1966092101],[76.6493558989,9.1982297671],[76.6466705435,9.2089675176],[76.6509095415,9.2044628555],[76.6573472677,9.2045436702],[76.6612988057,9.2010426548],[76.6682437809,9.2000230841],[76.6716226923,9.1951372483],[76.6764778852,9.194062309],[76.6775379592,9.1839596904],[76.6904776168,9.1766742212],[76.6869783339,9.1682775499],[76.677277667,9.1721084324],[76.6717538059,9.1658897501],[76.6733782869,9.1552759829],[76.6717124789,9.1533127971],[76.6633226139,9.1498977845],[76.6515927228,9.1518368119],[76.651198667,9.1504815032],[76.6416291936,9.1505698111],[76.636073101,9.1478277751],[76.6358628332,9.1478599958]]]]}},{"type":"Feature","properties":{"code":"G04052","name":"Pallippad","type":"Grama Panchayat","leading":"UDF","seats":{"LDF":5,"UDF":8,"NDA":0,"OTHERS":1}},"geometry":{"type":"MultiPolygon","coordinates":[[[[76.4839116163,9.2572883494],[76.4839116163,9.2572883494],[76.4839116163,9.2572883494]]]]}},{"type":"Feature","properties":{"code":"G04003","name":"Panavally","type":"Grama Panchayat","leading":"LDF","seats":{"LDF":12,"UDF":3,"NDA":4,"OTHERS":1}},"geometry":{"type":"MultiPolygon","coordinates":[[[[76.3429170843,9.7924795686],[76.3386605225,9.8097330386],[76.3317463065,9.8078603657],[76.328692825,9.8075818515],[76.3282096617,9.8087651909],[76.329598476,9.8174509435],[76.3254200666,9.8254421749],[76.3272295269,9.8245248341],[76.3291394503,9.8267481975],[76.3274167718,9.837322629],[76.3286998319,9.8403070456],[76.3280765754,9.8441167437],[76.3245996622,9.8480564619],[76.3465553079,9.8506054956],[76.3466566118,9.8362222415],[76.3509653021,9.8308430347],[76.3594968583,9.8262148507],[76.3661965665,9.8280637559],[76.3769207262,9.8265360756],[76.3786955538,9.8190066198],[76.3779895283,9.8126559385],[76.3672853327,9.7992004205],[76.3662521084,9.7952927534],[76.3526250653,9.7955005674],[76.3430030702,9.7923066298],[76.3429170843,9.7924795686]]]]}},{"type":"Feature","properties":{"code":"G04043","name":"Pandanad","type":"Grama Panchayat","leading":"UDF","seats":{"LDF":2,"UDF":6,"NDA":3,"OTHERS":3}},"geometry":{"type":"MultiPolygon","coordinates":[[[[76.5831527574,9.3124701252],[76.5812320785,9.3133219859],[76.5806252486,9.315953899],[76.5738518318,9.3153860871],[76.5730715749,9.3193382651],[76.5692982753,9.3188757373],[76.56674591,9.320843651],[76.5651286793,9.3192454476],[76.5635999677,9.3206023376],[76.5617870857,9.3194628639],[76.5607621393,9.3232242274],[76.5564477125,9.3219934305],[76.5561432393,9.3197404591],[76.554466939,9.321932245],[76.5546229063,9.3255339852],[76.5504670496,9.3246577333],[76.5539587369,9.3309809998],[76.5535583802,9.3350194802],[76.5568942552,9.3383029368],[76.555643829,9.3408142408],[76.5577430769,9.3423540149],[76.5577069287,9.3449468131],[76.5614862022,9.3421294605],[76.5642282754,9.3439545386],[76.5651516932,9.3398029047],[76.5739416715,9.3356695382],[76.5793135582,9.334687635],[76.5811656804,9.3366253799],[76.5849639829,9.3368143918],[76.5858396777,9.3348218318],[76.5900824541,9.3342289649],[76.5927894436,9.3308283567],[76.5973167397,9.3335455383],[76.6026184402,9.3318895457],[76.6037093498,9.3308115801],[76.6026338922,9.3288190895],[76.6004403572,9.329229402],[76.5989613143,9.3200808063],[76.5969596271,9.3199540829],[76.5959989642,9.3168490745],[76.5833068176,9.3130904841],[76.5831527574,9.3124701252]]]]}},{"type":"Feature","properties":{"code":"G04066","name":"Pathiyoor","type":"Grama Panchayat","leading":"LDF","seats":{"LDF":18,"UDF":3,"NDA":0,"OTHERS":0}},"geometry":{"type":"MultiPolygon","coordinates":[[[[76.4795064263,9.1870108361],[76.4795064263,9.1870108361],[76.4795064263,9.1870108361]]]]}},{"type":"Feature","properties":{"code":"G04011","name":"Pattanakkad","type":"Grama Panchayat","leading":"UDF","seats":{"LDF":8,"UDF":13,"NDA":0,"OTHERS":0}},"geometry":{"type":"MultiPolygon","coordinates":[[[[76.3057847145,9.706675627],[76.3057847145,9.706675627],[76.3057847145,9.706675627]]]]}},{"type":"Feature","properties":{"code":"G04004","name":"Perumbalam","type":"Grama Panchayat","leading":"LDF","seats":{"LDF":11,"UDF":1,"NDA":2,"OTHERS":0}},"geometry":{"type":"MultiPolygon","coordinates":[[[[76.3465553079,9.8506054956],[76.3430428476,9.8671909712],[76.3392206418,9.8752631023],[76.3519963264,9.8783525814],[76.3590543186,9.8762179642],[76.3711297583,9.8570776747],[76.3707676222,9.8428983518],[76.3769207262,9.8265360756],[76.3661965665,9.8280637559],[76.3594968583,9.8262148507],[76.3509653021,9.8308430347],[76.3466566118,9.8362222415],[76.3466613756,9.850518408],[76.3465553079,9.8506054956]]]]}},{"type":"Feature","properties":{"code":"G04034","name":"Pulincunnu","type":"Grama Panchayat","leading":"UDF","seats":{"LDF":5,"UDF":6,"NDA":3,"OTHERS":2}},"geometry":{"type":"MultiPolygon","coordinates":[[[[76.4092226014,9.4532200407],[76.4089164457,9.4577038214],[76.4111116579,9.4609010396],[76.4072738573,9.4684289654],[76.4071759041,9.4805570807],[76.4108110501,9.4939188564],[76.4074821452,9.4966180965],[76.4086539984,9.4997344142],[76.4061883107,9.5114093571],[76.4057136705,9.5270221532],[76.4344536583,9.5283547596],[76.4354494479,9.5080407786],[76.4408524856,9.4935091327],[76.4233642894,9.4974934471],[76.4258276495,9.4797037831],[76.4505712266,9.4702679256],[76.4587241663,9.4702685414],[76.4557868433,9.4645117101],[76.4576639387,9.4591189356],[76.4553752685,9.4546772592],[76.4584191272,9.4531851853],[76.4538054599,9.4540428314],[76.4515234147,9.4476551249],[76.4453182094,9.449623411],[76.4411391569,9.4492208555],[76.43917382,9.4472449092],[76.4358560713,9.4367872778],[76.4339250842,9.4353834342],[76.4277045374,9.4385756172],[76.4220492133,9.4385430315],[76.4166528187,9.4405719043],[76.4092923861,9.4530764704],[76.4092226014,9.4532200407]]]]}},{"type":"Feature","properties":{"code":"G04041","name":"Puliyur","type":"Grama Panchayat","leading":"UDF","seats":{"LDF":5,"UDF":6,"NDA":3,"OTHERS":0}},"geometry":{"type":"MultiPolygon","coordinates":[[[[76.5739030699,9.2784637423],[76.5739030699,9.2784637423],[76.5739030699,9.2784637423]]]]}},{"type":"Feature","properties":{"code":"G04025","name":"Punnapra North","type":"Grama Panchayat","leading":"LDF","seats":{"LDF":10,"UDF":3,"NDA":6,"OTHERS":0}},"geometry":{"type":"MultiPolygon","coordinates":[[[[76.3306906109,9.4427040123],[76.3290495065,9.4445016032],[76.3242214877,9.4627443757],[76.3333134615,9.4653419621],[76.3521211338,9.4663551226],[76.3522673256,9.4652727801],[76.3624414505,9.4639265998],[76.3627956894,9.4548906811],[76.3663016451,9.4461660963],[76.3364444613,9.4421097012],[76.3363452549,9.4435751636],[76.3309531363,9.4427731377],[76.3306906109,9.4427040123]]]]}},{"type":"Feature","properties":{"code":"G04024","name":"Punnapra South","type":"Grama Panchayat","leading":"UDF","seats":{"LDF":4,"UDF":11,"NDA":4,"OTHERS":0}},"geometry":{"type":"MultiPolygon","coordinates":[[[[76.3413463702,9.4185191344],[76.3401189759,9.413746328],[76.3390259894,9.4141682613],[76.3302907761,9.4425989618],[76.3363452549,9.4435751636],[76.3364444613,9.4421097012],[76.3661860957,9.4457545585],[76.3708073565,9.4434532279],[76.3698433106,9.4384891516],[76.3750721856,9.4286050882],[76.3748280828,9.4246324636],[76.348747526,9.4214466501],[76.3412829249,9.4187845165],[76.3413463702,9.4185191344]],[[76.3397286867,9.4351003683],[76.3397575801,9.434966563],[76.3397286867,9.4351003683]],[[76.3469953872,9.4261209533],[76.3471255773,9.4261518918],[76.3469953872,9.4261209533]]]]}},{"type":"Feature","properties":{"code":"G04026","name":"Purakkad","type":"Grama Panchayat","leading":"UDF","seats":{"LDF":6,"UDF":9,"NDA":3,"OTHERS":1}},"geometry":{"type":"MultiPolygon","coordinates":[[[[76.3540061783,9.3752920073],[76.3670426762,9.3803428525],[76.3716222075,9.3803258329],[76.372068531,9.3758976673],[76.3736790998,9.3756386764],[76.3751347344,9.3716227982],[76.3799220578,9.3733009095],[76.3842528977,9.3727959914],[76.384088356,9.3626048359],[76.3932078004,9.3609720125],[76.3955198986,9.3528079641],[76.4107843702,9.3494799077],[76.4117460553,9.3430137406],[76.4013580164,9.3384740051],[76.4021498086,9.3312358737],[76.4003132551,9.3162840874],[76.3956627577,9.3068254023],[76.392950257,9.3049204643],[76.3921810368,9.3075139652],[76.3875076485,9.3090169643],[76.3848211648,9.3060962225],[76.3828659007,9.3124480413],[76.3780079168,9.3175674675],[76.3795857537,9.3184947589],[76.3778061704,9.3191279598],[76.3780962373,9.3219559239],[76.3544036586,9.3747086088],[76.3540061783,9.3752920073]]]]}},{"type":"Feature","properties":{"code":"G04037","name":"Ramankary","type":"Grama Panchayat","leading":"UDF","seats":{"LDF":4,"UDF":6,"NDA":3,"OTHERS":1}},"geometry":{"type":"MultiPolygon","coordinates":[[[[76.4612564632,9.3929274542],[76.4612564632,9.3929274542],[76.4612564632,9.3929274542]]]]}},{"type":"Feature","properties":{"code":"G04005","name":"Thycattussery","type":"Grama Panchayat","leading":"LDF","seats":{"LDF":7,"UDF":6,"NDA":3,"OTHERS":0}},"geometry":{"type":"MultiPolygon","coordinates":[[[[76.3367427846,9.7665773975],[76.3346706875,9.7755324747],[76.335387234,9.7843168447],[76.3294642677,9.7955186091],[76.3283553999,9.8051590476],[76.328692825,9.8075818515],[76.3386605225,9.8097330386],[76.3430030702,9.7923066298],[76.3526250653,9.7955005674],[76.3662521084,9.7952927534],[76.3659504811,9.7877074064],[76.3718311548,9.7721769309],[76.3569340502,9.7709437462],[76.3567462376,9.7660918521],[76.353544995,9.7650968924],[76.3530381718,9.7601005097],[76.3514294714,9.7592411368],[76.3409224327,9.7617913723],[76.3374194747,9.7662536588],[76.3367427846,9.7665773975]]]]}},{"type":"Feature","properties":{"code":"G04030","name":"Thakazhy","type":"Grama Panchayat","leading":"TIE","seats":{"LDF":4,"UDF":5,"NDA":5,"OTHERS":1}},"geometry":{"type":"MultiPolygon","coordinates":[[[[76.4104000242,9.3494870368],[76.3955198986,9.3528079641],[76.3930930873,9.3594252077],[76.3959273933,9.3759851385],[76.3944362025,9.3760618703],[76.392940786,9.3856747146],[76.3932413345,9.3946280063],[76.3989086116,9.3934490624],[76.4081370126,9.3965017656],[76.4124701657,9.3958862855],[76.4204040126,9.3895872628],[76.4276431654,9.3943169231],[76.4361302506,9.3899017341],[76.4428249605,9.3789221137],[76.4380940136,9.3781770613],[76.4386921182,9.3680548999],[76.4499992558,9.3628667048],[76.4566092564,9.3625439499],[76.457624049,9.3596736099],[76.4563251363,9.3587772158],[76.4589168406,9.3585729864],[76.4584951391,9.3555239487],[76.4601128656,9.3530043533],[76.459868011,9.3505205486],[76.4522745788,9.3537209346],[76.447125609,9.3486961555],[76.4420060248,9.3522413405],[76.4344583412,9.3529977977],[76.4302921912,9.3507516533],[76.4301666345,9.3474093622],[76.4200574525,9.3405437066],[76.4140726802,9.3410014226],[76.4105923804,9.3494834691],[76.4104000242,9.3494870368]]]]}},{"type":"Feature","properties":{"code":"G04031","name":"Thalavady","type":"Grama Panchayat","leading":"UDF","seats":{"LDF":6,"UDF":7,"NDA":3,"OTHERS":0}},"geometry":{"type":"MultiPolygon","coordinates":[[[[76.4827427904,9.34502007],[76.4835449958,9.3527964323],[76.479486446,9.3549513865],[76.4808336081,9.3595669573],[76.4862236067,9.3597777425],[76.4849022523,9.3619196081],[76.4855705117,9.3648712409],[76.4824281636,9.3671768569],[76.4845393024,9.376995702],[76.4753091892,9.3793919924],[76.4767238633,9.3883254874],[76.4792499061,9.3885277539],[76.4811214966,9.3938830657],[76.4853769068,9.3917343444],[76.4917275377,9.3922216379],[76.494737664,9.3892837129],[76.5111943084,9.3820547792],[76.509888096,9.376294642],[76.5147138718,9.3732893421],[76.5144571009,9.3705042519],[76.5236156148,9.3684360998],[76.5241838181,9.3669360151],[76.5234932598,9.3651700721],[76.517641457,9.3660259458],[76.5161722049,9.3648524832],[76.5167662743,9.3542427346],[76.5088831157,9.3547087006],[76.505091962,9.3511298123],[76.5010268131,9.3503684946],[76.4959383017,9.3468275478],[76.4882719515,9.3471008798],[76.4830271278,9.3453219541],[76.4827427904,9.34502007]]]]}},{"type":"Feature","properties":{"code":"G04017","name":"Thanneermukkam","type":"Grama Panchayat","leading":"LDF","seats":{"LDF":15,"UDF":6,"NDA":3,"OTHERS":0}},"geometry":{"type":"MultiPolygon","coordinates":[[[[76.3699948735,9.642083911],[76.3699948735,9.642083911],[76.3699948735,9.642083911]],[[76.3963522156,9.653703159],[76.3963864162,9.6534075536],[76.3963522156,9.653703159]]]]}},{"type":"Feature","properties":{"code":"G04058","name":"Thazhakkara","type":"Grama Panchayat","leading":"LDF","seats":{"LDF":11,"UDF":5,"NDA":4,"OTHERS":2}},"geometry":{"type":"MultiPolygon","coordinates":[[[[76.5740667268,9.2203872921],[76.5692015258,9.221804956],[76.5705035278,9.2268119975],[76.5676723264,9.2277903679],[76.5682425185,9.2303059104],[76.5641869098,9.2308607123],[76.5592485608,9.2358590094],[76.5534107574,9.2382666184],[76.5531956935,9.2431687196],[76.5555475422,9.2487509032],[76.553812289,9.2498726507],[76.5582490341,9.2555866313],[76.5554871602,9.2598001046],[76.5495582946,9.2627997124],[76.5521079738,9.2664540924],[76.5524694954,9.2702961161],[76.5551730445,9.2715134967],[76.5596367758,9.270373865],[76.5611691903,9.2721909103],[76.5635694708,9.2717050085],[76.5697313504,9.2652108793],[76.5725150552,9.265130286],[76.575063166,9.2683185816],[76.5768996009,9.2682650955],[76.5785036866,9.2581088668],[76.5874679002,9.2515824888],[76.5921250353,9.2447061445],[76.596482336,9.2454212071],[76.596308441,9.2410135],[76.6006001171,9.2378683573],[76.6065213552,9.2394844796],[76.6089350376,9.2351352513],[76.6135272199,9.2339953803],[76.6181153895,9.2215047841],[76.6179736578,9.2160045985],[76.6140082004,9.2153922073],[76.6128199772,9.2110666867],[76.6105096298,9.2096809421],[76.60932241,9.211195395],[76.5945623209,9.2104386362],[76.5947815108,9.2148740622],[76.5932233281,9.2168851284],[76.5793653218,9.2216992944],[76.5790274753,9.2202501475],[76.5751722125,9.2204205684],[76.5740667268,9.2203872921]]]]}},{"type":"Feature","properties":{"code":"G04044","name":"Thiruvanvandoor","type":"Grama Panchayat","leading":"NDA","seats":{"LDF":2,"UDF":4,"NDA":5,"OTHERS":3}},"geometry":{"type":"MultiPolygon","coordinates":[[[[76.617841751,9.3410207737],[76.6171067899,9.3378484189],[76.6115605536,9.3382151041],[76.6112382389,9.3349835935],[76.6026184402,9.3318895457],[76.5963801724,9.3333485282],[76.5936868525,9.3306224949],[76.5900824541,9.3342289649],[76.5858396777,9.3348218318],[76.5849639829,9.3368143918],[76.5811656804,9.3366253799],[76.5793135582,9.334687635],[76.5739416715,9.3356695382],[76.5651516932,9.3398029047],[76.5642282754,9.3439545386],[76.5614862022,9.3421294605],[76.559334437,9.3444592361],[76.5525582526,9.3470406125],[76.5507199132,9.3503322089],[76.5526065263,9.3518259797],[76.5566403877,9.3496604893],[76.5611556958,9.35110301],[76.5634755932,9.3541784205],[76.5655457204,9.3529469802],[76.5669526788,9.3557094341],[76.5726949239,9.3556368186],[76.5751134465,9.3533822547],[76.5799344621,9.3532619164],[76.5792878772,9.3510635441],[76.5815646393,9.3470539181],[76.5827448199,9.3491680704],[76.5861111827,9.3485104882],[76.5877208245,9.3516473581],[76.5907240317,9.3507295505],[76.5949544481,9.3524239523],[76.5982575202,9.3461908242],[76.6012684997,9.3472636898],[76.6036890066,9.3438947086],[76.6061964327,9.345170443],[76.6099968921,9.341912497],[76.6125378245,9.3433647036],[76.6151822688,9.3406186574],[76.6176554512,9.3411798396],[76.617841751,9.3410207737]]]]}},{"type":"Feature","properties":{"code":"G04048","name":"Thrikkunnappuzha","type":"Grama Panchayat","leading":"UDF","seats":{"LDF":7,"UDF":8,"NDA":1,"OTHERS":2}},"geometry":{"type":"MultiPolygon","coordinates":[[[[76.384745426,9.3062353113],[76.3883426865,9.3090114521],[76.3937993589,9.3053065859],[76.4003132551,9.3162840874],[76.4043912606,9.2956196312],[76.4201168787,9.2684259651],[76.4176722475,9.2643286828],[76.4173990276,9.2597609758],[76.4143652687,9.2584618461],[76.4176704913,9.2576325015],[76.4163584749,9.25528168],[76.4175045599,9.2529674047],[76.4212696822,9.2532999045],[76.4232121336,9.2516701215],[76.4213701911,9.248225659],[76.4241040565,9.2422771793],[76.4203358458,9.241792387],[76.4194008433,9.2392450954],[76.4162590206,9.238283872],[76.384557953,9.3060997703],[76.384745426,9.3062353113]]]]}},{"type":"Feature","properties":{"code":"G04010","name":"Thuravoor","type":"Grama Panchayat","leading":"LDF","seats":{"LDF":10,"UDF":6,"NDA":3,"OTHERS":0}},"geometry":{"type":"MultiPolygon","coordinates":[[[[76.3187237388,9.7481457982],[76.3187237388,9.7481457982],[76.3187237388,9.7481457982]]]]}},{"type":"Feature","properties":{"code":"G04065","name":"Vallikunnam","type":"Grama Panchayat","leading":"TIE","seats":{"LDF":7,"UDF":7,"NDA":5,"OTHERS":1}},"geometry":{"type":"MultiPolygon","coordinates":[[[[76.5422570916,9.1354772175],[76.5407091021,9.1376347273],[76.5431840406,9.1428101267],[76.5491056002,9.1425297545],[76.5571903453,9.144582196],[76.5628442168,9.1424544537],[76.5645772853,9.1476973579],[76.5685273968,9.1489546069],[76.5798893936,9.1581563044],[76.593704861,9.1620049197],[76.5940337028,9.1572342828],[76.5997641503,9.156855195],[76.5974466343,9.1437040665],[76.5934872603,9.1395166273],[76.5943999136,9.1373026572],[76.5918549837,9.1343300634],[76.5926386201,9.1320868704],[76.5878910732,9.1290449306],[76.5894060828,9.1280053141],[76.58920473,9.1233225753],[76.5847098325,9.1223967551],[76.5835677791,9.1202666798],[76.5842683976,9.1167206247],[76.5806326138,9.1169373365],[76.5795808861,9.1149922022],[76.5751811875,9.1176401959],[76.5679186678,9.1110129891],[76.551722098,9.11064364],[76.5464163282,9.1262735981],[76.5431855148,9.1258271831],[76.5427444024,9.1288787115],[76.5413663877,9.1287048824],[76.5424989073,9.1348526899],[76.5422570916,9.1354772175]]]]}},{"type":"Feature","properties":{"code":"G04012","name":"Vayalar","type":"Grama Panchayat","leading":"LDF","seats":{"LDF":14,"UDF":3,"NDA":0,"OTHERS":0}},"geometry":{"type":"MultiPolygon","coordinates":[[[[76.3217459868,9.7001470986],[76.3217459868,9.7001470986],[76.3217459868,9.7001470986]]]]}},{"type":"Feature","properties":{"code":"G04054","name":"Veeyapuram","type":"Grama Panchayat","leading":"UDF","seats":{"LDF":4,"UDF":6,"NDA":3,"OTHERS":1}},"geometry":{"type":"MultiPolygon","coordinates":[[[[76.4602437843,9.2974593999],[76.4602437843,9.2974593999],[76.4602437843,9.2974593999]]]]}},{"type":"Feature","properties":{"code":"G04038","name":"Veliyanad","type":"Grama Panchayat","leading":"LDF","seats":{"LDF":8,"UDF":5,"NDA":1,"OTHERS":0}},"geometry":{"type":"MultiPolygon","coordinates":[[[[76.4866290919,9.4222178807],[76.4667749488,9.4341601934],[76.4549857976,9.4439140237],[76.4515234147,9.4476551249],[76.4536122772,9.4538699682],[76.4667477181,9.4528364408],[76.4705706327,9.4549552866],[76.469484865,9.4581439484],[76.5036816618,9.464661115],[76.4981949362,9.4542060287],[76.4989498327,9.446240739],[76.4978036031,9.4445589382],[76.5007559657,9.4393829308],[76.5065584257,9.4385969256],[76.5040351012,9.4340309755],[76.506745861,9.4312029198],[76.5046444357,9.4298111835],[76.5071775015,9.4216725835],[76.5061052131,9.4145446382],[76.5039378146,9.4151294265],[76.4987709126,9.412802645],[76.4870248536,9.4220512997],[76.4866290919,9.4222178807]]]]}},{"type":"Feature","properties":{"code":"G04046","name":"Venmony","type":"Grama Panchayat","leading":"LDF","seats":{"LDF":8,"UDF":2,"NDA":4,"OTHERS":1}},"geometry":{"type":"MultiPolygon","coordinates":[[[[76.6284269997,9.237595144],[76.6257553634,9.2369863875],[76.6274081126,9.2349892343],[76.627222085,9.2303596018],[76.6227515911,9.2295583468],[76.620727163,9.2264097404],[76.6178696212,9.2265838869],[76.6135272199,9.2339953803],[76.6089350376,9.2351352513],[76.6073118466,9.2390149376],[76.6006001171,9.2378683573],[76.5979439516,9.2401618574],[76.5991448042,9.2439450625],[76.6057271079,9.248764311],[76.6025119054,9.2540393805],[76.6024526139,9.2585548455],[76.6124371332,9.2631581351],[76.6155674359,9.2629871559],[76.6184317699,9.2736547458],[76.6211226481,9.2765921685],[76.6250799569,9.2778901034],[76.6250747638,9.2795483536],[76.6285459834,9.2792641935],[76.6335789008,9.2708448377],[76.6323391745,9.2683089178],[76.6348357768,9.2637960225],[76.6326839775,9.2630430499],[76.6310419803,9.2585997489],[76.6340922008,9.2526064668],[76.6408912599,9.2479949104],[76.6454098864,9.2479218274],[76.647220396,9.2501757766],[76.6476863791,9.2557829865],[76.650646301,9.2563215798],[76.651671462,9.2599388004],[76.6581432208,9.2574080035],[76.6590878802,9.2533148503],[76.6577110773,9.2510740611],[76.6587064429,9.2487145387],[76.6576733956,9.2435900658],[76.6539593048,9.2405105065],[76.6536637115,9.23739531],[76.6490044304,9.2361702799],[76.6468751545,9.2374805372],[76.6426465204,9.2344570704],[76.6390673134,9.234093974],[76.6353165623,9.2373261234],[76.6321124415,9.243855378],[76.6308238819,9.2393777478],[76.6287435687,9.2376871222],[76.6284269997,9.237595144]]]]}},{"type":"Feature","properties":{"code":"M04014","name":"Alappuzha","type":"Municipality","leading":"UDF","seats":{"LDF":22,"UDF":23,"NDA":5,"OTHERS":3}},"geometry":{"type":"MultiPolygon","coordinates":[[[[76.3242214877,9.4627443757],[76.3117980783,9.5202752029],[76.3244172872,9.5223970456],[76.3313966669,9.5219333332],[76.3314549891,9.5246383332],[76.3368829514,9.5253677579],[76.3381854349,9.5274891304],[76.3477616663,9.5282466665],[76.3531847139,9.5248923208],[76.3569423766,9.5269290469],[76.3576424266,9.5251024556],[76.3588227877,9.5260909478],[76.3587837487,9.5248197143],[76.3717621264,9.5207781373],[76.3743731732,9.5221948081],[76.3749459346,9.5193706735],[76.3687238714,9.511135823],[76.3700701487,9.5064228824],[76.3668713198,9.4998775592],[76.364085504,9.4811672201],[76.365211244,9.4725657602],[76.3620929338,9.4675929845],[76.3624414505,9.4639265998],[76.3445857139,9.4664350445],[76.344076936,9.4652389024],[76.3333134615,9.4653419621],[76.3247817624,9.4628890584],[76.3242214877,9.4627443757]]]]}},{"type":"Feature","properties":{"code":"M04013","name":"Chengannur","type":"Municipality","leading":"UDF","seats":{"LDF":5,"UDF":13,"NDA":6,"OTHERS":3}},"geometry":{"type":"MultiPolygon","coordinates":[[[[76.6184846752,9.3052385244],[76.614958306,9.3099015888],[76.6089433605,9.3093163478],[76.6062107671,9.3208243449],[76.60246257,9.3205124413],[76.6020992086,9.3181146532],[76.5990674484,9.3189688555],[76.6004403572,9.329229402],[76.6026338922,9.3288190895],[76.6037093498,9.3308115801],[76.6026184402,9.3318895457],[76.6050301293,9.3335288736],[76.6112382389,9.3349835935],[76.6115605536,9.3382151041],[76.6171067899,9.3378484189],[76.617841751,9.3410207737],[76.628390291,9.3368459792],[76.6287191741,9.3419811674],[76.64174727,9.34051775],[76.6397129829,9.3360465534],[76.6411230729,9.3323138451],[76.6348290287,9.3272664934],[76.6395841007,9.3255499979],[76.6419056483,9.3207010408],[76.637799062,9.3212381081],[76.636843975,9.3227209984],[76.6340005655,9.3215922479],[76.6318802503,9.3175719894],[76.6324792371,9.3141453445],[76.6274220508,9.3100241141],[76.6324673605,9.3041006202],[76.6300496132,9.3018297466],[76.6277260892,9.3020631087],[76.6274992143,9.2992427655],[76.6240521118,9.2962563123],[76.6194433007,9.2985611844],[76.6224490385,9.2992178652],[76.6242839535,9.3022534806],[76.6211710269,9.3061256222],[76.6187010686,9.3053543271],[76.6184846752,9.3052385244]]]]}},{"type":"Feature","properties":{"code":"M04015","name":"Cherthala","type":"Municipality","leading":"LDF","seats":{"LDF":20,"UDF":10,"NDA":4,"OTHERS":2}},"geometry":{"type":"MultiPolygon","coordinates":[[[[76.33125939,9.6563204402],[76.3181091124,9.6575316349],[76.3177282528,9.6993889105],[76.3198125266,9.7008177368],[76.3318364201,9.7003279969],[76.3338480732,9.6979826861],[76.3432843533,9.6978760993],[76.3435285065,9.7092312799],[76.3474356785,9.7099842685],[76.3472418894,9.7137674573],[76.3526563204,9.7132315175],[76.3555761765,9.7077947887],[76.3577643818,9.7070355916],[76.35461423,9.6895011101],[76.3515261697,9.6849438399],[76.3527849996,9.68356646],[76.3506858721,9.6769079558],[76.3549846404,9.6745373098],[76.3534879879,9.6648924003],[76.3391285501,9.6668844261],[76.337531068,9.6560717086],[76.3314286847,9.6563262257],[76.33125939,9.6563204402]]]]}},{"type":"Feature","properties":{"code":"M04062","name":"Harippad","type":"Municipality","leading":"UDF","seats":{"LDF":7,"UDF":16,"NDA":6,"OTHERS":1}},"geometry":{"type":"MultiPolygon","coordinates":[[[[76.4575490936,9.2612938473],[76.4526699345,9.2612582678],[76.4530595312,9.2657293228],[76.4515283887,9.267291908],[76.4484327511,9.2668462046],[76.4436683357,9.2836606252],[76.4373062971,9.2979255632],[76.4458129601,9.29921268],[76.4485069358,9.3017020919],[76.4502041983,9.3015554253],[76.4504045384,9.2967962796],[76.4675509845,9.2975698134],[76.4708589631,9.318189514],[76.4723302374,9.3181685953],[76.4750310501,9.3166681399],[76.4757712475,9.3122123193],[76.4848582178,9.3123582697],[76.4824770714,9.3039833207],[76.477190238,9.3031944275],[76.4751722204,9.2929494019],[76.4729993053,9.2901329507],[76.4728446495,9.2830695315],[76.4708928377,9.2806412074],[76.4722275537,9.2802371023],[76.4730122851,9.2754750792],[76.4753135119,9.2753802916],[76.4751927056,9.2692842738],[76.4801473428,9.26793805],[76.4731191603,9.2676388873],[76.47454428,9.2588918015],[76.4634156664,9.2590053144],[76.4578571762,9.2612081453],[76.4575490936,9.2612938473]]]]}},{"type":"Feature","properties":{"code":"M04011","name":"Kayamkulam","type":"Municipality","leading":"UDF","seats":{"LDF":13,"UDF":21,"NDA":5,"OTHERS":6}},"geometry":{"type":"MultiPolygon","coordinates":[[[[76.4778173475,9.1707638324],[76.4788995003,9.1756996698],[76.477449172,9.185492619],[76.4797007822,9.1873605078],[76.4797899086,9.1928376731],[76.4825110942,9.1939188821],[76.4870331038,9.194774593],[76.487490569,9.1932180437],[76.4880961746,9.1946536],[76.4890254763,9.1933702544],[76.4936983606,9.1931844996],[76.4944336937,9.1948311026],[76.5030852352,9.1947058557],[76.5061838507,9.1962630104],[76.5135401178,9.1950677928],[76.5137722891,9.1936660084],[76.517319367,9.1927113011],[76.5220455016,9.1936804371],[76.5245782315,9.1911413718],[76.529798188,9.1896874759],[76.5243887454,9.1645160459],[76.5154622367,9.1512263843],[76.5185272076,9.1418509137],[76.51630691,9.14518412],[76.5120763615,9.146774863],[76.5123841854,9.1490774062],[76.5048224503,9.1492126396],[76.4974467204,9.16267151],[76.4968074065,9.1666885207],[76.4944943623,9.1664978627],[76.4907343029,9.170095896],[76.4855152348,9.1683746703],[76.4796875258,9.1711810542],[76.4796966374,9.1698529245],[76.4780583008,9.1699592596],[76.4778173475,9.1707638324]]]]}},{"type":"Feature","properties":{"code":"M04012","name":"Mavelikkara","type":"Municipality","leading":"UDF","seats":{"LDF":4,"UDF":15,"NDA":8,"OTHERS":1}},"geometry":{"type":"MultiPolygon","coordinates":[[[[76.5366171116,9.2275956313],[76.5363466524,9.2228845523],[76.5359429242,9.22490986],[76.5322272568,9.2275786024],[76.5307652208,9.2251611712],[76.5283525535,9.225398005],[76.5269413765,9.2275027904],[76.5294108928,9.2289097837],[76.5282395813,9.2319534266],[76.5293707587,9.2344532142],[76.5271715339,9.2343311885],[76.5273384211,9.2361627867],[76.5296547522,9.2357284987],[76.528479622,9.2414056618],[76.5194551439,9.2422628181],[76.5211653694,9.2554144768],[76.5203068923,9.2666132482],[76.5251937598,9.2577058644],[76.5279399537,9.261262473],[76.5304865562,9.2614042864],[76.5395257603,9.2561703192],[76.5409880712,9.2613016122],[76.5450819967,9.2667585224],[76.5463265065,9.2600578444],[76.548384042,9.2598141236],[76.5504679124,9.2627874205],[76.5578536604,9.2571465689],[76.5582490341,9.2555866313],[76.553812289,9.2498726507],[76.5555475422,9.2487509032],[76.554364275,9.2481923986],[76.5532351906,9.2390409895],[76.5471814925,9.2359503762],[76.5451360061,9.2366548751],[76.5441158155,9.2308808825],[76.5419522662,9.2286000656],[76.5436109838,9.2251569851],[76.5410720664,9.2257059331],[76.5399452206,9.2225319867],[76.5375495925,9.2254866241],[76.5379550121,9.2278788933],[76.5366655424,9.2279734082],[76.5366171116,9.2275956313]]]]}}]}
