{"type":"FeatureCollection","features":[{"type":"Feature","properties":{"code":"C07003","name":"Cochin","type":"Corporation","leading":"UDF","seats":{"LDF":20,"UDF":46,"NDA":6,"OTHERS":4}},"geometry":{"type":"MultiPolygon","coordinates":[[[[76.2510349986,9.9187835524],[76.2377757893,9.95615701],[76.2375076569,9.9648687386],[76.2412465619,9.9682631491],[76.2398834277,9.9733443904],[76.2440586092,9.9759360297],[76.2431201459,9.9809361472],[76.2442447305,9.9810977461],[76.2446293201,9.9767822842],[76.247565836,9.9753885471],[76.2540964193,9.9773507857],[76.2555460571,9.9786267077],[76.2536889864,9.9824718971],[76.2587323901,9.9843151439],[76.2610462206,9.9791052895],[76.2691274982,9.9832516933],[76.2637301758,10.0090993411],[76.2652158153,10.0107180055],[76.2700584849,10.0112912297],[76.2670758072,10.0219222044],[76.2663506452,10.0313583548],[76.2683079387,10.0322891175],[76.2723335904,10.0261880469],[76.282313801,10.0207211328],[76.2838647135,10.0244107717],[76.2893907894,10.0278108346],[76.2889223131,10.0326587625],[76.286919762,10.0355903964],[76.2882189461,10.0381257218],[76.2919132324,10.0401215298],[76.291643338,10.043377341],[76.2898610562,10.0441241884],[76.2939400048,10.0463356198],[76.2935128476,10.0482266821],[76.2971593332,10.0496799805],[76.3010667074,10.0435426739],[76.3031909928,10.0438968959],[76.3019060839,10.0420412886],[76.3025967653,10.0373206316],[76.3069072003,10.030189161],[76.3074681038,10.0264092546],[76.3104726869,10.0233695119],[76.3121292187,10.0171280529],[76.315549953,10.0165212063],[76.3157819611,10.0112302131],[76.3194213145,10.0112131579],[76.320451595,10.0070456454],[76.3237584304,10.0060254294],[76.323719544,10.0036476131],[76.3269750987,10.004179228],[76.3306502308,10.0002079518],[76.3310350309,9.9965666891],[76.3345711921,9.9911087887],[76.3310438335,9.9898442458],[76.3299932096,9.9922015676],[76.3272339373,9.989962304],[76.3251028521,9.9846296885],[76.328559089,9.9799434316],[76.3321770401,9.9793899963],[76.3250960382,9.9774142872],[76.3252236372,9.9712453977],[76.3227500063,9.9696641407],[76.3227887602,9.9666778318],[76.3197676797,9.9653026882],[76.3222882408,9.9614102775],[76.330885299,9.9593557443],[76.3280862166,9.9569472059],[76.3281345463,9.9551880566],[76.3337530853,9.9529500936],[76.3358206288,9.948897177],[76.339768548,9.9458897042],[76.337442878,9.9423797612],[76.3393252748,9.9363876254],[76.3354374882,9.9350381509],[76.3256570746,9.9557257895],[76.3149125722,9.9537197633],[76.3129945615,9.9500110706],[76.3057321614,9.945122193],[76.3047179221,9.9367442301],[76.3027036573,9.935465627],[76.308952501,9.9226360416],[76.3013461007,9.9222707066],[76.3014876736,9.8905351175],[76.2926755327,9.8907058524],[76.2875050831,9.9018038041],[76.2835390417,9.901625957],[76.2720606274,9.8967545433],[76.2632715597,9.9220607873],[76.2513970417,9.9188754246],[76.2510349986,9.9187835524]]]]}},{"type":"Feature","properties":{"code":"G07052","name":"Aikkaranadu","type":"Grama Panchayat","leading":"OTHERS","seats":{"LDF":0,"UDF":0,"NDA":0,"OTHERS":16}},"geometry":{"type":"MultiPolygon","coordinates":[[[[76.4692984523,9.9820514313],[76.4595773088,9.9762644786],[76.4595893452,9.9787489823],[76.4511815616,9.9794219654],[76.4502514255,9.9815505411],[76.4443126732,9.9785095657],[76.4422739205,9.9786220578],[76.4420062513,9.980718524],[76.4380881153,9.9795053888],[76.4344690263,9.9809989873],[76.4328534054,9.9902995764],[76.4309270605,9.9908824485],[76.4294003607,9.9951956963],[76.4307179737,9.9996154225],[76.4270540469,10.0010347356],[76.4254114515,10.0055120806],[76.420732549,10.0066890264],[76.4183392402,10.0055291659],[76.4186808317,10.0118222968],[76.4273187067,10.0176784125],[76.43193978,10.0150334],[76.4328112909,10.0173266933],[76.4345733036,10.0149277698],[76.4432036405,10.0113268466],[76.4440488125,10.0137124515],[76.4473852767,10.0141422154],[76.4504589457,10.0188948166],[76.4549741911,10.0157547723],[76.4631464476,10.0166458849],[76.4637842512,10.0148202245],[76.4662429521,10.0151356128],[76.4677625699,10.0113552758],[76.4746837452,10.0120208992],[76.4773523166,10.0069311941],[76.4760286678,10.0001731609],[76.4812956819,9.996388538],[76.4853587133,9.9874815367],[76.4899395346,9.9870148913],[76.4917211999,9.9843999118],[76.4945595798,9.9852958],[76.4965844125,9.982694294],[76.5006749793,9.9817176477],[76.5025485674,9.9779924413],[76.5064161417,9.9774846832],[76.5066793611,9.9754772554],[76.5059818633,9.9723413904],[76.491994098,9.9679667985],[76.4789559626,9.9772922842],[76.4788708413,9.9796282711],[76.4767527987,9.9798673751],[76.4753783326,9.9821846177],[76.473961617,9.9811927345],[76.4730704741,9.9829152144],[76.4694570543,9.9824237192],[76.4692984523,9.9820514313]]]]}},{"type":"Feature","properties":{"code":"G07008","name":"Alangad","type":"Grama Panchayat","leading":"UDF","seats":{"LDF":5,"UDF":18,"NDA":0,"OTHERS":1}},"geometry":{"type":"MultiPolygon","coordinates":[[[[76.2751512378,10.088401278],[76.2751512378,10.088401278],[76.2751512378,10.088401278]],[[76.3094086411,10.1352529721],[76.3093708379,10.1351635708],[76.3094086411,10.1352529721]],[[76.2876983319,10.1016617328],[76.2876983319,10.1016617328],[76.2876983319,10.1016617328]]]]}},{"type":"Feature","properties":{"code":"G07046","name":"Amballur","type":"Grama Panchayat","leading":"LDF","seats":{"LDF":9,"UDF":8,"NDA":0,"OTHERS":1}},"geometry":{"type":"MultiPolygon","coordinates":[[[[76.3888789044,9.8437979419],[76.3901157452,9.8495629172],[76.3870563426,9.8519419282],[76.3837164708,9.8627137814],[76.3871542106,9.8661491441],[76.3865363654,9.8687548174],[76.3890646161,9.8703501037],[76.3880117374,9.8774227819],[76.3976089208,9.8790415632],[76.4004092495,9.8779799032],[76.4048809273,9.8808390145],[76.4045691106,9.8793558052],[76.4083190682,9.8792436813],[76.4067775505,9.8766496157],[76.4071972918,9.8713860081],[76.4055066006,9.8690139064],[76.4071723178,9.8651982641],[76.4052719204,9.8590142772],[76.4117328915,9.859343596],[76.4129103371,9.8562620308],[76.4242088996,9.8609271425],[76.4280878431,9.8551170989],[76.4308925597,9.8536119149],[76.4310217671,9.8483210997],[76.4384068462,9.8451144307],[76.4425576924,9.8394545725],[76.4428495099,9.8328788311],[76.4407616189,9.8313126938],[76.4291652646,9.8244828734],[76.4213002242,9.8231776795],[76.419293483,9.824587902],[76.4145072931,9.8220754971],[76.4113791665,9.8279436128],[76.4083293456,9.8271040602],[76.4056290022,9.8303443502],[76.3942135765,9.8307860947],[76.3891474023,9.842886391],[76.3888789044,9.8437979419]]]]}},{"type":"Feature","properties":{"code":"G07078","name":"Arakkuzha","type":"Grama Panchayat","leading":"UDF","seats":{"LDF":0,"UDF":9,"NDA":0,"OTHERS":5}},"geometry":{"type":"MultiPolygon","coordinates":[[[[76.5830182832,9.9107239962],[76.5793579682,9.9128782526],[76.5820770502,9.9146736991],[76.5790050239,9.9174404615],[76.5755647787,9.917017677],[76.5710257767,9.9219630546],[76.5684745525,9.9209483347],[76.5639050732,9.9230686442],[76.5606660758,9.9300882207],[76.5620699925,9.9310162294],[76.5656245046,9.9284892341],[76.5662066914,9.9316562591],[76.5688126433,9.9323748402],[76.5784141365,9.9285683031],[76.5736266667,9.9328133333],[76.5747833333,9.935335],[76.5779379185,9.936932173],[76.5783090129,9.9394039403],[76.5805837014,9.9376690541],[76.581916214,9.938361753],[76.5806895138,9.9416878072],[76.5816892697,9.9445336668],[76.5856717042,9.9448498405],[76.5863794383,9.9536760165],[76.5882932596,9.9542845773],[76.5870190261,9.9591256784],[76.5885360581,9.9599034796],[76.5879305436,9.9634887515],[76.5915241983,9.9636694493],[76.5918594057,9.9663007982],[76.5936250521,9.9652587961],[76.5934179186,9.9677354699],[76.5952922671,9.9683415618],[76.5963116736,9.9716769691],[76.6081519236,9.9620662267],[76.6097566611,9.9583488516],[76.6066985041,9.953520044],[76.6108537034,9.9542698534],[76.6143855531,9.9521564285],[76.612381665,9.9444623776],[76.6042707931,9.9414161172],[76.6001867692,9.9364307963],[76.6007123789,9.9341017357],[76.6035044021,9.9327438394],[76.6081770033,9.9369640709],[76.6123914282,9.9375314492],[76.6202818237,9.9295129429],[76.6275438712,9.9292194183],[76.6300589123,9.9261461247],[76.6375372536,9.9255907462],[76.6394717335,9.9235866723],[76.6387621876,9.9200242051],[76.6401146815,9.9180035729],[76.6344294634,9.9177097014],[76.6292887977,9.9133723216],[76.6285658133,9.9118893794],[76.6304838585,9.9108760814],[76.6316845973,9.9054474649],[76.6276626459,9.9005072656],[76.6237018182,9.9030063936],[76.6220556625,9.9011942513],[76.6191728694,9.9033211794],[76.6158233901,9.902279418],[76.6092672667,9.9053470232],[76.6024461669,9.9042753006],[76.597303814,9.9085665365],[76.5957446015,9.9076233853],[76.5894526641,9.9108637585],[76.5833024688,9.9107104848],[76.5830182832,9.9107239962]]]]}},{"type":"Feature","properties":{"code":"G07018","name":"Asamannur","type":"Grama Panchayat","leading":"UDF","seats":{"LDF":3,"UDF":10,"NDA":1,"OTHERS":1}},"geometry":{"type":"MultiPolygon","coordinates":[[[[76.5606742462,10.0602601369],[76.5606742462,10.0602601369],[76.5606742462,10.0602601369]]]]}},{"type":"Feature","properties":{"code":"G07077","name":"Avoly","type":"Grama Panchayat","leading":"UDF","seats":{"LDF":3,"UDF":9,"NDA":0,"OTHERS":3}},"geometry":{"type":"MultiPolygon","coordinates":[[[[76.6081519236,9.9620662267],[76.6081519236,9.9620662267],[76.6081519236,9.9620662267]]]]}},{"type":"Feature","properties":{"code":"G07081","name":"Ayavana","type":"Grama Panchayat","leading":"UDF","seats":{"LDF":2,"UDF":11,"NDA":0,"OTHERS":3}},"geometry":{"type":"MultiPolygon","coordinates":[[[[76.6445056969,9.9575896738],[76.6445056969,9.9575896738],[76.6445056969,9.9575896738]]]]}},{"type":"Feature","properties":{"code":"G07014","name":"Ayyampuzha","type":"Grama Panchayat","leading":"LDF","seats":{"LDF":9,"UDF":5,"NDA":0,"OTHERS":0}},"geometry":{"type":"MultiPolygon","coordinates":[[[[76.4582856074,10.2165267319],[76.4558731149,10.2186636626],[76.4567192041,10.2217608587],[76.4544827464,10.2264183149],[76.449259559,10.2305301043],[76.4496917627,10.2337491573],[76.4459072268,10.2388427568],[76.4447070407,10.2453028995],[76.440940592,10.2492581195],[76.4427035262,10.255217849],[76.4408655153,10.2633372514],[76.4439299453,10.2628588288],[76.4452718354,10.2698292994],[76.4475371729,10.2725695792],[76.4472626925,10.2759120051],[76.4494512633,10.2777042794],[76.4458269944,10.281769002],[76.4396944901,10.2836881306],[76.4379563758,10.2880766786],[76.4340200438,10.2888963427],[76.4377893018,10.2907518952],[76.4372351699,10.2925820573],[76.4352570665,10.292271984],[76.4374313737,10.2941405113],[76.4434937689,10.2936840714],[76.4479113721,10.2970624438],[76.4590674787,10.2966056056],[76.4735982961,10.2913310426],[76.4784894998,10.292605457],[76.4840122691,10.2914818139],[76.4899294345,10.2937760302],[76.4955376938,10.2914354558],[76.4975885805,10.2877649106],[76.5161887497,10.2879318223],[76.5240467371,10.2844410823],[76.5466566217,10.2900448171],[76.5547773642,10.283586038],[76.5662025363,10.2859222902],[76.57399006,10.2856114098],[76.5665888078,10.2934054762],[76.5771837639,10.3034298807],[76.5833254173,10.3014694942],[76.5863540111,10.2985684269],[76.5900067047,10.2994817917],[76.5902373988,10.2933705645],[76.6034442469,10.2810520744],[76.6189644794,10.2811505001],[76.6215320871,10.2743109865],[76.6367137733,10.2739889212],[76.6412570763,10.2752701991],[76.6461983499,10.2808944666],[76.6621124313,10.2806617489],[76.6622838418,10.2774845695],[76.6696471238,10.2722837956],[76.6880172864,10.2668867916],[76.6801156681,10.2517733245],[76.6803062524,10.2367188005],[76.6780857144,10.2292738777],[76.6727890939,10.2326273399],[76.669248947,10.2315701638],[76.6704977122,10.224463741],[76.6753202624,10.220524393],[76.673606241,10.2154290015],[76.6520057319,10.1913787215],[76.6415909996,10.1620910244],[76.6277920835,10.1759327422],[76.6225861988,10.1758384787],[76.6125278648,10.1712517584],[76.6088570267,10.1719606374],[76.6057071326,10.1760027564],[76.5920837018,10.1756905007],[76.5855865066,10.181872202],[76.5761084111,10.185256294],[76.5708636396,10.189426739],[76.561572821,10.2052279553],[76.5572900963,10.2052165441],[76.5408470282,10.2175161048],[76.5325901878,10.2141420916],[76.5270443302,10.2193696146],[76.5205944462,10.2206329029],[76.5188397415,10.2251993086],[76.5105537918,10.2243293696],[76.5047167905,10.2253984611],[76.5056244214,10.2270449721],[76.5031123023,10.2271819793],[76.4978176927,10.2185712845],[76.4882850428,10.2163088169],[76.4840244041,10.2178351093],[76.481257153,10.2168915036],[76.4775664383,10.2188182084],[76.4820520959,10.2081044845],[76.4798150869,10.2056438131],[76.4760309165,10.2079451936],[76.4697356159,10.2058010949],[76.4602926484,10.2061094047],[76.4626173097,10.2141135674],[76.4582716107,10.2162486014],[76.4582856074,10.2165267319]]]]}},{"type":"Feature","properties":{"code":"G07039","name":"Chellanam","type":"Grama Panchayat","leading":"UDF","seats":{"LDF":7,"UDF":15,"NDA":0,"OTHERS":0}},"geometry":{"type":"MultiPolygon","coordinates":[[[[76.2510349986,9.9187835524],[76.2632715597,9.9220607873],[76.2722295468,9.8959176204],[76.273789194,9.867365836],[76.2676947414,9.8648051494],[76.2683850826,9.8614426489],[76.2701660225,9.8560260364],[76.2809155585,9.8584275042],[76.2834929288,9.8503792786],[76.2858141568,9.8478526504],[76.284319237,9.8361433591],[76.2801181455,9.8317819038],[76.2796015455,9.8270860516],[76.2838362282,9.8179003959],[76.2872280678,9.8193124995],[76.2914255379,9.8065354566],[76.2818139498,9.8042464416],[76.2843289193,9.7911015891],[76.2769891389,9.7899997489],[76.2606629499,9.8823219614],[76.2511130383,9.9186041],[76.2510349986,9.9187835524]]]]}},{"type":"Feature","properties":{"code":"G07001","name":"Chendamangalam","type":"Grama Panchayat","leading":"UDF","seats":{"LDF":7,"UDF":9,"NDA":0,"OTHERS":3}},"geometry":{"type":"MultiPolygon","coordinates":[[[[76.2309698764,10.1636807023],[76.2290711047,10.1694364181],[76.218529853,10.169152535],[76.2165529343,10.17288435],[76.2197158765,10.1740652705],[76.2213250632,10.1772757548],[76.2147995834,10.1776620076],[76.2147540065,10.1824882685],[76.2052552994,10.1847705713],[76.2036718082,10.1871664126],[76.2034452506,10.1943649787],[76.2124663386,10.1941807045],[76.213698846,10.198535796],[76.222434332,10.1952443374],[76.2294386148,10.1905016027],[76.2311439943,10.1876912241],[76.2298991346,10.1836454948],[76.2308522995,10.1827481556],[76.2423465133,10.1768829883],[76.2496129499,10.1698178093],[76.2519999341,10.1692625157],[76.2542894811,10.1602458125],[76.2527057166,10.1588967581],[76.250503635,10.1595680538],[76.2492954851,10.1571946449],[76.2468109666,10.1597065521],[76.2471331825,10.1614890243],[76.2448871774,10.1623809215],[76.2438247709,10.1589701799],[76.2450038362,10.1575061762],[76.2429619936,10.1575050509],[76.2443758242,10.1557565139],[76.2429337172,10.1538206489],[76.2400116247,10.1551540238],[76.2376804408,10.1592705089],[76.2352983167,10.1595301513],[76.2347650754,10.1568489315],[76.2359396853,10.1561291944],[76.2333113368,10.1550899411],[76.2337968566,10.1575548599],[76.2317777904,10.1597445011],[76.2279138282,10.1580188611],[76.2309289108,10.1635046731],[76.2309698764,10.1636807023]]]]}},{"type":"Feature","properties":{"code":"G07071","name":"Chengamanadu","type":"Grama Panchayat","leading":"TIE","seats":{"LDF":5,"UDF":6,"NDA":6,"OTHERS":2}},"geometry":{"type":"MultiPolygon","coordinates":[[[[76.3430911181,10.1254476295],[76.3430911181,10.1254476295],[76.3430911181,10.1254476295]]]]}},{"type":"Feature","properties":{"code":"G07031","name":"Cheranallur","type":"Grama Panchayat","leading":"UDF","seats":{"LDF":1,"UDF":12,"NDA":3,"OTHERS":4}},"geometry":{"type":"MultiPolygon","coordinates":[[[[76.2778587582,10.0239999135],[76.2778587582,10.0239999135],[76.2778587582,10.0239999135]]]]}},{"type":"Feature","properties":{"code":"G07005","name":"Chittattukara","type":"Grama Panchayat","leading":"UDF","seats":{"LDF":3,"UDF":15,"NDA":1,"OTHERS":1}},"geometry":{"type":"MultiPolygon","coordinates":[[[[76.2095946665,10.1468237531],[76.2095946665,10.1468237531],[76.2095946665,10.1468237531]]],[[[76.2588020179,10.1498907112],[76.2592992988,10.1465782712],[76.2470129793,10.1453846941],[76.2451857294,10.1516907807],[76.2429337172,10.1538206489],[76.2443758242,10.1557565139],[76.2429619936,10.1575050509],[76.2450038362,10.1575061762],[76.2438247574,10.1591406062],[76.2450299399,10.1624242293],[76.2471331825,10.1614890243],[76.2468109666,10.1597065521],[76.2492954851,10.1571946449],[76.250503635,10.1595680538],[76.2542528208,10.1590948681],[76.2540744401,10.154713183],[76.2585586901,10.149895339],[76.2588020179,10.1498907112]]],[[[76.2391568367,10.1569211009],[76.23556442,10.1571841327],[76.2352983167,10.1595301513],[76.2382882739,10.1590645255],[76.2392883439,10.1569873622],[76.2391568367,10.1569211009]]]]}},{"type":"Feature","properties":{"code":"G07027","name":"Choornikkara","type":"Grama Panchayat","leading":"UDF","seats":{"LDF":5,"UDF":13,"NDA":0,"OTHERS":3}},"geometry":{"type":"MultiPolygon","coordinates":[[[[76.3381564757,10.0712145048],[76.3381564757,10.0712145048],[76.3381564757,10.0712145048]]]]}},{"type":"Feature","properties":{"code":"G07044","name":"Chottanikara","type":"Grama Panchayat","leading":"UDF","seats":{"LDF":4,"UDF":12,"NDA":0,"OTHERS":1}},"geometry":{"type":"MultiPolygon","coordinates":[[[[76.3877167993,9.913438619],[76.3848043652,9.9126043052],[76.3807587708,9.9240934507],[76.3666448373,9.9238606859],[76.3668902507,9.9219285391],[76.3653432239,9.9220033323],[76.3610458096,9.9368427045],[76.3712190143,9.9387844867],[76.37180244,9.9365417133],[76.3753248356,9.9360799995],[76.3787331601,9.9383802679],[76.3791787777,9.9413510134],[76.381895674,9.9402634294],[76.3856590467,9.9416301614],[76.3864629005,9.9394860408],[76.392937542,9.9381235072],[76.3954278166,9.9343198956],[76.399539679,9.9352295184],[76.4043268523,9.9311228198],[76.4112568756,9.9304174001],[76.4169674588,9.9268975168],[76.4211369698,9.9146237218],[76.4074162202,9.9126144808],[76.3976028418,9.9072162306],[76.3975035,9.9139000605],[76.3935298208,9.9148088779],[76.3882045161,9.9133461404],[76.3877167993,9.913438619]]]]}},{"type":"Feature","properties":{"code":"G07045","name":"Edakkattuvayal","type":"Grama Panchayat","leading":"UDF","seats":{"LDF":0,"UDF":13,"NDA":1,"OTHERS":1}},"geometry":{"type":"MultiPolygon","coordinates":[[[[76.4390832773,9.8445375733],[76.4390832773,9.8445375733],[76.4390832773,9.8445375733]]]]}},{"type":"Feature","properties":{"code":"G07028","name":"Edathala","type":"Grama Panchayat","leading":"UDF","seats":{"LDF":6,"UDF":13,"NDA":2,"OTHERS":3}},"geometry":{"type":"MultiPolygon","coordinates":[[[[76.3806334175,10.0392894948],[76.3806334175,10.0392894948],[76.3806334175,10.0392894948]]]]}},{"type":"Feature","properties":{"code":"G07036","name":"Edavanakad","type":"Grama Panchayat","leading":"LDF","seats":{"LDF":9,"UDF":6,"NDA":1,"OTHERS":0}},"geometry":{"type":"MultiPolygon","coordinates":[[[[76.1968077531,10.0725823432],[76.1887722252,10.101880113],[76.1959169809,10.1053997931],[76.2032350388,10.1072058081],[76.2088900763,10.1075480442],[76.2100868563,10.1059817723],[76.215678991,10.1073852022],[76.2275749444,10.086866573],[76.2177231073,10.0814459124],[76.2155970566,10.0816104609],[76.2140700676,10.0778013275],[76.1970151121,10.0726473324],[76.1968077531,10.0725823432]]]]}},{"type":"Feature","properties":{"code":"G07033","name":"Elamkunnapuzha","type":"Grama Panchayat","leading":"UDF","seats":{"LDF":7,"UDF":13,"NDA":2,"OTHERS":2}},"geometry":{"type":"MultiPolygon","coordinates":[[[[76.2401787698,9.9728735972],[76.2298557994,9.9759713954],[76.2242807208,9.9737156514],[76.2104180551,10.0278192547],[76.235025357,10.0370657476],[76.242416761,10.0352699137],[76.2388455868,10.0124708851],[76.2421460497,10.0014775828],[76.2411826644,9.9943617743],[76.2449139725,9.9813964625],[76.2430514598,9.9805317635],[76.2440586092,9.9759360297],[76.2399975739,9.9730567428],[76.2401787698,9.9728735972]]]]}},{"type":"Feature","properties":{"code":"G07064","name":"Elanji","type":"Grama Panchayat","leading":"UDF","seats":{"LDF":2,"UDF":9,"NDA":0,"OTHERS":3}},"geometry":{"type":"MultiPolygon","coordinates":[[[[76.5148011378,9.8484030011],[76.5174610848,9.848678457],[76.519998645,9.851598209],[76.5276402709,9.8501495583],[76.5297280254,9.856736573],[76.5290895134,9.860779562],[76.5284132537,9.8630009924],[76.5260491363,9.862882626],[76.5243072944,9.8671732746],[76.5268906527,9.868935301],[76.5262649099,9.8721848482],[76.5309744848,9.8715511471],[76.5352539381,9.8674941612],[76.5403077436,9.8666013559],[76.5467564188,9.8605173133],[76.5454326119,9.858044671],[76.5474505549,9.8567042741],[76.5482821173,9.8579323413],[76.5526019997,9.8570336877],[76.5599511494,9.8523983973],[76.5614409129,9.8533886569],[76.5622230786,9.8520863585],[76.571217212,9.8513503917],[76.5770168239,9.848327959],[76.5803652938,9.843670731],[76.5789629288,9.8425040856],[76.5813918909,9.8363920108],[76.5793698286,9.8335257843],[76.5818296243,9.8275759874],[76.5815340687,9.8240070015],[76.576008973,9.8191604395],[76.5677681757,9.8243020438],[76.5629422105,9.8224755862],[76.5636298319,9.8206791016],[76.5606949567,9.8206735152],[76.5579527343,9.8158734916],[76.5557600079,9.8086240026],[76.5558786145,9.802336394],[76.5483491505,9.8017521273],[76.5467460588,9.7995558032],[76.5446921171,9.8004985013],[76.545494444,9.804157631],[76.5425162805,9.8048123539],[76.5415974216,9.8068472788],[76.543630554,9.8128503409],[76.5387989617,9.813437455],[76.5390302411,9.8225085516],[76.5234435216,9.8261616043],[76.5204637521,9.8229560485],[76.5201437641,9.8278531136],[76.518774895,9.8285290962],[76.5200957702,9.8303180192],[76.5177611811,9.8323538176],[76.5199248979,9.835353646],[76.5144011203,9.8430780907],[76.5147321144,9.8480592231],[76.5148011378,9.8484030011]]]]}},{"type":"Feature","properties":{"code":"G07003","name":"Ezhikkara","type":"Grama Panchayat","leading":"UDF","seats":{"LDF":1,"UDF":13,"NDA":1,"OTHERS":0}},"geometry":{"type":"MultiPolygon","coordinates":[[[[76.215678991,10.1073852022],[76.2094720343,10.1199070162],[76.2060641609,10.1353281941],[76.2007245826,10.142677548],[76.2094770814,10.1463421132],[76.2137155606,10.1423330698],[76.2163144768,10.1426824881],[76.2196701084,10.1370531262],[76.2210303456,10.1296075129],[76.2255591002,10.1311447596],[76.2266715712,10.134255392],[76.2294259795,10.1354058298],[76.2334907708,10.1298709319],[76.2353745787,10.1306848229],[76.2334984855,10.1264702028],[76.2274427585,10.1212848826],[76.2295003088,10.1204041186],[76.2288996138,10.1182050048],[76.2321600837,10.1119737532],[76.2351695206,10.111176495],[76.2370675201,10.1018168913],[76.2411057987,10.09621053],[76.2400317023,10.0852167041],[76.243451155,10.0793009289],[76.2476239918,10.0804908557],[76.2481657269,10.0755191273],[76.2541033469,10.071186129],[76.2458586857,10.0690553914],[76.2425908782,10.0736167836],[76.2360424907,10.0701640169],[76.2159337339,10.1070244398],[76.215678991,10.1073852022]]]]}},{"type":"Feature","properties":{"code":"G07030","name":"Kadamakkudy","type":"Grama Panchayat","leading":"UDF","seats":{"LDF":2,"UDF":7,"NDA":0,"OTHERS":5}},"geometry":{"type":"MultiPolygon","coordinates":[[[[76.2691490331,10.0377901961],[76.2689020451,10.0333416938],[76.2652137157,10.0311365014],[76.2622590937,10.0317150092],[76.2581230468,10.0399938849],[76.251847984,10.0351679517],[76.2422998747,10.0342575221],[76.2426569957,10.039800638],[76.2391069945,10.0499373015],[76.244945097,10.0501870239],[76.2444004354,10.057181899],[76.2428915197,10.0623436464],[76.2360424907,10.0701640169],[76.2425908782,10.0736167836],[76.2458586857,10.0690553914],[76.2541033469,10.071186129],[76.257414874,10.0697415462],[76.259391115,10.0673677716],[76.2593097881,10.0627010926],[76.2652173347,10.0645373333],[76.2718965116,10.0621853255],[76.2757498541,10.0627717169],[76.2766994002,10.0597780438],[76.2796825494,10.0607942529],[76.2799186024,10.0485553519],[76.2771340495,10.0460268652],[76.2717941898,10.0472203972],[76.2679987984,10.0460858474],[76.2690048152,10.0382279392],[76.2691490331,10.0377901961]]]]}},{"type":"Feature","properties":{"code":"G07009","name":"Kadungalloor","type":"Grama Panchayat","leading":"UDF","seats":{"LDF":6,"UDF":13,"NDA":1,"OTHERS":4}},"geometry":{"type":"MultiPolygon","coordinates":[[[[76.3189414118,10.082402798],[76.3189414118,10.082402798],[76.3189414118,10.082402798]],[[76.3099608207,10.0988968337],[76.3099608207,10.0988968337],[76.3099608207,10.0988968337]]]]}},{"type":"Feature","properties":{"code":"G07016","name":"Kalady","type":"Grama Panchayat","leading":"UDF","seats":{"LDF":2,"UDF":11,"NDA":0,"OTHERS":6}},"geometry":{"type":"MultiPolygon","coordinates":[[[[76.4180472552,10.1567943332],[76.4111113784,10.1578175026],[76.4093742312,10.1648407117],[76.4071185736,10.1670654946],[76.4051965291,10.1795102926],[76.4159693047,10.1805853203],[76.4164580988,10.1861249419],[76.4225145476,10.1830655656],[76.4224912126,10.1842578569],[76.4266252977,10.1835724413],[76.4296090456,10.1906227551],[76.432942875,10.1928625247],[76.4309201235,10.1977377923],[76.4345270966,10.2017160333],[76.4367396166,10.1988348145],[76.4459477952,10.19602905],[76.4522309315,10.1920532822],[76.4545484673,10.187166871],[76.4568135007,10.1873029413],[76.4585749489,10.1838813008],[76.4558526516,10.1814559905],[76.4582022984,10.1797544937],[76.4568953989,10.1748940645],[76.4581026086,10.1705558035],[76.4393088364,10.1603566762],[76.4364797951,10.1667200383],[76.434255927,10.1674825798],[76.433461458,10.1644599199],[76.4263237047,10.1633808414],[76.4245305947,10.1609311232],[76.4201556381,10.1601480534],[76.4184583855,10.1574977026],[76.4180472552,10.1567943332]]]]}},{"type":"Feature","properties":{"code":"G07080","name":"Kalloorkad","type":"Grama Panchayat","leading":"TIE","seats":{"LDF":4,"UDF":5,"NDA":0,"OTHERS":5}},"geometry":{"type":"MultiPolygon","coordinates":[[[[76.6843019374,9.938842435],[76.6825957388,9.9382571168],[76.6764254964,9.9409353816],[76.6749086717,9.9517246834],[76.6720306744,9.9547746057],[76.66924432,9.9543977465],[76.6612127165,9.9577980398],[76.6621797808,9.9622100116],[76.6596907921,9.9636896937],[76.6512399213,9.9651901233],[76.6525204578,9.9676616867],[76.6506555251,9.9688449317],[76.6510524311,9.9702664146],[76.6540836103,9.9709799022],[76.6540041279,9.9732431676],[76.6568362612,9.9751178029],[76.6566600259,9.9811555755],[76.6636368501,9.9822910948],[76.6732088547,9.9784029119],[76.6773832488,9.978875419],[76.6813273388,9.9773462037],[76.6843083322,9.9800282259],[76.6928200041,9.9781703893],[76.6974469878,9.9816415838],[76.7023746419,9.9804571045],[76.7020716799,9.9854677795],[76.7106474313,9.9886281547],[76.713138076,9.9866998788],[76.7184414038,9.986305068],[76.722411294,9.9821104427],[76.7157319385,9.9762987553],[76.7093021969,9.9789367405],[76.7086293089,9.9769363671],[76.7130758918,9.9710334539],[76.7110055777,9.9654521207],[76.716395831,9.9576953278],[76.7152819947,9.9550835841],[76.7166308598,9.9528401073],[76.7122117205,9.9523233753],[76.7104867223,9.9540001976],[76.7072758397,9.9517653056],[76.7079105663,9.9454481244],[76.7051012969,9.9459498058],[76.7044750615,9.9427312671],[76.7002279632,9.9389843721],[76.6999317242,9.9356940908],[76.6960116243,9.9323588325],[76.693823924,9.9325397608],[76.6930443574,9.9303338248],[76.6904597962,9.9314229346],[76.6898471581,9.9379398796],[76.6847715247,9.939089493],[76.6843019374,9.938842435]],[[76.6854986478,9.9686473517],[76.6854986478,9.9686473517],[76.6854986478,9.9686473517]]]]}},{"type":"Feature","properties":{"code":"G07015","name":"Kanjoor","type":"Grama Panchayat","leading":"UDF","seats":{"LDF":4,"UDF":10,"NDA":0,"OTHERS":3}},"geometry":{"type":"MultiPolygon","coordinates":[[[[76.4321746791,10.1448098733],[76.4321746791,10.1448098733],[76.4321746791,10.1448098733]]]]}},{"type":"Feature","properties":{"code":"G07013","name":"Karukutty","type":"Grama Panchayat","leading":"UDF","seats":{"LDF":6,"UDF":13,"NDA":0,"OTHERS":0}},"geometry":{"type":"MultiPolygon","coordinates":[[[[76.3912414204,10.2092599472],[76.3912414204,10.2092599472],[76.3912414204,10.2092599472]],[[76.3976050217,10.2688488237],[76.3977040577,10.2689192452],[76.3976050217,10.2688488237]]]]}},{"type":"Feature","properties":{"code":"G07006","name":"Karumalloor","type":"Grama Panchayat","leading":"UDF","seats":{"LDF":6,"UDF":13,"NDA":3,"OTHERS":0}},"geometry":{"type":"MultiPolygon","coordinates":[[[[76.2773256645,10.1227153611],[76.2773256645,10.1227153611],[76.2773256645,10.1227153611]],[[76.316097278,10.1235839535],[76.316097278,10.1235839535],[76.316097278,10.1235839535]]]]}},{"type":"Feature","properties":{"code":"G07057","name":"Kavalangad","type":"Grama Panchayat","leading":"UDF","seats":{"LDF":6,"UDF":9,"NDA":0,"OTHERS":4}},"geometry":{"type":"MultiPolygon","coordinates":[[[[76.7259556493,10.0270179802],[76.7250461332,10.0284459319],[76.7218648219,10.0274924025],[76.7208678498,10.0292662551],[76.7083942389,10.0327018291],[76.7081204379,10.0420476825],[76.693656545,10.0468529602],[76.6930087862,10.0491516119],[76.6874393272,10.0489295731],[76.6842740822,10.0419197029],[76.6843357698,10.0380802816],[76.6810091561,10.0362173133],[76.6774720835,10.0431405567],[76.6736001014,10.0443311231],[76.668977558,10.0426306228],[76.6667614926,10.0463279353],[76.6626784663,10.045626097],[76.6609316938,10.0469927442],[76.6602922866,10.0435871915],[76.6584821803,10.0422709764],[76.6517462964,10.0470796262],[76.6543650621,10.0505591328],[76.6576161059,10.0499068794],[76.6584496355,10.0527602427],[76.6610316959,10.0508523587],[76.6642041798,10.052230327],[76.6610694501,10.0554049553],[76.6620551355,10.0611747423],[76.668746364,10.0609854984],[76.673738821,10.0670412182],[76.6777421803,10.0683608238],[76.6770412427,10.0703859736],[76.6799191557,10.0726831735],[76.678587435,10.0765523389],[76.6723393682,10.0742268437],[76.6707433031,10.0741386328],[76.6716856033,10.0753474584],[76.6804952675,10.078477819],[76.6871243693,10.0777050214],[76.6886737437,10.0788554738],[76.6931560575,10.077489944],[76.6937093537,10.0798773056],[76.6974149191,10.081319657],[76.6955559486,10.0832533862],[76.6964862028,10.0842055922],[76.7125451867,10.086204356],[76.7150845039,10.08531743],[76.7187677003,10.0778539518],[76.7215600626,10.0761716223],[76.735435349,10.0762250648],[76.7412802384,10.0795898463],[76.7432328603,10.0825590063],[76.7469609406,10.0763536067],[76.7543324624,10.0723153043],[76.7582939073,10.0677812988],[76.7627548384,10.0669073939],[76.7668539148,10.0611424067],[76.7813341398,10.0580927263],[76.7904410448,10.046541525],[76.8003623503,10.0410964498],[76.8052942148,10.0413399579],[76.809326663,10.03732739],[76.8171136063,10.0359887473],[76.8323091404,10.0262233795],[76.8371690743,10.0259216032],[76.8481727408,10.0214407508],[76.8452000042,10.0209049202],[76.8431798987,10.0180204537],[76.8365401139,10.0177343239],[76.8364033579,10.0154757321],[76.8326378388,10.0169303097],[76.8332133682,10.0188848949],[76.8316789297,10.0170309678],[76.8287329048,10.0181967152],[76.8290481675,10.0197581141],[76.8266924055,10.0193396414],[76.8231509888,10.0237146778],[76.8238095855,10.0182822342],[76.8270410851,10.0146296837],[76.8238222112,10.0144135038],[76.8124328503,10.020130773],[76.8080941825,10.0253679757],[76.7984001463,10.0290543481],[76.7951931852,10.0285314679],[76.7923421738,10.0331024729],[76.7851897353,10.0364032766],[76.7800765678,10.0328671262],[76.7790223936,10.0230346467],[76.7667437195,10.0194649358],[76.7660778147,10.0178625472],[76.753055523,10.0245582379],[76.7451047721,10.0237977982],[76.7372226078,10.0263071401],[76.7261239454,10.0267711273],[76.7259556493,10.0270179802]]]]}},{"type":"Feature","properties":{"code":"G07059","name":"Keerampara","type":"Grama Panchayat","leading":"UDF","seats":{"LDF":2,"UDF":12,"NDA":0,"OTHERS":0}},"geometry":{"type":"MultiPolygon","coordinates":[[[[76.6529192405,10.0860200713],[76.6620473514,10.089774606],[76.6618592837,10.0936873661],[76.6523897292,10.098135536],[76.6459123773,10.0963483597],[76.6445205191,10.0992050334],[76.6465177203,10.1035584412],[76.6508906034,10.1055621314],[76.6509500668,10.1100662714],[76.6589203936,10.1157505783],[76.6570580687,10.1167602358],[76.6624699512,10.1182851716],[76.6623866346,10.1239804723],[76.6658485153,10.1284433405],[76.6647887543,10.1312669921],[76.6662051959,10.1329969999],[76.6641039553,10.1382494342],[76.6693136065,10.1413217617],[76.6728675292,10.1413954571],[76.6993292745,10.1156872282],[76.7166094012,10.1029092254],[76.7268954767,10.0916403612],[76.7432328603,10.0825590063],[76.7412802384,10.0795898463],[76.735435349,10.0762250648],[76.7215600626,10.0761716223],[76.7187677003,10.0778539518],[76.7146025748,10.0857529114],[76.7070001176,10.0860790505],[76.7049760507,10.0846403312],[76.6964862028,10.0842055922],[76.6955559486,10.0832533862],[76.6974149191,10.081319657],[76.6937093537,10.0798773056],[76.6931560575,10.077489944],[76.6886737437,10.0788554738],[76.6871243693,10.0777050214],[76.6804952675,10.078477819],[76.670466949,10.074141857],[76.6669858424,10.0784502638],[76.6682428534,10.0811411632],[76.653399398,10.0857469919],[76.6529192405,10.0860200713]]]]}},{"type":"Feature","properties":{"code":"G07029","name":"Keezhmadu","type":"Grama Panchayat","leading":"UDF","seats":{"LDF":3,"UDF":12,"NDA":0,"OTHERS":7}},"geometry":{"type":"MultiPolygon","coordinates":[[[[76.3743504339,10.0853311441],[76.3743504339,10.0853311441],[76.3743504339,10.0853311441]]]]}},{"type":"Feature","properties":{"code":"G07026","name":"Kizhakkambalam","type":"Grama Panchayat","leading":"OTHERS","seats":{"LDF":0,"UDF":1,"NDA":0,"OTHERS":20}},"geometry":{"type":"MultiPolygon","coordinates":[[[[76.4134525412,10.0336856497],[76.4134525412,10.0336856497],[76.4134525412,10.0336856497]]]]}},{"type":"Feature","properties":{"code":"G07022","name":"Koovappady","type":"Grama Panchayat","leading":"UDF","seats":{"LDF":5,"UDF":10,"NDA":4,"OTHERS":3}},"geometry":{"type":"MultiPolygon","coordinates":[[[[76.4954879044,10.1234852353],[76.4954879044,10.1234852353],[76.4954879044,10.1234852353]]]]}},{"type":"Feature","properties":{"code":"G07063","name":"Kottapady","type":"Grama Panchayat","leading":"UDF","seats":{"LDF":0,"UDF":11,"NDA":0,"OTHERS":4}},"geometry":{"type":"MultiPolygon","coordinates":[[[[76.5959190996,10.0959090301],[76.5959190996,10.0959090301],[76.5959190996,10.0959090301]]]]}},{"type":"Feature","properties":{"code":"G07002","name":"Kottuvally","type":"Grama Panchayat","leading":"UDF","seats":{"LDF":5,"UDF":10,"NDA":3,"OTHERS":6}},"geometry":{"type":"MultiPolygon","coordinates":[[[[76.2557150798,10.0849831395],[76.2557150798,10.0849831395],[76.2557150798,10.0849831395]]]]}},{"type":"Feature","properties":{"code":"G07041","name":"Kumbalam","type":"Grama Panchayat","leading":"UDF","seats":{"LDF":3,"UDF":14,"NDA":1,"OTHERS":1}},"geometry":{"type":"MultiPolygon","coordinates":[[[[76.3014876736,9.8905351175],[76.3013461007,9.9222707066],[76.308952501,9.9226360416],[76.313338932,9.9137238317],[76.3199525004,9.9157311137],[76.3198399552,9.9183655714],[76.322345297,9.9192867132],[76.3251042278,9.9157699175],[76.3394134935,9.9109876132],[76.3493335801,9.8981388645],[76.3548456241,9.8778797747],[76.3496277074,9.8781481678],[76.3390304634,9.8755040859],[76.3316601195,9.8763193493],[76.3221460096,9.8802007362],[76.3130928875,9.8818230008],[76.3017877318,9.8905913125],[76.3014876736,9.8905351175]]]]}},{"type":"Feature","properties":{"code":"G07040","name":"Kumbalanghy","type":"Grama Panchayat","leading":"UDF","seats":{"LDF":2,"UDF":14,"NDA":0,"OTHERS":3}},"geometry":{"type":"MultiPolygon","coordinates":[[[[76.2858141568,9.8478526504],[76.2834929288,9.8503792786],[76.2809155585,9.8584275042],[76.2701660225,9.8560260364],[76.2676947414,9.8648051494],[76.273789194,9.867365836],[76.2720606274,9.8967545433],[76.2835390417,9.901625957],[76.2875050831,9.9018038041],[76.2926755327,9.8907058524],[76.2951217688,9.8600903169],[76.2974264915,9.8528125671],[76.2950621448,9.8507460988],[76.2865451461,9.849583134],[76.2858495628,9.8481697568],[76.2858141568,9.8478526504]]]]}},{"type":"Feature","properties":{"code":"G07053","name":"Kunnathunad","type":"Grama Panchayat","leading":"UDF","seats":{"LDF":1,"UDF":11,"NDA":0,"OTHERS":9}},"geometry":{"type":"MultiPolygon","coordinates":[[[[76.4087272134,9.9966750379],[76.4087272134,9.9966750379],[76.4087272134,9.9966750379]]]]}},{"type":"Feature","properties":{"code":"G07074","name":"Kunnukara","type":"Grama Panchayat","leading":"UDF","seats":{"LDF":5,"UDF":9,"NDA":1,"OTHERS":1}},"geometry":{"type":"MultiPolygon","coordinates":[[[[76.2998557969,10.1383617721],[76.2940630651,10.1368333522],[76.2718801774,10.1501905125],[76.2714344253,10.151485854],[76.2788683731,10.1541149577],[76.2744689358,10.1570132881],[76.2761259085,10.1580873587],[76.2760571772,10.1604062482],[76.2782501035,10.1602122106],[76.2851990638,10.1678549895],[76.2862412071,10.1729953856],[76.2841986711,10.1762255856],[76.2858618603,10.1779423451],[76.2945543156,10.1756272965],[76.2969876077,10.1764603786],[76.301460462,10.1851696702],[76.3165613871,10.1802646778],[76.3227303366,10.1843764544],[76.3241480846,10.1816467733],[76.3222113351,10.1802697291],[76.3196000649,10.1710360477],[76.3230231788,10.1697813485],[76.3246800187,10.1656434156],[76.3278588254,10.1657085032],[76.3289812142,10.1634352572],[76.3259935837,10.1516452037],[76.3218021946,10.1517729463],[76.3104086514,10.1477892133],[76.3005650698,10.1389030146],[76.2998557969,10.1383617721]]]]}},{"type":"Feature","properties":{"code":"G07062","name":"Kuttampuzha","type":"Grama Panchayat","leading":"UDF","seats":{"LDF":4,"UDF":12,"NDA":0,"OTHERS":1}},"geometry":{"type":"MultiPolygon","coordinates":[[[[76.775920256,10.0590511875],[76.7668539148,10.0611424067],[76.7627548384,10.0669073939],[76.7582939073,10.0677812988],[76.7543324624,10.0723153043],[76.7469609406,10.0763536067],[76.7418840223,10.0840884358],[76.7268954767,10.0916403612],[76.7166094012,10.1029092254],[76.6993292745,10.1156872282],[76.6728675292,10.1413954571],[76.6693136065,10.1413217617],[76.6612753421,10.1373045272],[76.6584960633,10.1376694419],[76.6466096819,10.1568556958],[76.6416398749,10.1602644163],[76.6520057319,10.1913787215],[76.673606241,10.2154290015],[76.6753202624,10.220524393],[76.6704977122,10.224463741],[76.669248947,10.2315701638],[76.6727890939,10.2326273399],[76.6780857144,10.2292738777],[76.6803062524,10.2367188005],[76.6801156681,10.2517733245],[76.6880172864,10.2668867916],[76.6957188099,10.2637224709],[76.6966418235,10.2556537848],[76.7007229107,10.2546679026],[76.7035772504,10.2518486216],[76.711405065,10.252105794],[76.7064671057,10.252398534],[76.7065833277,10.2553807062],[76.7206760968,10.2548139096],[76.7296094424,10.256698612],[76.7308926976,10.2554885662],[76.7382145539,10.2556882532],[76.7402240975,10.2547716992],[76.7398480224,10.2531424867],[76.7562312655,10.2532719757],[76.7540429716,10.2509517823],[76.7646067362,10.252568595],[76.763868601,10.2532899123],[76.7658411097,10.2544599151],[76.7773943978,10.2523422113],[76.7786703132,10.2504700554],[76.7851118591,10.2543936317],[76.8001052424,10.2515555363],[76.8025768919,10.2521230406],[76.8037349505,10.2550163494],[76.804885017,10.2525267802],[76.8039694936,10.2504211968],[76.7987605256,10.2477484841],[76.809729218,10.2459127037],[76.8130888007,10.2472548272],[76.8178264196,10.2463692415],[76.8186977545,10.248050738],[76.8162046672,10.2498055189],[76.8189147833,10.2507345686],[76.8137892889,10.25217518],[76.8174755654,10.2564226506],[76.8191962396,10.2568673261],[76.821705683,10.2541530005],[76.8230986069,10.2571529868],[76.8290724562,10.257276646],[76.8289850207,10.2541079944],[76.8328985156,10.2535278661],[76.8371442113,10.2594615229],[76.8475964366,10.2607546759],[76.8621030487,10.2527999961],[76.8710992325,10.2517958493],[76.8803372333,10.2475648942],[76.8893893868,10.2457774648],[76.8953771707,10.241394202],[76.8983104544,10.2413159281],[76.9024393184,10.2446192906],[76.9036767572,10.2514432939],[76.9054751026,10.2477558951],[76.9023782947,10.2403847649],[76.9077819122,10.2410895537],[76.9097269813,10.2365902537],[76.9133397685,10.2345088733],[76.9067716319,10.2324065065],[76.8963717994,10.2323388913],[76.883270149,10.2345154911],[76.8777138048,10.232049252],[76.8787064803,10.224997763],[76.8771465039,10.223078422],[76.8696769817,10.2221349878],[76.8670056025,10.2201106226],[76.865316507,10.2107854473],[76.8687754591,10.2078480331],[76.873381031,10.1971068073],[76.8736814249,10.1905379117],[76.875831118,10.1861386164],[76.8795347175,10.1848845971],[76.8860552775,10.1786140871],[76.9016347838,10.1707745831],[76.9190621082,10.1718110973],[76.9192666445,10.1684527559],[76.912927265,10.1654395167],[76.912841166,10.1621855112],[76.9064283459,10.1544724516],[76.906384229,10.1510424883],[76.9027614268,10.1483688967],[76.9027572331,10.145455282],[76.8975223311,10.1383536521],[76.8940297834,10.1362756267],[76.8718809176,10.1332150979],[76.8686695259,10.1358117786],[76.8662199863,10.1316112057],[76.861672717,10.1283283677],[76.8542779231,10.1285917534],[76.8510054866,10.1258465345],[76.8468439268,10.1261743873],[76.846128488,10.1232908774],[76.8514517358,10.1141807818],[76.8570389304,10.1105708644],[76.8589238746,10.1075487822],[76.8583691632,10.1057162309],[76.8628750069,10.1006411091],[76.8650899923,10.0901180337],[76.8642523488,10.0815303951],[76.86562797,10.07423197],[76.8629772,10.07335929],[76.8557524416,10.0767588506],[76.8466786491,10.078402411],[76.837917237,10.0839310637],[76.8246956375,10.0890897233],[76.8227479263,10.0872581072],[76.8233791115,10.0861585377],[76.8165760144,10.0838116908],[76.81643173,10.08185698],[76.8141820128,10.0806738163],[76.8175946757,10.0718081109],[76.8166691837,10.0691870135],[76.8253088788,10.0622329715],[76.8192250775,10.062678162],[76.8173467664,10.0623665365],[76.8180793774,10.0613702571],[76.8102514705,10.0627600504],[76.8088686852,10.0623406776],[76.8116141156,10.0604375683],[76.8099838776,10.0592723698],[76.8117538281,10.0583418594],[76.8032685216,10.0571198694],[76.800596962,10.0606091344],[76.8065718349,10.0657159699],[76.8002653721,10.0630777045],[76.7959116227,10.0654473495],[76.7911605312,10.0633391419],[76.7825191191,10.0652918378],[76.7818675928,10.0670130757],[76.7699159404,10.066119963],[76.7745350268,10.0643948474],[76.7758244889,10.0597089192],[76.775920256,10.0590511875]]]]}},{"type":"Feature","properties":{"code":"G07038","name":"Kuzhuppilly","type":"Grama Panchayat","leading":"UDF","seats":{"LDF":2,"UDF":10,"NDA":1,"OTHERS":1}},"geometry":{"type":"MultiPolygon","coordinates":[[[[76.2030653896,10.1070306929],[76.2030653896,10.1070306929],[76.2030653896,10.1070306929]]]]}},{"type":"Feature","properties":{"code":"G07017","name":"Malayattoor- Neeleeswaram","type":"Grama Panchayat","leading":"UDF","seats":{"LDF":2,"UDF":12,"NDA":0,"OTHERS":4}},"geometry":{"type":"MultiPolygon","coordinates":[[[[76.4781793221,10.1832838488],[76.4699533358,10.1813032802],[76.4581026086,10.1705558035],[76.4568953989,10.1748940645],[76.4582022984,10.1797544937],[76.4558526516,10.1814559905],[76.4585749489,10.1838813008],[76.4555345205,10.1886322466],[76.4582406305,10.1907256105],[76.4623336781,10.1903303579],[76.4641333762,10.1924665817],[76.4624782792,10.1963850884],[76.4625755509,10.2052936327],[76.473908884,10.2064550489],[76.4760309165,10.2079451936],[76.479245098,10.2056692868],[76.4818097852,10.2065148472],[76.4811719385,10.2123545035],[76.4774087972,10.2186875466],[76.4882850428,10.2163088169],[76.4978176927,10.2185712845],[76.5031123023,10.2271819793],[76.5056244214,10.2270449721],[76.5047167905,10.2253984611],[76.5105537918,10.2243293696],[76.5188397415,10.2251993086],[76.5205944462,10.2206329029],[76.5270443302,10.2193696146],[76.5325901878,10.2141420916],[76.5396533126,10.2174457524],[76.5424412666,10.2167696282],[76.5572900963,10.2052165441],[76.561572821,10.2052279553],[76.5607315731,10.1946055985],[76.5471198607,10.1941512651],[76.52850535,10.1961803511],[76.5161920051,10.1942226924],[76.5098594222,10.184972934],[76.5044759909,10.1825070032],[76.4923883319,10.1844064184],[76.4786057203,10.1833550849],[76.4781793221,10.1832838488]]]]}},{"type":"Feature","properties":{"code":"G07047","name":"Maneedu","type":"Grama Panchayat","leading":"UDF","seats":{"LDF":2,"UDF":11,"NDA":0,"OTHERS":1}},"geometry":{"type":"MultiPolygon","coordinates":[[[[76.4509179096,9.8876224919],[76.4509179096,9.8876224919],[76.4509179096,9.8876224919]]]]}},{"type":"Feature","properties":{"code":"G07082","name":"Manjallur","type":"Grama Panchayat","leading":"UDF","seats":{"LDF":2,"UDF":8,"NDA":1,"OTHERS":3}},"geometry":{"type":"MultiPolygon","coordinates":[[[[76.6440323908,9.9197217237],[76.6440323908,9.9197217237],[76.6440323908,9.9197217237]]]]}},{"type":"Feature","properties":{"code":"G07012","name":"Manjapra","type":"Grama Panchayat","leading":"UDF","seats":{"LDF":4,"UDF":8,"NDA":0,"OTHERS":2}},"geometry":{"type":"MultiPolygon","coordinates":[[[[76.4442309121,10.196437781],[76.4442309121,10.196437781],[76.4442309121,10.196437781]]]]}},{"type":"Feature","properties":{"code":"G07083","name":"Marady","type":"Grama Panchayat","leading":"UDF","seats":{"LDF":3,"UDF":9,"NDA":0,"OTHERS":2}},"geometry":{"type":"MultiPolygon","coordinates":[[[[76.5680508899,9.9323535704],[76.5680508899,9.9323535704],[76.5680508899,9.9323535704]]]]}},{"type":"Feature","properties":{"code":"G07051","name":"Mazhuvannur","type":"Grama Panchayat","leading":"OTHERS","seats":{"LDF":3,"UDF":7,"NDA":1,"OTHERS":10}},"geometry":{"type":"MultiPolygon","coordinates":[[[[76.5112512845,9.9985267216],[76.5115509336,9.9969345048],[76.508136154,9.9961377226],[76.5059927952,9.9935987899],[76.507138518,9.9894602037],[76.5049539583,9.9830961252],[76.5069068082,9.9788477727],[76.5057924184,9.9767845342],[76.4945595798,9.9852958],[76.4917211999,9.9843999118],[76.4899395346,9.9870148913],[76.4856739983,9.9871283179],[76.4812956819,9.996388538],[76.4760286678,10.0001731609],[76.4773523166,10.0069311941],[76.4753620808,10.0114454878],[76.4737160874,10.0120290333],[76.4733462893,10.0161536629],[76.4681517431,10.0223404528],[76.4682605256,10.0260134272],[76.4663513392,10.028941054],[76.4667790452,10.0337450745],[76.4691722004,10.0365964191],[76.4677087834,10.0417182754],[76.4723421115,10.0446220291],[76.477025025,10.0446798517],[76.4788746279,10.0483958124],[76.4832376894,10.0480319255],[76.4837153663,10.0524780684],[76.4873662433,10.0522427276],[76.4883915264,10.0565878521],[76.4921816701,10.0597691827],[76.4940583163,10.0661977526],[76.506173884,10.0622513152],[76.5110517804,10.056407887],[76.5188893458,10.054871874],[76.5209492582,10.0528978676],[76.5256698996,10.0539077511],[76.5282749367,10.0491251858],[76.5354235937,10.0522891253],[76.5459215365,10.0489513743],[76.5391813372,10.0453008292],[76.5403717512,10.0438283335],[76.53772175,10.0403908875],[76.5384366035,10.037615659],[76.5369461759,10.0369260691],[76.5388204337,10.0307262081],[76.5379622908,10.0259444743],[76.5401448006,10.0231468595],[76.5392194926,10.0142701224],[76.5444171773,10.0071846665],[76.542447827,10.0077534318],[76.5399051597,10.0034516243],[76.5348565008,10.0075950975],[76.5312447241,10.0063569762],[76.5296748791,10.0078293003],[76.5231833645,10.0033150911],[76.5160026291,10.0029903356],[76.5157834782,10.0012776815],[76.5122528147,10.0008846199],[76.5127426135,9.999502662],[76.51105946,9.9988109098],[76.5112512845,9.9985267216]],[[76.5099167278,9.9990983238],[76.5099167278,9.9990983238],[76.5099167278,9.9990983238]]]]}},{"type":"Feature","properties":{"code":"G07010","name":"Mookkanoor","type":"Grama Panchayat","leading":"UDF","seats":{"LDF":1,"UDF":13,"NDA":0,"OTHERS":1}},"geometry":{"type":"MultiPolygon","coordinates":[[[[76.419629854,10.2104142919],[76.419629854,10.2104142919],[76.419629854,10.2104142919]]]]}},{"type":"Feature","properties":{"code":"G07019","name":"Mudakkuzha","type":"Grama Panchayat","leading":"UDF","seats":{"LDF":4,"UDF":6,"NDA":3,"OTHERS":1}},"geometry":{"type":"MultiPolygon","coordinates":[[[[76.5162280395,10.1199070706],[76.5162280395,10.1199070706],[76.5162280395,10.1199070706]]]]}},{"type":"Feature","properties":{"code":"G07043","name":"Mulamthuruthy","type":"Grama Panchayat","leading":"LDF","seats":{"LDF":9,"UDF":7,"NDA":0,"OTHERS":2}},"geometry":{"type":"MultiPolygon","coordinates":[[[[76.4006653115,9.8785548326],[76.4006653115,9.8785548326],[76.4006653115,9.8785548326]]]]}},{"type":"Feature","properties":{"code":"G07032","name":"Mulavukadu","type":"Grama Panchayat","leading":"UDF","seats":{"LDF":4,"UDF":9,"NDA":1,"OTHERS":2}},"geometry":{"type":"MultiPolygon","coordinates":[[[[76.2442447305,9.9810977461],[76.2446427661,9.9842587134],[76.2411826644,9.9943617743],[76.2421460497,10.0014775828],[76.2388455868,10.0124708851],[76.2422998747,10.0342575221],[76.251847984,10.0351679517],[76.2581230468,10.0399938849],[76.262385356,10.0327672473],[76.2593709608,10.0297945438],[76.260295355,10.0238624028],[76.2666584944,10.0266017326],[76.2701975383,10.0130228322],[76.2688636915,10.0103453729],[76.263697808,10.009892248],[76.2691274982,9.9832516933],[76.2610462206,9.9791052895],[76.2587323901,9.9843151439],[76.2536889864,9.9824718971],[76.2555460571,9.9786267077],[76.2540964193,9.9773507857],[76.247565836,9.9753885471],[76.2446293201,9.9767822842],[76.2439617615,9.9806500373],[76.2442447305,9.9810977461]]]]}},{"type":"Feature","properties":{"code":"G07035","name":"Nayarambalam","type":"Grama Panchayat","leading":"UDF","seats":{"LDF":5,"UDF":10,"NDA":1,"OTHERS":1}},"geometry":{"type":"MultiPolygon","coordinates":[[[[76.2052945708,10.0468066504],[76.2018778708,10.053203011],[76.1968077531,10.0725823432],[76.2140700676,10.0778013275],[76.2155970566,10.0816104609],[76.2177231073,10.0814459124],[76.2275749444,10.086866573],[76.2367993657,10.0688748899],[76.2428915197,10.0623436464],[76.244945097,10.0501870239],[76.2391069945,10.0499373015],[76.2351864168,10.0543094492],[76.2330549473,10.0597016874],[76.2293332012,10.0584969091],[76.2293645294,10.0569177057],[76.2250860164,10.0533480429],[76.2140596836,10.051266469],[76.2056145052,10.0469928315],[76.2052945708,10.0468066504]]]]}},{"type":"Feature","properties":{"code":"G07072","name":"Nedumbassery","type":"Grama Panchayat","leading":"UDF","seats":{"LDF":5,"UDF":14,"NDA":0,"OTHERS":1}},"geometry":{"type":"MultiPolygon","coordinates":[[[[76.3638595286,10.1438312985],[76.3554231084,10.1413380307],[76.354143331,10.1455634803],[76.3514116674,10.1452628865],[76.3460537583,10.1477634509],[76.3477321918,10.1532388198],[76.3469712704,10.1571222202],[76.3429229435,10.1575931127],[76.339985494,10.1629467822],[76.3352056829,10.1623476707],[76.334132164,10.1656663408],[76.329685012,10.1666152671],[76.3316711163,10.1713191104],[76.3371922313,10.1731916394],[76.3395666546,10.1763235498],[76.3384898924,10.1792399717],[76.3404473469,10.1829555219],[76.334981466,10.1848702],[76.3344888085,10.1866622785],[76.337536628,10.187201193],[76.3374697288,10.1891020292],[76.3433659805,10.191730381],[76.3452891825,10.1884058575],[76.3505351567,10.1876022691],[76.3594590342,10.1798378634],[76.3691707051,10.1802653462],[76.3710262055,10.1769664952],[76.3751402678,10.1750262162],[76.3771038641,10.1767459286],[76.3772811754,10.1755260843],[76.3846095257,10.1755467806],[76.3889081624,10.1778302909],[76.3891904055,10.17629957],[76.392900278,10.1762214487],[76.3916017156,10.1724380601],[76.3941990202,10.1703899003],[76.3944961521,10.1669669442],[76.3909532202,10.1630244379],[76.3887622091,10.16366442],[76.3882838032,10.1601670758],[76.3934126107,10.1565225497],[76.3941497132,10.1480190658],[76.3871705728,10.1445683934],[76.3869143208,10.1423892059],[76.36939345,10.1457894458],[76.3640267239,10.1437956426],[76.3638595286,10.1438312985]]]]}},{"type":"Feature","properties":{"code":"G07055","name":"Nellikuzhy","type":"Grama Panchayat","leading":"UDF","seats":{"LDF":6,"UDF":13,"NDA":2,"OTHERS":3}},"geometry":{"type":"MultiPolygon","coordinates":[[[[76.583105579,10.0380403601],[76.5799128159,10.0372717023],[76.5774241723,10.0345269717],[76.5726707257,10.0441764059],[76.5687515436,10.0484982037],[76.5575327959,10.0538030344],[76.560540745,10.0572829519],[76.5616760355,10.0619985018],[76.5602794429,10.0642973969],[76.561755943,10.0652944846],[76.5563995467,10.0742241218],[76.5574065125,10.0778892357],[76.5589074294,10.0771734531],[76.5595911627,10.0788814061],[76.5590398305,10.0808760156],[76.5569796556,10.0812686316],[76.5574489636,10.0836470537],[76.5681436117,10.0823845019],[76.5699516881,10.0859141506],[76.5720059606,10.0862860822],[76.5763665768,10.081780282],[76.5767617062,10.0831470462],[76.5783207086,10.0820677475],[76.5783738398,10.0857243421],[76.5851851015,10.0890570759],[76.5930785123,10.088748376],[76.5989179842,10.0853029826],[76.6072630705,10.0848804363],[76.6098278848,10.0920681689],[76.6074886719,10.0952976018],[76.6123110346,10.0962790251],[76.6134634745,10.0941321096],[76.6130260969,10.0970728079],[76.6163969884,10.0976844877],[76.6168327326,10.0895538003],[76.6187012084,10.0871887666],[76.621710823,10.0868254711],[76.6205481867,10.0848904153],[76.6216747105,10.0806003491],[76.6202191841,10.0789417423],[76.6176781226,10.0790882901],[76.6174845557,10.0756961971],[76.6161556692,10.0784773294],[76.6085686221,10.0770304633],[76.6079184769,10.0736830569],[76.61200843,10.067205371],[76.6138237296,10.0666514396],[76.6127748147,10.0584399208],[76.6079936514,10.0558861414],[76.6039511185,10.060753766],[76.5981768699,10.0616490006],[76.5953692063,10.0585626058],[76.5889638204,10.058545847],[76.5935813273,10.0451371376],[76.6006104608,10.0386288985],[76.5999992783,10.0318954705],[76.5970666488,10.0343010122],[76.5934850827,10.0341762842],[76.5924592299,10.0367085412],[76.5893157334,10.0376282108],[76.5876413474,10.0364204485],[76.5836590168,10.0385121959],[76.583105579,10.0380403601]]]]}},{"type":"Feature","properties":{"code":"G07034","name":"Njarakkal","type":"Grama Panchayat","leading":"UDF","seats":{"LDF":5,"UDF":8,"NDA":1,"OTHERS":3}},"geometry":{"type":"MultiPolygon","coordinates":[[[[76.2104180551,10.0278192547],[76.2052945708,10.0468066504],[76.2140596836,10.051266469],[76.2250860164,10.0533480429],[76.2304451585,10.0590850033],[76.2330549473,10.0597016874],[76.2351864168,10.0543094492],[76.2391069945,10.0499373015],[76.2426569957,10.039800638],[76.242416761,10.0352699137],[76.235025357,10.0370657476],[76.210996783,10.0280437572],[76.2104180551,10.0278192547]]]]}},{"type":"Feature","properties":{"code":"G07023","name":"Okkal","type":"Grama Panchayat","leading":"UDF","seats":{"LDF":5,"UDF":9,"NDA":0,"OTHERS":3}},"geometry":{"type":"MultiPolygon","coordinates":[[[[76.457300808,10.1322450486],[76.4495572983,10.1383702647],[76.4499936886,10.1444473273],[76.4396879507,10.1463828198],[76.4325248603,10.144713149],[76.4300384938,10.1462312843],[76.4294357645,10.1491608858],[76.4361190377,10.1579520417],[76.4592944255,10.171229293],[76.4634735702,10.175668966],[76.46765693,10.16920581],[76.4687580318,10.1704661717],[76.4714797363,10.1686753938],[76.4813507352,10.1708001572],[76.4827023281,10.1653649303],[76.4824891844,10.1637554288],[76.4783773661,10.1638166578],[76.4783290384,10.1565309656],[76.4743348762,10.1578053612],[76.473060138,10.1546782919],[76.4681094565,10.1538253301],[76.4691410787,10.1510696264],[76.4678275549,10.1472646026],[76.4706852821,10.1408988757],[76.4702245551,10.1336151719],[76.4678140408,10.1355937514],[76.4654047632,10.1334653226],[76.4610171887,10.1340571206],[76.4578400633,10.1323482464],[76.457300808,10.1322450486]]]]}},{"type":"Feature","properties":{"code":"G07054","name":"Paingottoor","type":"Grama Panchayat","leading":"UDF","seats":{"LDF":3,"UDF":10,"NDA":0,"OTHERS":1}},"geometry":{"type":"MultiPolygon","coordinates":[[[[76.7226241367,9.9817646432],[76.7192592119,9.9858304662],[76.713138076,9.9866998788],[76.7111232536,9.9885631851],[76.7022774113,9.9853051959],[76.6971979614,9.9944493894],[76.6955516795,9.9912343614],[76.6927594138,9.9907100279],[76.6936342461,9.996726905],[76.6890669007,10.0050448293],[76.6928521272,10.0080498106],[76.6960675818,10.0142870244],[76.7051977333,10.0157637936],[76.7090122436,10.012682054],[76.7148125338,10.0138835822],[76.7163401582,10.0159400241],[76.7148213983,10.0171199047],[76.7151599929,10.0254638192],[76.7259556493,10.0270179802],[76.7372226078,10.0263071401],[76.7451047721,10.0237977982],[76.753055523,10.0245582379],[76.7660778147,10.0178625472],[76.7656420638,10.0090400302],[76.7689195515,10.0005643558],[76.7665114378,9.9971700187],[76.7704600447,9.9943338638],[76.768255826,9.9915879345],[76.7636267297,9.9916478696],[76.7653995513,9.9893248334],[76.7624130929,9.9904790835],[76.7642291228,9.9890632015],[76.761197342,9.9901597877],[76.7606627243,9.9889050496],[76.7652486662,9.9841890045],[76.7661024963,9.9811431488],[76.7621059177,9.9819419157],[76.7562607516,9.9871526517],[76.7442812476,9.9905117395],[76.7366448939,9.9845010704],[76.731607783,9.9846656936],[76.722902045,9.9812803513],[76.7226241367,9.9817646432]]]]}},{"type":"Feature","properties":{"code":"G07079","name":"Paipra","type":"Grama Panchayat","leading":"UDF","seats":{"LDF":4,"UDF":18,"NDA":0,"OTHERS":2}},"geometry":{"type":"MultiPolygon","coordinates":[[[[76.5681232953,10.008573777],[76.5690453771,10.0066727162],[76.5661407645,10.0022012881],[76.5675885312,9.9987294644],[76.5652235529,9.996724437],[76.5646397938,9.9933815339],[76.559893851,9.9947584392],[76.5533786652,9.9920714629],[76.5498263576,9.9931607273],[76.5399051597,10.0034516243],[76.542447827,10.0077534318],[76.5445022061,10.0074437514],[76.5392194926,10.0142701224],[76.5401448006,10.0231468595],[76.5379622908,10.0259444743],[76.5376801794,10.0402437356],[76.5403717512,10.0438283335],[76.5391813372,10.0453008292],[76.5467359363,10.0492330361],[76.5483793232,10.0541148187],[76.5528395992,10.0526510369],[76.5522309482,10.054821252],[76.5537793967,10.0554339038],[76.5687515436,10.0484982037],[76.5726707257,10.0441764059],[76.5774241723,10.0345269717],[76.5838165035,10.0386464614],[76.5876413474,10.0364204485],[76.5893157334,10.0376282108],[76.5924592299,10.0367085412],[76.5934850827,10.0341762842],[76.5970666488,10.0343010122],[76.59989672,10.0312172546],[76.6009251167,10.0268178102],[76.5984033838,10.0242699847],[76.6009530986,10.0187431445],[76.5994990307,10.0119144889],[76.6020769652,10.0090484532],[76.6016563095,10.0074512203],[76.5984587553,10.00701362],[76.5930593789,10.0030088272],[76.5999184124,9.9987203973],[76.6012834448,9.9896215772],[76.5930877951,9.9926609403],[76.5878122864,10.0005025481],[76.5833026546,10.0014031057],[76.5775555081,10.0074256366],[76.5753958783,10.0068486123],[76.5731586525,10.0090519805],[76.5685262881,10.0085675686],[76.5681232953,10.008573777]]]]}},{"type":"Feature","properties":{"code":"G07068","name":"Palakuzha","type":"Grama Panchayat","leading":"UDF","seats":{"LDF":1,"UDF":13,"NDA":0,"OTHERS":0}},"geometry":{"type":"MultiPolygon","coordinates":[[[[76.6044269492,9.8639276351],[76.6044269492,9.8639276351],[76.6044269492,9.8639276351]]]]}},{"type":"Feature","properties":{"code":"G07061","name":"Pallarimangalam","type":"Grama Panchayat","leading":"UDF","seats":{"LDF":1,"UDF":13,"NDA":0,"OTHERS":0}},"geometry":{"type":"MultiPolygon","coordinates":[[[[76.6735082552,10.0243785544],[76.6704485266,10.018985826],[76.6684446927,10.02015237],[76.6660603981,10.0182688738],[76.6646247812,10.0194748711],[76.6600667238,10.0188811023],[76.6574997625,10.0207688272],[76.6540861737,10.0206929151],[76.6520590786,10.0269558832],[76.6537069642,10.0293398474],[76.6478234272,10.0334212404],[76.648160834,10.0364071902],[76.6514054167,10.0398914495],[76.6584386855,10.0407435829],[76.6609316938,10.0469927442],[76.6626784663,10.045626097],[76.6667614926,10.0463279353],[76.668977558,10.0426306228],[76.6736001014,10.0443311231],[76.677677888,10.0430591489],[76.6796783103,10.0370219013],[76.6832060038,10.0367384433],[76.6874393272,10.0489295731],[76.6930087862,10.0491516119],[76.693656545,10.0468529602],[76.706485528,10.0432449989],[76.70842897,10.0408061244],[76.7083942389,10.0327018291],[76.7208678498,10.0292662551],[76.7218648219,10.0274924025],[76.7257358384,10.0279290056],[76.7249508431,10.0266679421],[76.7165586235,10.026337315],[76.7147933233,10.0243828587],[76.7091906692,10.0257186548],[76.7050518234,10.028675324],[76.7039667133,10.0266178255],[76.6968285652,10.0266517109],[76.695909938,10.0247653439],[76.6910343104,10.0259313821],[76.6915134371,10.0235330056],[76.6879913559,10.0237823709],[76.6853328921,10.0259906142],[76.6806854937,10.024913001],[76.6752945248,10.0263580561],[76.6733721303,10.0245010059],[76.6735082552,10.0243785544]]]]}},{"type":"Feature","properties":{"code":"G07037","name":"Pallippuram","type":"Grama Panchayat","leading":"LDF","seats":{"LDF":13,"UDF":9,"NDA":2,"OTHERS":0}},"geometry":{"type":"MultiPolygon","coordinates":[[[[76.1928054979,10.1252162871],[76.1885006651,10.1231122877],[76.1837000894,10.1229482077],[76.1662247292,10.1753970868],[76.1634563481,10.1763749236],[76.1690280438,10.1849121645],[76.1747965294,10.1865206422],[76.1795178208,10.1729895382],[76.1863520489,10.1659349701],[76.1934118801,10.1625385505],[76.1949643275,10.1559117709],[76.1994704156,10.1484751957],[76.1999409686,10.1440706743],[76.2060641609,10.1353281941],[76.2072838467,10.1297314776],[76.1929368164,10.1252798049],[76.1928054979,10.1252162871]]]]}},{"type":"Feature","properties":{"code":"G07069","name":"Pampakuda","type":"Grama Panchayat","leading":"UDF","seats":{"LDF":1,"UDF":9,"NDA":0,"OTHERS":4}},"geometry":{"type":"MultiPolygon","coordinates":[[[[76.5108547993,9.878429824],[76.5108547993,9.878429824],[76.5108547993,9.878429824]]]]}},{"type":"Feature","properties":{"code":"G07073","name":"Parakkadavu","type":"Grama Panchayat","leading":"UDF","seats":{"LDF":7,"UDF":10,"NDA":1,"OTHERS":2}},"geometry":{"type":"MultiPolygon","coordinates":[[[[76.3297789954,10.1669874548],[76.3297789954,10.1669874548],[76.3297789954,10.1669874548]]]]}},{"type":"Feature","properties":{"code":"G07056","name":"Pindimana","type":"Grama Panchayat","leading":"UDF","seats":{"LDF":3,"UDF":8,"NDA":2,"OTHERS":1}},"geometry":{"type":"MultiPolygon","coordinates":[[[[76.6076446832,10.0875616891],[76.6076446832,10.0875616891],[76.6076446832,10.0875616891]]]]}},{"type":"Feature","properties":{"code":"G07048","name":"Poothrikka","type":"Grama Panchayat","leading":"TIE","seats":{"LDF":2,"UDF":7,"NDA":0,"OTHERS":7}},"geometry":{"type":"MultiPolygon","coordinates":[[[[76.4447266564,9.9453263922],[76.4458692351,9.9433874255],[76.4422802313,9.9437243569],[76.4401535184,9.9471760078],[76.4367627719,9.9481165656],[76.4355840118,9.9536132574],[76.4324941749,9.9542313058],[76.4288520374,9.958732097],[76.4265402552,9.958136438],[76.4300008969,9.9612414705],[76.4271232452,9.9654236556],[76.428876287,9.9698785074],[76.427809864,9.9753116979],[76.4328223257,9.9760896534],[76.4344690263,9.9809989873],[76.4380881153,9.9795053888],[76.4420062513,9.980718524],[76.4422739205,9.9786220578],[76.4443126732,9.9785095657],[76.4502514255,9.9815505411],[76.4511815616,9.9794219654],[76.4595893452,9.9787489823],[76.4595773088,9.9762644786],[76.468180515,9.9804088116],[76.4699311402,9.9828156617],[76.4730704741,9.9829152144],[76.473961617,9.9811927345],[76.4753783326,9.9821846177],[76.4767527987,9.9798673751],[76.4788708413,9.9796282711],[76.4789559626,9.9772922842],[76.4864865942,9.9727796],[76.486938663,9.9708483259],[76.4892190923,9.9709973271],[76.491994098,9.9679667985],[76.4965587649,9.97000967],[76.4972490786,9.9688584756],[76.4945790397,9.9660961358],[76.4950793157,9.9638932882],[76.5043017782,9.9601730675],[76.5004832553,9.9542094771],[76.4998474994,9.948655392],[76.4972139619,9.9481570394],[76.4924221347,9.9528610354],[76.4879069457,9.9539498773],[76.4725319518,9.9380901256],[76.460635378,9.9449489498],[76.453624537,9.942470956],[76.4449142914,9.9455889392],[76.4447266564,9.9453263922]]]]}},{"type":"Feature","properties":{"code":"G07060","name":"Pothanikkad","type":"Grama Panchayat","leading":"TIE","seats":{"LDF":2,"UDF":6,"NDA":0,"OTHERS":6}},"geometry":{"type":"MultiPolygon","coordinates":[[[[76.6787053038,9.9907163202],[76.6749499381,9.9939687702],[76.6736060916,9.9911739598],[76.6681204636,9.9925592426],[76.665386282,9.9972690293],[76.6589558506,9.9995371831],[76.6560149199,9.9963501165],[76.6487959661,9.9936723239],[76.6482079881,10.0013371917],[76.6506092404,10.0066330119],[76.650364954,10.0099133286],[76.6523529684,10.011998028],[76.6485142078,10.013978032],[76.6511140702,10.0141419547],[76.6527119435,10.0175166682],[76.65509789,10.0179810251],[76.6540861737,10.0206929151],[76.6574997625,10.0207688272],[76.6600667238,10.0188811023],[76.6646247812,10.0194748711],[76.6660603981,10.0182688738],[76.6684446927,10.02015237],[76.6704485266,10.018985826],[76.6735967904,10.0241699983],[76.6729516385,10.0252954189],[76.6749582463,10.0263157446],[76.6806854937,10.024913001],[76.6853328921,10.0259906142],[76.6879913559,10.0237823709],[76.6915134371,10.0235330056],[76.6910343104,10.0259313821],[76.695909938,10.0247653439],[76.6963613162,10.026485347],[76.7039667133,10.0266178255],[76.706069386,10.0284826404],[76.7091906692,10.0257186548],[76.7147933233,10.0243828587],[76.7160296474,10.0154152012],[76.7090122436,10.012682054],[76.7051977333,10.0157637936],[76.696312472,10.0144608049],[76.6928521272,10.0080498106],[76.6890669007,10.0050448293],[76.6936342461,9.996726905],[76.6929213846,9.9908679394],[76.6883689328,9.9882547073],[76.6790865103,9.9906008258],[76.6787053038,9.9907163202]]]]}},{"type":"Feature","properties":{"code":"G07076","name":"Puthenvelikara","type":"Grama Panchayat","leading":"UDF","seats":{"LDF":8,"UDF":10,"NDA":0,"OTHERS":1}},"geometry":{"type":"MultiPolygon","coordinates":[[[[76.2519999341,10.1692625157],[76.2496129499,10.1698178093],[76.2423465133,10.1768829883],[76.2308522995,10.1827481556],[76.2298991346,10.1836454948],[76.2311439943,10.1876912241],[76.2294386148,10.1905016027],[76.222434332,10.1952443374],[76.2125039404,10.198660159],[76.2116968984,10.2008932007],[76.2220743983,10.2055333905],[76.2290525746,10.2050371721],[76.2344582149,10.2022176635],[76.2374271808,10.2044456019],[76.2418412191,10.2031321387],[76.2434923637,10.2054148008],[76.2463409493,10.2017645043],[76.2498284135,10.2005583977],[76.2593565563,10.2029371264],[76.2641857778,10.2009323289],[76.2647505109,10.1990538832],[76.262084625,10.1952572057],[76.2610255771,10.1898191637],[76.2671154068,10.1851218953],[76.2721562336,10.1858724455],[76.2743775382,10.1847422619],[76.2737798285,10.1752285268],[76.2798841054,10.17397307],[76.2850262559,10.1756929327],[76.2862412071,10.1729953856],[76.2851990638,10.1678549895],[76.2782501035,10.1602122106],[76.2759274819,10.1601921301],[76.2761259085,10.1580873587],[76.2744689358,10.1570132881],[76.2788683731,10.1541149577],[76.2714344253,10.151485854],[76.2654793966,10.1598362811],[76.252474314,10.1695989812],[76.2519999341,10.1692625157]]]]}},{"type":"Feature","properties":{"code":"G07070","name":"Ramamangalam","type":"Grama Panchayat","leading":"UDF","seats":{"LDF":5,"UDF":7,"NDA":1,"OTHERS":1}},"geometry":{"type":"MultiPolygon","coordinates":[[[[76.4972334004,9.9057445722],[76.4972334004,9.9057445722],[76.4972334004,9.9057445722]]]]}},{"type":"Feature","properties":{"code":"G07021","name":"Rayamangalam","type":"Grama Panchayat","leading":"UDF","seats":{"LDF":8,"UDF":14,"NDA":0,"OTHERS":0}},"geometry":{"type":"MultiPolygon","coordinates":[[[[76.5081040777,10.0602355757],[76.5014795857,10.0643730003],[76.4932997531,10.066802005],[76.492614228,10.0706332035],[76.4870587625,10.0781166758],[76.4866595128,10.0833418305],[76.4847697709,10.0862841003],[76.4880683353,10.09121131],[76.4879767167,10.0948428751],[76.4835304102,10.0978483687],[76.4809214389,10.1054697581],[76.4893661484,10.1075455782],[76.5021194556,10.1045888206],[76.5031645808,10.1090536179],[76.5012431,10.1109461866],[76.5036342174,10.1180494232],[76.508799134,10.1209354855],[76.5099402389,10.1192803829],[76.5161685144,10.1205976226],[76.5185747677,10.1165252419],[76.5216514598,10.1181098089],[76.533545856,10.1171269382],[76.534228123,10.118323581],[76.534291965,10.1157078042],[76.5362002551,10.1139553473],[76.5393346143,10.1137207085],[76.5367032589,10.1093696274],[76.5346413579,10.1100620192],[76.533386969,10.1081269599],[76.5339636933,10.1039794197],[76.5362249084,10.0994178849],[76.541304859,10.0980494407],[76.5407329204,10.0945256158],[76.5464988436,10.091900905],[76.540110426,10.0854358632],[76.541306823,10.0826040048],[76.5402667574,10.0798449348],[76.5370983678,10.0810277844],[76.5342925915,10.0779321457],[76.5425986143,10.0676458616],[76.5411241181,10.0660533333],[76.5415070913,10.0622951114],[76.5478252756,10.0535157233],[76.5467359363,10.0492330361],[76.5354235937,10.0522891253],[76.5282749367,10.0491251858],[76.5256698996,10.0539077511],[76.5209492582,10.0528978676],[76.5188893458,10.054871874],[76.510793046,10.0565087253],[76.5082659518,10.0600009872],[76.5081040777,10.0602355757]]]]}},{"type":"Feature","properties":{"code":"G07075","name":"Sreemoolanagaram","type":"Grama Panchayat","leading":"UDF","seats":{"LDF":2,"UDF":15,"NDA":0,"OTHERS":1}},"geometry":{"type":"MultiPolygon","coordinates":[[[[76.3830245729,10.1216460216],[76.3777074345,10.1240438094],[76.3711098342,10.1231548309],[76.3719175177,10.1255074716],[76.3687059276,10.1282588526],[76.3696998798,10.1357597818],[76.3769774884,10.1348691766],[76.3795173546,10.1299675612],[76.3814670734,10.1301811369],[76.3825479396,10.1329001757],[76.3882251711,10.1323232814],[76.3858099658,10.13891931],[76.3873315296,10.1408559148],[76.3871705728,10.1445683934],[76.3941497132,10.1480190658],[76.395201248,10.1537121773],[76.4040198675,10.1536000329],[76.4047184778,10.1570837822],[76.4073164716,10.13603672],[76.4155087109,10.1348392434],[76.4175673565,10.1361133967],[76.4178920677,10.134673211],[76.4208552948,10.1358865991],[76.4289672105,10.135322248],[76.4311356904,10.1293633052],[76.4340806628,10.1287732662],[76.4350017275,10.1227583142],[76.4210867155,10.1156460455],[76.414599648,10.1142154325],[76.3996763035,10.1227293332],[76.390835009,10.1238544351],[76.3837122942,10.1220280559],[76.3830245729,10.1216460216]]]]}},{"type":"Feature","properties":{"code":"G07066","name":"Thirumaradi","type":"Grama Panchayat","leading":"UDF","seats":{"LDF":4,"UDF":11,"NDA":0,"OTHERS":0}},"geometry":{"type":"MultiPolygon","coordinates":[[[[76.544872171,9.8754860419],[76.544872171,9.8754860419],[76.544872171,9.8754860419]],[[76.5574014668,9.8756757756],[76.5574014668,9.8756757756],[76.5574014668,9.8756757756]],[[76.5836874409,9.8924131033],[76.5836874409,9.8924131033],[76.5836874409,9.8924131033]]]]}},{"type":"Feature","properties":{"code":"G07049","name":"Thiruvaniyoor","type":"Grama Panchayat","leading":"OTHERS","seats":{"LDF":5,"UDF":4,"NDA":0,"OTHERS":9}},"geometry":{"type":"MultiPolygon","coordinates":[[[[76.3988965425,9.9350824427],[76.3988965425,9.9350824427],[76.3988965425,9.9350824427]]]]}},{"type":"Feature","properties":{"code":"G07011","name":"Thuravoor","type":"Grama Panchayat","leading":"UDF","seats":{"LDF":6,"UDF":9,"NDA":1,"OTHERS":0}},"geometry":{"type":"MultiPolygon","coordinates":[[[[76.4113409601,10.1874201106],[76.4113409601,10.1874201106],[76.4113409601,10.1874201106]]]]}},{"type":"Feature","properties":{"code":"G07042","name":"Udayamperoor","type":"Grama Panchayat","leading":"UDF","seats":{"LDF":8,"UDF":13,"NDA":1,"OTHERS":1}},"geometry":{"type":"MultiPolygon","coordinates":[[[[76.3548456241,9.8778797747],[76.3493335801,9.8981388645],[76.3387694898,9.9115993857],[76.34322443,9.9156220592],[76.3482188179,9.9160946025],[76.3474551967,9.9192838269],[76.3490167281,9.9199056272],[76.3648282461,9.9232434773],[76.3664451729,9.9217991598],[76.3666448373,9.9238606859],[76.3807587708,9.9240934507],[76.3848043652,9.9126043052],[76.3756541438,9.9032055598],[76.3798686275,9.886150397],[76.3802958935,9.8768353185],[76.3818088332,9.8728557103],[76.3873362751,9.8672390113],[76.3837164708,9.8627137814],[76.3870563426,9.8519419282],[76.3901157452,9.8495629172],[76.3897073537,9.8444334197],[76.3797923412,9.8426269878],[76.3733912661,9.8359834138],[76.3702606311,9.8454990625],[76.3711274654,9.8570777788],[76.3590540248,9.8762256387],[76.3550073371,9.8777451205],[76.3548456241,9.8778797747]]]]}},{"type":"Feature","properties":{"code":"G07004","name":"Vadakkekara","type":"Grama Panchayat","leading":"LDF","seats":{"LDF":10,"UDF":9,"NDA":2,"OTHERS":0}},"geometry":{"type":"MultiPolygon","coordinates":[[[[76.1954545078,10.1708609471],[76.1950529807,10.1658432562],[76.1924005216,10.163465635],[76.1863520489,10.1659349701],[76.1781697142,10.1753520072],[76.1747965294,10.1865206422],[76.1866395273,10.1918125514],[76.2034452506,10.1943649787],[76.2036718082,10.1871664126],[76.2052552994,10.1847705713],[76.2147540065,10.1824882685],[76.2147995834,10.1776620076],[76.2213212313,10.1769430269],[76.219267007,10.1737294523],[76.2142072561,10.1724900876],[76.2138471376,10.169904724],[76.2161311284,10.1696513286],[76.2188343582,10.1651797396],[76.2145503481,10.1626697688],[76.2108398663,10.1640923539],[76.2096950671,10.1676860155],[76.2075411539,10.1663564183],[76.2042615728,10.1681852085],[76.2040038908,10.1707579708],[76.2010345584,10.1702529557],[76.1991350884,10.1675474176],[76.1954699307,10.1710197037],[76.1954545078,10.1708609471]]]]}},{"type":"Feature","properties":{"code":"G07050","name":"Vadavucode-Puthencruz","type":"Grama Panchayat","leading":"LDF","seats":{"LDF":8,"UDF":7,"NDA":0,"OTHERS":2}},"geometry":{"type":"MultiPolygon","coordinates":[[[[76.4009931191,9.9680217917],[76.4009931191,9.9680217917],[76.4009931191,9.9680217917]]]]}},{"type":"Feature","properties":{"code":"G07084","name":"Valakom","type":"Grama Panchayat","leading":"UDF","seats":{"LDF":5,"UDF":9,"NDA":0,"OTHERS":1}},"geometry":{"type":"MultiPolygon","coordinates":[[[[76.5338288654,9.9636523732],[76.5290458545,9.9625245544],[76.5146166706,9.9718949264],[76.5059818633,9.9723413904],[76.5069068082,9.9788477727],[76.5049213358,9.9825678525],[76.507138518,9.9894602037],[76.5059927952,9.9935987899],[76.508136154,9.9961377226],[76.5115509336,9.9969345048],[76.5122528147,10.0008846199],[76.5157834782,10.0012776815],[76.5160026291,10.0029903356],[76.5194278123,10.0039386571],[76.5231833645,10.0033150911],[76.5296748791,10.0078293003],[76.5312447241,10.0063569762],[76.5348565008,10.0075950975],[76.5420001861,10.0025006517],[76.5413540564,10.0009438578],[76.5498263576,9.9931607273],[76.5533786652,9.9920714629],[76.5607245143,9.9945932756],[76.561865687,9.9863861518],[76.5633834947,9.9839631044],[76.567289266,9.9823846342],[76.5629021775,9.9724209606],[76.5628118399,9.9657473641],[76.5583338409,9.9574103713],[76.5531853417,9.9575889613],[76.5479202728,9.9547560287],[76.5437153341,9.9566799435],[76.5432923963,9.9595311444],[76.5480996653,9.9656138922],[76.546995404,9.9706316644],[76.5343933841,9.9638251283],[76.5338288654,9.9636523732]]]]}},{"type":"Feature","properties":{"code":"G07058","name":"Varapetty","type":"Grama Panchayat","leading":"UDF","seats":{"LDF":4,"UDF":9,"NDA":1,"OTHERS":1}},"geometry":{"type":"MultiPolygon","coordinates":[[[[76.6235254681,10.0019963959],[76.616158139,10.0010508089],[76.6119076532,10.0027348159],[76.6077330731,10.0106284635],[76.612661829,10.0126586334],[76.6140998582,10.0163937226],[76.6106587937,10.0181542218],[76.6101831094,10.0200718795],[76.6152829751,10.0325754942],[76.6148447255,10.0382661342],[76.620203476,10.0407076955],[76.6210223777,10.0450348248],[76.625628657,10.0495251615],[76.625174059,10.0528264465],[76.6334854401,10.056989471],[76.6334864184,10.0595591254],[76.6380797363,10.0550711793],[76.6437241429,10.0550100206],[76.644018073,10.0531606544],[76.6420661103,10.0515787792],[76.6485943347,10.0452888062],[76.6529942091,10.0470905891],[76.6584821803,10.0422709764],[76.6584386855,10.0407435829],[76.6514054167,10.0398914495],[76.648160834,10.0364071902],[76.6478234272,10.0334212404],[76.6537069642,10.0293398474],[76.6520590786,10.0269558832],[76.65512594,10.0181284054],[76.6527119435,10.0175166682],[76.6511140702,10.0141419547],[76.6485142078,10.013978032],[76.6497953121,10.0135882456],[76.6477106091,10.0113593107],[76.6455873549,10.0128947248],[76.6442038841,10.00906593],[76.6299274535,10.001677453],[76.6260272791,10.0000681553],[76.6260135489,10.0026196497],[76.623903483,10.0022978309],[76.6235254681,10.0019963959]]]]}},{"type":"Feature","properties":{"code":"G07007","name":"Varapuzha","type":"Grama Panchayat","leading":"UDF","seats":{"LDF":3,"UDF":13,"NDA":2,"OTHERS":0}},"geometry":{"type":"MultiPolygon","coordinates":[[[[76.270954268,10.0629616517],[76.270954268,10.0629616517],[76.270954268,10.0629616517]]]]}},{"type":"Feature","properties":{"code":"G07025","name":"Vazhakkulam","type":"Grama Panchayat","leading":"UDF","seats":{"LDF":2,"UDF":15,"NDA":2,"OTHERS":5}},"geometry":{"type":"MultiPolygon","coordinates":[[[[76.4337958745,10.0894209856],[76.4337958745,10.0894209856],[76.4337958745,10.0894209856]]]]}},{"type":"Feature","properties":{"code":"G07024","name":"Vengola","type":"Grama Panchayat","leading":"UDF","seats":{"LDF":7,"UDF":9,"NDA":0,"OTHERS":8}},"geometry":{"type":"MultiPolygon","coordinates":[[[[76.4589967619,10.0473006047],[76.4589967619,10.0473006047],[76.4589967619,10.0473006047]]]]}},{"type":"Feature","properties":{"code":"G07020","name":"Vengoor","type":"Grama Panchayat","leading":"UDF","seats":{"LDF":3,"UDF":11,"NDA":0,"OTHERS":2}},"geometry":{"type":"MultiPolygon","coordinates":[[[[76.5636704521,10.1211626822],[76.5636704521,10.1211626822],[76.5636704521,10.1211626822]]]]}},{"type":"Feature","properties":{"code":"M07025","name":"Aluva","type":"Municipality","leading":"UDF","seats":{"LDF":2,"UDF":16,"NDA":4,"OTHERS":4}},"geometry":{"type":"MultiPolygon","coordinates":[[[[76.3451108405,10.0989560443],[76.3474690883,10.1061096261],[76.3462986974,10.1110575754],[76.3384906753,10.1126792211],[76.3380900269,10.1207393877],[76.3334123513,10.1253595874],[76.3394852072,10.1276477191],[76.3415240612,10.1258442044],[76.3500853995,10.1246106027],[76.3570193199,10.1161098052],[76.3632499054,10.1123899467],[76.3682370937,10.1121905186],[76.3685782103,10.1092068509],[76.366697792,10.1076048592],[76.3673994889,10.1065444922],[76.3660429403,10.1066388932],[76.3663811217,10.1045340732],[76.3640596053,10.1054029455],[76.3620839893,10.1032694065],[76.3616563333,10.1014235274],[76.364440449,10.102016586],[76.3635469649,10.0984200964],[76.360206546,10.0986960422],[76.3604150337,10.0942418751],[76.3580838689,10.0954642285],[76.357800903,10.0976448404],[76.3511075159,10.0992815808],[76.3457054882,10.0986510295],[76.3451108405,10.0989560443]]]]}},{"type":"Feature","properties":{"code":"M07028","name":"Angamaly","type":"Municipality","leading":"UDF","seats":{"LDF":9,"UDF":12,"NDA":2,"OTHERS":8}},"geometry":{"type":"MultiPolygon","coordinates":[[[[76.3888863096,10.1772736321],[76.3852684145,10.1770128351],[76.3846095257,10.1755467806],[76.3772811754,10.1755260843],[76.3771038641,10.1767459286],[76.3745735103,10.1751481524],[76.372672442,10.177282261],[76.3710262055,10.1769664952],[76.3700627459,10.1799908226],[76.3594590342,10.1798378634],[76.3531781868,10.1849894916],[76.357604194,10.1957017917],[76.362167407,10.1957428171],[76.3628423772,10.1971608092],[76.361865322,10.203024787],[76.36496732,10.2068173556],[76.3622927432,10.2151883248],[76.374520267,10.2160175376],[76.3728735517,10.2101444395],[76.3784498975,10.2058917254],[76.3813971098,10.2082944199],[76.3872758648,10.2037842029],[76.3920227251,10.2036156353],[76.3952258217,10.1971257397],[76.3958433963,10.191991163],[76.4020681002,10.1883467067],[76.4053819013,10.1911232531],[76.4090180713,10.1876897563],[76.4133604266,10.1870905632],[76.4168814565,10.18865563],[76.4159693047,10.1805853203],[76.4051965291,10.1795102926],[76.4071185736,10.1670654946],[76.4093742312,10.1648407117],[76.41050548,10.1603013281],[76.4079575122,10.1593097232],[76.4066683677,10.1553095969],[76.4043987689,10.157053153],[76.4040198675,10.1536000329],[76.3964060874,10.1543923611],[76.3941592477,10.1524375551],[76.3934126107,10.1565225497],[76.3883870958,10.158973514],[76.3887622091,10.16366442],[76.3909532202,10.1630244379],[76.3944961521,10.1669669442],[76.3941990202,10.1703899003],[76.3916017156,10.1724380601],[76.3927291288,10.1765779102],[76.3890659591,10.1772553469],[76.3888863096,10.1772736321]]]]}},{"type":"Feature","properties":{"code":"M07029","name":"Eloor","type":"Municipality","leading":"UDF","seats":{"LDF":7,"UDF":11,"NDA":5,"OTHERS":9}},"geometry":{"type":"MultiPolygon","coordinates":[[[[76.2980163218,10.0498380738],[76.2925901762,10.0573665252],[76.2937695736,10.0661222881],[76.2813019601,10.0734003388],[76.2855097036,10.080688243],[76.2830480956,10.0884282222],[76.2841217666,10.095218356],[76.2919342067,10.096314104],[76.2947716643,10.0945762859],[76.3004388867,10.0789405196],[76.3031341814,10.076902989],[76.312779075,10.0768436726],[76.3198749433,10.0826573548],[76.3307436236,10.0819533365],[76.3325605081,10.0834249729],[76.3354515245,10.0805030246],[76.332164631,10.0790267045],[76.3331020115,10.0749386285],[76.3285453142,10.0722555188],[76.326577595,10.0676509416],[76.3207141077,10.0662230624],[76.3172923793,10.0615396702],[76.3098882758,10.0639712281],[76.3058434938,10.0620153603],[76.3075861042,10.0585420078],[76.3067712927,10.0552887467],[76.3102824722,10.0517817915],[76.3048120633,10.0451129608],[76.3012511088,10.0433908223],[76.2980796063,10.0493284257],[76.2980163218,10.0498380738]]]]}},{"type":"Feature","properties":{"code":"M07026","name":"Kalamassery","type":"Municipality","leading":"UDF","seats":{"LDF":11,"UDF":28,"NDA":1,"OTHERS":6}},"geometry":{"type":"MultiPolygon","coordinates":[[[[76.3099269104,10.0243029434],[76.3074681038,10.0264092546],[76.3019850253,10.0411789992],[76.3102824722,10.0517817915],[76.3067712927,10.0552887467],[76.3075861042,10.0585420078],[76.3058434938,10.0620153603],[76.3098882758,10.0639712281],[76.3164330723,10.061273012],[76.3207141077,10.0662230624],[76.3337242578,10.0660970858],[76.3330190028,10.068398472],[76.3359569623,10.0689606602],[76.3368168882,10.0721955867],[76.3381564757,10.0712145048],[76.337754524,10.0735354344],[76.3415357866,10.0757869719],[76.3415590688,10.0772654166],[76.3468119065,10.0771445725],[76.348712701,10.0709591348],[76.3544332527,10.0704277393],[76.354350484,10.0661851879],[76.3585769036,10.0638503133],[76.3593796903,10.0605877705],[76.3617664368,10.0593701672],[76.3610665237,10.0504144452],[76.3633255852,10.0462957624],[76.3709995829,10.0479491985],[76.3752512311,10.0447946826],[76.3769302984,10.0395972026],[76.3715121986,10.0405327719],[76.364958565,10.035770504],[76.3530728275,10.0331850087],[76.3515217455,10.0298354289],[76.3442794387,10.0376995533],[76.3369769725,10.0409285436],[76.3330174312,10.038549585],[76.3302527206,10.034493659],[76.3178377984,10.029857947],[76.310120503,10.0243587553],[76.3099269104,10.0243029434]]]]}},{"type":"Feature","properties":{"code":"M07067","name":"Koothattukulam","type":"Municipality","leading":"UDF","seats":{"LDF":8,"UDF":16,"NDA":0,"OTHERS":2}},"geometry":{"type":"MultiPolygon","coordinates":[[[[76.5803652938,9.843670731],[76.5737901647,9.8505128795],[76.5622230786,9.8520863585],[76.5614409129,9.8533886569],[76.5599511494,9.8523983973],[76.5530615295,9.8568764188],[76.5455388073,9.8577666596],[76.5467564188,9.8605173133],[76.5399490163,9.866441972],[76.5415835627,9.8683879819],[76.5401705762,9.8712048252],[76.5450746687,9.8762218228],[76.5530934578,9.8768895128],[76.5598605766,9.8743291163],[76.5691579415,9.8754814438],[76.5704749645,9.8785551978],[76.5735938126,9.8783240761],[76.5733357458,9.8819490109],[76.5772043187,9.8838779824],[76.579670562,9.8822750072],[76.5795198865,9.8839940421],[76.5822561296,9.885042167],[76.5863379566,9.8838971312],[76.5907927364,9.8853243422],[76.5945871092,9.8819248663],[76.5970521084,9.8776401512],[76.5968064838,9.8749549913],[76.5996697748,9.8723270625],[76.599103267,9.8688007203],[76.603507679,9.8673937686],[76.6044879392,9.86364798],[76.6096148578,9.8594836962],[76.6106933632,9.8521607649],[76.6096415561,9.8516748484],[76.6117574359,9.8483101005],[76.6106430805,9.8472784192],[76.6157106744,9.8407713068],[76.6153340666,9.8377266656],[76.6094467905,9.8426647684],[76.6074565356,9.840741949],[76.603782536,9.841219858],[76.6027624745,9.8455272256],[76.596787456,9.8448741063],[76.5951726462,9.8468040921],[76.5928015329,9.8454788994],[76.5924638379,9.8419997753],[76.5899601901,9.844358293],[76.5860195637,9.8417992181],[76.584352349,9.8433414446],[76.5806267682,9.8433408521],[76.5803652938,9.843670731]]]]}},{"type":"Feature","properties":{"code":"M07023","name":"Kothamangalam","type":"Municipality","leading":"UDF","seats":{"LDF":4,"UDF":20,"NDA":1,"OTHERS":8}},"geometry":{"type":"MultiPolygon","coordinates":[[[[76.5984508401,9.9991934568],[76.5930593789,10.0030088272],[76.5984587553,10.00701362],[76.6016563095,10.0074512203],[76.6020769652,10.0090484532],[76.5994990307,10.0119144889],[76.6009530986,10.0187431445],[76.5984033838,10.0242699847],[76.6009251167,10.0268178102],[76.5997161041,10.0314628289],[76.6006104608,10.0386288985],[76.5935813273,10.0451371376],[76.5889638204,10.058545847],[76.5953692063,10.0585626058],[76.5981768699,10.0616490006],[76.6009657432,10.0616232974],[76.6047999456,10.0601791292],[76.6046767499,10.0585704182],[76.6079936514,10.0558861414],[76.6117979302,10.0575721976],[76.6138237296,10.0666514396],[76.61200843,10.067205371],[76.6079184769,10.0736830569],[76.6085686221,10.0770304633],[76.6161556692,10.0784773294],[76.6174845557,10.0756961971],[76.6176781226,10.0790882901],[76.6202191841,10.0789417423],[76.6216747105,10.0806003491],[76.6212452944,10.0879081667],[76.6413171402,10.1003089707],[76.6428204504,10.0991834187],[76.6449796715,10.1000492162],[76.6459123773,10.0963483597],[76.6523897292,10.098135536],[76.6615213985,10.09412656],[76.6620473514,10.089774606],[76.6527758763,10.0861526492],[76.6572115413,10.0835788776],[76.6682428534,10.0811411632],[76.6669858424,10.0784502638],[76.6700721535,10.0743127311],[76.678587435,10.0765523389],[76.6798811848,10.0724465913],[76.6770412427,10.0703859736],[76.6771535539,10.0677642309],[76.673738821,10.0670412182],[76.668746364,10.0609854984],[76.6614699902,10.0605516949],[76.6610694501,10.0554049553],[76.6642041798,10.052230327],[76.6610316959,10.0508523587],[76.6584496355,10.0527602427],[76.6576161059,10.0499068794],[76.6543650621,10.0505591328],[76.650485477,10.0457378728],[76.6485943347,10.0452888062],[76.6477111224,10.0475067563],[76.6428448057,10.0504423521],[76.6421043334,10.051967186],[76.644018073,10.0531606544],[76.6437241429,10.0550100206],[76.6380797363,10.0550711793],[76.6338830433,10.0596383896],[76.6334854401,10.056989471],[76.625174059,10.0528264465],[76.625628657,10.0495251615],[76.6210223777,10.0450348248],[76.6204659672,10.0410680208],[76.6148447255,10.0382661342],[76.6152829751,10.0325754942],[76.6104238291,10.0221222111],[76.6106587937,10.0181542218],[76.6140998582,10.0163937226],[76.612661829,10.0126586334],[76.6077319919,10.0104260332],[76.6119076532,10.0027348159],[76.6099125641,10.0026181364],[76.608914598,10.0006535736],[76.6011168187,10.0010964479],[76.5999184124,9.9987203973],[76.5985563335,9.9989297901],[76.5984508401,9.9991934568]]]]}},{"type":"Feature","properties":{"code":"M07031","name":"Maradu","type":"Municipality","leading":"UDF","seats":{"LDF":7,"UDF":19,"NDA":0,"OTHERS":9}},"geometry":{"type":"MultiPolygon","coordinates":[[[[76.308952501,9.9226360416],[76.3027036573,9.935465627],[76.3047179221,9.9367442301],[76.3057321614,9.945122193],[76.3129945615,9.9500110706],[76.3149125722,9.9537197633],[76.3256570746,9.9557257895],[76.3352428733,9.9361319331],[76.333991683,9.9315911247],[76.3368739133,9.9266278376],[76.3366386408,9.9209796977],[76.3395214296,9.9142795891],[76.3387086183,9.9114063034],[76.3251042278,9.9157699175],[76.322345297,9.9192867132],[76.3198399552,9.9183655714],[76.3199525004,9.9157311137],[76.313338932,9.9137238317],[76.3091241148,9.9224090483],[76.308952501,9.9226360416]]]]}},{"type":"Feature","properties":{"code":"M07022","name":"Muvattupuzha","type":"Municipality","leading":"UDF","seats":{"LDF":7,"UDF":17,"NDA":1,"OTHERS":5}},"geometry":{"type":"MultiPolygon","coordinates":[[[[76.5797985526,9.9708317706],[76.5740319196,9.9724748005],[76.5695616291,9.9702926822],[76.5626810381,9.9707842385],[76.567289266,9.9823846342],[76.5633834947,9.9839631044],[76.561865687,9.9863861518],[76.5604383034,9.9938778406],[76.5646397938,9.9933815339],[76.5652235529,9.996724437],[76.5675885312,9.9987294644],[76.5661407645,10.0022012881],[76.5690453771,10.0066727162],[76.5681232953,10.008573777],[76.5731586525,10.0090519805],[76.5753958783,10.0068486123],[76.5775555081,10.0074256366],[76.5841101438,10.0009010282],[76.5878122864,10.0005025481],[76.5930877951,9.9926609403],[76.6033799704,9.9883510676],[76.6052426899,9.9831092343],[76.5997203955,9.9858189465],[76.5911265835,9.986614803],[76.5905361055,9.9850164357],[76.5931792332,9.9811054111],[76.5931153626,9.9751743669],[76.5891559479,9.9727952741],[76.5963116736,9.9716769691],[76.5952922671,9.9683415618],[76.5934179186,9.9677354699],[76.5936250521,9.9652587961],[76.5918594057,9.9663007982],[76.5915241983,9.9636694493],[76.5877775764,9.9634268422],[76.5859153953,9.9686766298],[76.5841877312,9.9674041496],[76.5798545458,9.9710134774],[76.5797985526,9.9708317706]]]]}},{"type":"Feature","properties":{"code":"M07027","name":"North Paravur","type":"Municipality","leading":"UDF","seats":{"LDF":9,"UDF":15,"NDA":3,"OTHERS":3}},"geometry":{"type":"MultiPolygon","coordinates":[[[[76.2094770814,10.1463421132],[76.2096250032,10.1486034057],[76.2142837351,10.1522261169],[76.2252651201,10.1560642242],[76.2300403914,10.1545185454],[76.2375303853,10.1576604624],[76.2429337172,10.1538206489],[76.247953812,10.1454285653],[76.2474688945,10.1389430225],[76.2490846191,10.135554038],[76.245633971,10.1332319191],[76.2412577201,10.1335615449],[76.2358705059,10.1297229432],[76.2325729707,10.130674157],[76.2294259795,10.1354058298],[76.2266715712,10.134255392],[76.2255591002,10.1311447596],[76.2210303456,10.1296075129],[76.2196701084,10.1370531262],[76.2163144768,10.1426824881],[76.2137155606,10.1423330698],[76.2096251843,10.1462045792],[76.2094770814,10.1463421132]]]]}},{"type":"Feature","properties":{"code":"M07024","name":"Perumbavoor","type":"Municipality","leading":"UDF","seats":{"LDF":8,"UDF":14,"NDA":2,"OTHERS":5}},"geometry":{"type":"MultiPolygon","coordinates":[[[[76.475090194,10.1088429411],[76.4676502163,10.1124168715],[76.460371613,10.1209363718],[76.4571272029,10.1192277657],[76.4526029355,10.1208490137],[76.457300808,10.1322450486],[76.4610171887,10.1340571206],[76.4654047632,10.1334653226],[76.4678140408,10.1355937514],[76.4696197612,10.133397477],[76.4741877112,10.1349027707],[76.4787209983,10.1328287775],[76.4806063788,10.1279756695],[76.4892480285,10.1277090802],[76.5040067452,10.1187977917],[76.5012431,10.1109461866],[76.5031645808,10.1090536179],[76.5021194556,10.1045888206],[76.4893661484,10.1075455782],[76.4789378996,10.1053474977],[76.4780807142,10.1079080485],[76.4752076268,10.1089557636],[76.475090194,10.1088429411]]]]}},{"type":"Feature","properties":{"code":"M07066","name":"Piravom","type":"Municipality","leading":"UDF","seats":{"LDF":1,"UDF":21,"NDA":1,"OTHERS":5}},"geometry":{"type":"MultiPolygon","coordinates":[[[[76.4548323982,9.8418744602],[76.4581932112,9.8478193448],[76.4694607121,9.8582486354],[76.4681121364,9.8748185501],[76.4604554256,9.8804491765],[76.4603037844,9.8825454567],[76.4632893501,9.8832572099],[76.4692570576,9.8889917525],[76.476820612,9.9004276727],[76.4869292474,9.902158479],[76.4895204778,9.9049817634],[76.4939385838,9.9035780159],[76.4970160466,9.8961482549],[76.4959769521,9.8926667435],[76.4945711608,9.8923354343],[76.4965548629,9.8874952948],[76.4990112063,9.8857616375],[76.4982570007,9.8842108299],[76.5108547993,9.878429824],[76.510370544,9.8764720656],[76.5133889029,9.8764036577],[76.512014436,9.8733929598],[76.5144603533,9.8735397502],[76.5141182906,9.871376143],[76.5158289169,9.8713234029],[76.5163317702,9.8696247315],[76.520146438,9.8701081452],[76.5224472287,9.8673319456],[76.5251899941,9.8671901208],[76.5260491363,9.862882626],[76.5284132537,9.8630009924],[76.5290895134,9.860779562],[76.5291140813,9.854145626],[76.526873399,9.8498156343],[76.519998645,9.851598209],[76.5159105145,9.8481761575],[76.5066432689,9.8511291378],[76.5021182589,9.8497075625],[76.4980528667,9.8523392529],[76.4961747441,9.8500001474],[76.4921396776,9.8502126607],[76.4909220844,9.847224961],[76.4870745381,9.8450466303],[76.485124974,9.8463237669],[76.482820227,9.8447217093],[76.4804542839,9.8471976438],[76.4745569717,9.8424679314],[76.4614472595,9.8468315818],[76.4560136311,9.8426105399],[76.4548323982,9.8418744602]]]]}},{"type":"Feature","properties":{"code":"M07030","name":"Thrikkakara","type":"Municipality","leading":"UDF","seats":{"LDF":15,"UDF":26,"NDA":0,"OTHERS":7}},"geometry":{"type":"MultiPolygon","coordinates":[[[[76.3099269104,10.0243029434],[76.3178377984,10.029857947],[76.3302527206,10.034493659],[76.3330174312,10.038549585],[76.3369769725,10.0409285436],[76.3442794387,10.0376995533],[76.3515217455,10.0298354289],[76.3530728275,10.0331850087],[76.364958565,10.035770504],[76.3715121986,10.0405327719],[76.3769302984,10.0395972026],[76.3790244661,10.0369896431],[76.3834364536,10.0368822441],[76.3834996505,10.0350041824],[76.3815298,10.0350548891],[76.3778843816,10.0315868701],[76.3794031964,10.0290338012],[76.381142623,10.0290270969],[76.379611166,10.0187151343],[76.3729981105,10.0114579984],[76.374473222,10.0080103301],[76.3694367461,10.0057452612],[76.3668705319,9.9949319192],[76.3624571109,9.9947206982],[76.3608586097,9.9905930831],[76.3548623864,9.992407771],[76.3488322811,9.9914963085],[76.3466673776,9.9899588569],[76.3456139417,9.9841227268],[76.3425905794,9.980593128],[76.337443758,9.9803554639],[76.3376295085,9.9863784485],[76.3310350309,9.9965666891],[76.3306502308,10.0002079518],[76.3267539441,10.0042901741],[76.323719544,10.0036476131],[76.3237584304,10.0060254294],[76.320451595,10.0070456454],[76.3192534183,10.0113680061],[76.3157819611,10.0112302131],[76.315549953,10.0165212063],[76.3123502035,10.0168091693],[76.3100882513,10.0239807123],[76.3099269104,10.0243029434]]]]}},{"type":"Feature","properties":{"code":"M07021","name":"Thrippunithura","type":"Municipality","leading":"NDA","seats":{"LDF":20,"UDF":12,"NDA":21,"OTHERS":0}},"geometry":{"type":"MultiPolygon","coordinates":[[[[76.3354374882,9.9350381509],[76.3393252748,9.9363876254],[76.337442878,9.9423797612],[76.339768548,9.9458897042],[76.3358206288,9.948897177],[76.3337530853,9.9529500936],[76.3281345463,9.9551880566],[76.3280862166,9.9569472059],[76.330885299,9.9593557443],[76.3222882408,9.9614102775],[76.3199426337,9.9638592722],[76.319953871,9.9659540464],[76.3227887602,9.9666778318],[76.3227500063,9.9696641407],[76.3252236372,9.9712453977],[76.3250960382,9.9774142872],[76.3321770401,9.9793899963],[76.328559089,9.9799434316],[76.3251028521,9.9846296885],[76.3272339373,9.989962304],[76.3299932096,9.9922015676],[76.3310438335,9.9898442458],[76.3341791654,9.9906632327],[76.3359129256,9.9890624323],[76.3376295085,9.9863784485],[76.337443758,9.9803554639],[76.3431132244,9.980782469],[76.3456139417,9.9841227268],[76.3462588685,9.9892146413],[76.3488322811,9.9914963085],[76.3548623864,9.992407771],[76.3608586097,9.9905930831],[76.3580626346,9.9766640485],[76.360977327,9.9718997079],[76.3643076867,9.9709322467],[76.363782467,9.9672938612],[76.366576329,9.9676621607],[76.3702846756,9.9642914367],[76.3688642228,9.9621488641],[76.3696057573,9.9605396547],[76.3742722725,9.9582583346],[76.3735576791,9.9520884138],[76.371046607,9.95083186],[76.376051943,9.9480665932],[76.3794275855,9.9401593969],[76.3753248356,9.9360799995],[76.37180244,9.9365417133],[76.3712190143,9.9387844867],[76.3680743701,9.9373206468],[76.3615379244,9.9374229479],[76.3648282461,9.9232434773],[76.3479985371,9.9195946022],[76.3482188179,9.9160946025],[76.34322443,9.9156220592],[76.3388083109,9.9115504156],[76.3395214296,9.9142795891],[76.3366386408,9.9209796977],[76.3368739133,9.9266278376],[76.333991683,9.9315911247],[76.3352545886,9.9347597832],[76.3354374882,9.9350381509]]]]}}]}
