{"type":"FeatureCollection","features":[{"type":"Feature","properties":{"code":"G06001","name":"Adimali","type":"Grama Panchayat","leading":"UDF","seats":{"LDF":5,"UDF":17,"NDA":0,"OTHERS":2}},"geometry":{"type":"MultiPolygon","coordinates":[[[[76.8478108526,10.021503665],[76.8371073163,10.0259610826],[76.8322873464,10.026258974],[76.8166840255,10.0361966303],[76.8093204524,10.0373118786],[76.8052976006,10.0413591632],[76.7973962214,10.0425115403],[76.7868003956,10.0496621554],[76.7813036747,10.0580774658],[76.7760079142,10.0591229449],[76.7742968943,10.0646465287],[76.7698575059,10.0660852939],[76.781835671,10.067020446],[76.7821330386,10.0654294013],[76.7905524403,10.0634640504],[76.7958922437,10.0654597393],[76.8002100695,10.0631284415],[76.8067404479,10.0656263302],[76.8006261095,10.0605855568],[76.8034413378,10.0570970774],[76.8117480582,10.058368508],[76.8100020758,10.0591717902],[76.8115933316,10.0601706862],[76.8091064082,10.0622168788],[76.8104832129,10.0626592236],[76.8180557468,10.0613632216],[76.8173189817,10.0623247194],[76.8190118528,10.0626314855],[76.825175749,10.0621945493],[76.8166619203,10.0691523396],[76.8175987491,10.0718535016],[76.8141295237,10.0804895235],[76.8163170301,10.081733689],[76.8164884554,10.0837670584],[76.8232183805,10.0859630985],[76.8226419096,10.0872648677],[76.8247773221,10.0891354174],[76.8381506778,10.0838558689],[76.8466079731,10.0784663517],[76.8650762038,10.0735720484],[76.8650985783,10.0902400643],[76.8629750117,10.1004108842],[76.858343919,10.1057715369],[76.8590304847,10.1074454297],[76.8571964064,10.1105199296],[76.8514225254,10.1142628372],[76.8464140378,10.1226263545],[76.8468297965,10.1260535049],[76.8510009672,10.125783139],[76.8544000894,10.1285921207],[76.8615598547,10.1282579534],[76.8662687177,10.1316617293],[76.8687311974,10.1358231257],[76.8718946636,10.1331889648],[76.8940691578,10.136326436],[76.897585383,10.1383948891],[76.903399247,10.148548173],[76.9076613541,10.1432454176],[76.9137115098,10.1407772218],[76.9147255512,10.1380374812],[76.9086113588,10.1336153415],[76.903613975,10.1343765089],[76.9001061223,10.1319602889],[76.896493274,10.1229713606],[76.8964155852,10.1194950416],[76.898151368,10.1175551774],[76.9030926916,10.1164986609],[76.9003421725,10.1090396699],[76.9009187225,10.1049260996],[76.9101790061,10.097906263],[76.9141089039,10.0966347872],[76.9117754495,10.0934102415],[76.9108716201,10.0876525409],[76.9078300324,10.0902114674],[76.9086278945,10.0861902864],[76.9072303718,10.0838831582],[76.9105773568,10.0819760015],[76.9170558132,10.0833948334],[76.9186677219,10.0784933181],[76.9252188627,10.0758765268],[76.9336506985,10.067490488],[76.9365179527,10.067729606],[76.9379570224,10.0632616206],[76.9426460946,10.0603803904],[76.9435161754,10.0572117954],[76.942265108,10.0547109],[76.9368279722,10.0523552782],[76.9389810162,10.0447243881],[76.9499066135,10.04107831],[76.9565473277,10.04093205],[76.9591295027,10.0315162247],[76.9643831925,10.030518284],[76.9637666951,10.0269809268],[76.9806914591,10.0282740944],[76.9859622681,10.023021286],[76.9820539463,10.0216398522],[76.9783509582,10.0179596953],[76.9817294204,10.0091962224],[76.985283474,10.0063436444],[76.9839069406,10.0022797286],[76.9817464769,10.0029078868],[76.9808657685,10.0004676111],[76.9803780438,9.9963325207],[76.9830578315,9.9933543883],[76.9735079242,9.9898471548],[76.977009275,9.9808817482],[76.9780708291,9.9726923751],[76.9825932453,9.9653964444],[76.9796845004,9.9528134412],[76.9640394047,9.9573284911],[76.9533129507,9.9649100755],[76.9480772962,9.9648512656],[76.9389560254,9.9732967627],[76.9289346052,9.977296899],[76.9156894556,9.9860334986],[76.9019441682,9.9909362673],[76.8980010435,9.9946773672],[76.8482223837,10.0213608499],[76.8478108526,10.021503665]]]]}},{"type":"Feature","properties":{"code":"G06025","name":"Alakode","type":"Grama Panchayat","leading":"UDF","seats":{"LDF":4,"UDF":8,"NDA":0,"OTHERS":2}},"geometry":{"type":"MultiPolygon","coordinates":[[[[76.7847175246,9.8330509522],[76.7847175246,9.8330509522],[76.7847175246,9.8330509522]]]]}},{"type":"Feature","properties":{"code":"G06031","name":"Arakulam","type":"Grama Panchayat","leading":"UDF","seats":{"LDF":3,"UDF":10,"NDA":2,"OTHERS":0}},"geometry":{"type":"MultiPolygon","coordinates":[[[[76.7999678103,9.7949003497],[76.8093589739,9.7943857803],[76.8229252269,9.8045364337],[76.824862386,9.8049763169],[76.8274221776,9.8026663504],[76.8249438602,9.8090609267],[76.8139632536,9.8161188327],[76.8151816175,9.8218099202],[76.819710469,9.8275285913],[76.8180401047,9.8338841508],[76.8330592347,9.8188924929],[76.8399211949,9.8234702676],[76.8433196902,9.8225733833],[76.8452074197,9.8207957083],[76.8430088926,9.8214150455],[76.8450566819,9.8186178222],[76.8499179569,9.8164587221],[76.8674205286,9.7981350643],[76.8728808794,9.7982145872],[76.8809934284,9.7939248226],[76.8835742869,9.7983961984],[76.881446882,9.811883572],[76.8819195375,9.8184901019],[76.8811492383,9.8243726973],[76.8770535403,9.8288169036],[76.8816309422,9.8304465981],[76.8911863375,9.8306916398],[76.8919906989,9.8334627044],[76.8904714351,9.8374669724],[76.8978161955,9.8444690819],[76.8909200975,9.8564306402],[76.8976349309,9.8604153593],[76.9020111865,9.8705363106],[76.9101124387,9.8726094108],[76.9148494242,9.8727912269],[76.9144395181,9.866674659],[76.9261149921,9.8599948151],[76.9305628737,9.8502178708],[76.9287522919,9.842704895],[76.9306386929,9.8400539908],[76.9281200953,9.8365563442],[76.9330478606,9.834498633],[76.9385540107,9.8240283582],[76.9446430357,9.8209735306],[76.9466786853,9.8180454268],[76.9413500529,9.8056560128],[76.9313081644,9.7966950039],[76.930474907,9.7933600353],[76.9321323842,9.7880497578],[76.9249782811,9.78033216],[76.9279545646,9.7741082266],[76.936120764,9.7661103031],[76.9494518661,9.7581995913],[76.9579150635,9.7553669594],[76.9540577256,9.7542820419],[76.9494960757,9.7440873741],[76.9479388625,9.7270920665],[76.9448783349,9.7223131533],[76.9243386355,9.7332236628],[76.8983237984,9.7439649864],[76.8943629678,9.7492990756],[76.8915111637,9.7507145741],[76.8731093078,9.7396201969],[76.8613738067,9.7299432925],[76.8485785769,9.7418964762],[76.8403430934,9.7551613024],[76.8278866849,9.7634058628],[76.8281464788,9.7697146207],[76.8192378748,9.7765234075],[76.8054885094,9.7915015302],[76.8002930823,9.7945115544],[76.7999678103,9.7949003497]]]]}},{"type":"Feature","properties":{"code":"G06040","name":"Ayyappancoil","type":"Grama Panchayat","leading":"UDF","seats":{"LDF":5,"UDF":9,"NDA":0,"OTHERS":0}},"geometry":{"type":"MultiPolygon","coordinates":[[[[77.0467323699,9.6501740914],[77.0467323699,9.6501740914],[77.0467323699,9.6501740914]]]]}},{"type":"Feature","properties":{"code":"G06003","name":"Baisonvalley","type":"Grama Panchayat","leading":"LDF","seats":{"LDF":7,"UDF":5,"NDA":1,"OTHERS":1}},"geometry":{"type":"MultiPolygon","coordinates":[[[[77.076799324,9.982782175],[77.0739571327,9.9839937932],[77.0736416667,9.987335],[77.071695,9.988145],[77.0706675235,9.9914989098],[77.0662904764,9.9913512325],[77.0642266667,9.9931733333],[77.0694333586,10.0093190269],[77.0598620725,10.0168905159],[77.0736187248,10.0369523405],[77.0785182563,10.0409808815],[77.0887820435,10.0384623984],[77.1019421012,10.0423969513],[77.1068306217,10.0368621262],[77.1060853486,10.0358434368],[77.1260320112,10.0276089794],[77.1254780737,10.0263704289],[77.1284054753,10.0236289904],[77.1285783495,10.0199205049],[77.1316260071,10.0163042718],[77.1312588075,10.0132931641],[77.13620163,10.0118729733],[77.1434668317,10.0128839209],[77.1486626862,10.0099857195],[77.1585915425,10.0088649697],[77.154979946,10.0027856911],[77.1481355702,10.0026845916],[77.1299552116,9.9970292429],[77.1291773461,9.9984506475],[77.122660851,10.0000137075],[77.1146827432,9.9976101282],[77.1103320241,9.9929598617],[77.1101372062,9.9909400161],[77.1130310979,9.9904861314],[77.1091473415,9.9905638826],[77.1062532974,9.9831634201],[77.0875275021,9.9786870824],[77.0845518339,9.9800723419],[77.0822307439,9.9791430369],[77.0769733353,9.982715744],[77.076799324,9.982782175]]]]}},{"type":"Feature","properties":{"code":"G06041","name":"Chakkupallam","type":"Grama Panchayat","leading":"UDF","seats":{"LDF":5,"UDF":11,"NDA":0,"OTHERS":0}},"geometry":{"type":"MultiPolygon","coordinates":[[[[77.1408177067,9.6445380739],[77.1408177067,9.6445380739],[77.1408177067,9.6445380739]]]]}},{"type":"Feature","properties":{"code":"G06011","name":"Chinnakanal","type":"Grama Panchayat","leading":"LDF","seats":{"LDF":9,"UDF":3,"NDA":1,"OTHERS":1}},"geometry":{"type":"MultiPolygon","coordinates":[[[[77.1624442603,10.0211415087],[77.1598428326,10.0126526805],[77.1561694507,10.0105022848],[77.1486626862,10.0099857195],[77.1434668317,10.0128839209],[77.13620163,10.0118729733],[77.1312588075,10.0132931641],[77.1316260071,10.0163042718],[77.1285783495,10.0199205049],[77.1284054753,10.0236289904],[77.1254780737,10.0263704289],[77.1260320112,10.0276089794],[77.1060853486,10.0358434368],[77.1226316195,10.0364894808],[77.1344135064,10.0407858226],[77.1370084837,10.0437315718],[77.1434640256,10.0409152224],[77.1620958009,10.0437101398],[77.1675376519,10.0567171948],[77.1847777499,10.0714954888],[77.1850882899,10.0732822339],[77.1866824141,10.0735551053],[77.1926332,10.0688072967],[77.205760793,10.0770183808],[77.2058344211,10.0807300443],[77.2110345113,10.081871663],[77.2198304535,10.0771682911],[77.222961732,10.0728253062],[77.2234946184,10.0691820493],[77.2314391824,10.0662757912],[77.236962993,10.0569252261],[77.2446417017,10.0517062549],[77.2547946025,10.0366867578],[77.2619194153,10.0296975571],[77.2618471772,10.0219873486],[77.2513856249,10.0224660294],[77.2441984876,10.0183566836],[77.2337125706,10.0150794164],[77.2248991128,10.0188310762],[77.2201694946,10.01569397],[77.2138444514,10.0147424231],[77.205274115,10.0157753265],[77.2012151371,10.0222313457],[77.1978739107,10.0229525493],[77.1921094469,10.0201547664],[77.1873670223,10.0215882757],[77.1855107112,10.0192995981],[77.187640868,10.0156943876],[77.184971585,10.0132614214],[77.1776245648,10.0204461474],[77.1720206653,10.0207281229],[77.1693528019,10.0237029454],[77.1672023697,10.0240929936],[77.1640866458,10.0209948198],[77.1625238912,10.0214277216],[77.1624442603,10.0211415087]],[[77.1234443875,10.0367246285],[77.1236098854,10.0367494955],[77.1234443875,10.0367246285]]]]}},{"type":"Feature","properties":{"code":"G06013","name":"Devikulam","type":"Grama Panchayat","leading":"LDF","seats":{"LDF":10,"UDF":7,"NDA":0,"OTHERS":0}},"geometry":{"type":"MultiPolygon","coordinates":[[[[77.1060853486,10.0358434368],[77.1068306217,10.0368621262],[77.1015341523,10.0431480662],[77.0965267954,10.0445397687],[77.0809381112,10.0555763004],[77.0802189103,10.0734876265],[77.0748473007,10.0785680678],[77.0732479847,10.0830080227],[77.0758752505,10.085529096],[77.0742640588,10.0869781464],[77.0750272515,10.0884962682],[77.0793284915,10.0891140308],[77.0888835153,10.0998328648],[77.0918917149,10.1175854956],[77.0978487101,10.1256501783],[77.1027781214,10.1383377219],[77.1068972709,10.1417746031],[77.106906167,10.1443437508],[77.1096199125,10.1446084221],[77.1099059502,10.1498171129],[77.1123499392,10.1524476812],[77.1160896214,10.1531474382],[77.1211760671,10.1582861654],[77.1242550492,10.1778850462],[77.1272237396,10.1816291756],[77.125677287,10.1862458891],[77.1339975021,10.1954995587],[77.1393289803,10.2199692124],[77.1453576253,10.2236902767],[77.1478018313,10.222220437],[77.1529586458,10.2105880829],[77.1567123351,10.188736094],[77.1589381013,10.1873488706],[77.1601668101,10.1881831669],[77.1607224734,10.1814918176],[77.1681170613,10.1716297613],[77.172505154,10.1676272105],[77.1782473751,10.1716268145],[77.1779763665,10.1729490661],[77.1849889055,10.173874976],[77.1897777008,10.1766511146],[77.2007649109,10.1899968467],[77.2100576093,10.186091487],[77.2170285391,10.1777974523],[77.2237281782,10.1785811216],[77.2321068454,10.1718360933],[77.2338290746,10.1723343785],[77.2392641325,10.1650033083],[77.2440498344,10.1639311479],[77.2432446897,10.1607799643],[77.2457080859,10.1488517576],[77.2445679883,10.1330008759],[77.2437149984,10.1298084356],[77.2389512013,10.1294874544],[77.2340775807,10.1268591343],[77.23055621,10.12038429],[77.227104807,10.1210474507],[77.22342216,10.1175367],[77.2183061782,10.1176410602],[77.2170142553,10.1160431884],[77.2074702669,10.1174398309],[77.2064330466,10.1121888017],[77.2043689949,10.1118020829],[77.2019523846,10.1069181459],[77.2039549812,10.098281283],[77.2033431505,10.0915500243],[77.2040945741,10.0879869767],[77.2119495236,10.0813802423],[77.2065421658,10.0811958246],[77.205760793,10.0770183808],[77.1926332,10.0688072967],[77.1866824141,10.0735551053],[77.1850882899,10.0732822339],[77.1847777499,10.0714954888],[77.1675376519,10.0567171948],[77.1628688686,10.0442536197],[77.1527139834,10.0413189343],[77.1434640256,10.0409152224],[77.1370084837,10.0437315718],[77.1344135064,10.0407858226],[77.1226316195,10.0364894808],[77.1075865411,10.035837862],[77.1060853486,10.0358434368]]]]}},{"type":"Feature","properties":{"code":"G06014","name":"Edamalakudy","type":"Grama Panchayat","leading":"LDF","seats":{"LDF":9,"UDF":2,"NDA":3,"OTHERS":0}},"geometry":{"type":"MultiPolygon","coordinates":[[[[76.9546142016,10.1671431665],[76.9493811309,10.1712495046],[76.9410981354,10.1706599632],[76.9330836656,10.1731734332],[76.9287575232,10.178325602],[76.9215704367,10.1761461857],[76.9190036782,10.1716777132],[76.9016826772,10.1706855686],[76.8863654236,10.1783810041],[76.879517882,10.1848324664],[76.8758215153,10.1861530294],[76.873686998,10.1905230487],[76.8728582571,10.1983450569],[76.868765811,10.2078085346],[76.8651183966,10.2116813971],[76.8670007577,10.2201489615],[76.8696836798,10.2220833859],[76.877058588,10.2230122629],[76.8786270257,10.2249077775],[76.8775910252,10.231951924],[76.8829239258,10.2344469009],[76.9065390048,10.2323454305],[76.9136942589,10.2346127306],[76.9214190278,10.2324161722],[76.9323624491,10.2368802845],[76.9339310331,10.2361353167],[76.9391007485,10.2393323865],[76.9472581664,10.2369199741],[76.9485696325,10.2337339873],[76.9509207518,10.2324949961],[76.958756307,10.2342846714],[76.9653011318,10.2307471721],[76.9710047581,10.2299910701],[76.9731226394,10.2257660607],[76.9801695519,10.2241449572],[76.9822074578,10.2205936231],[76.9840631325,10.2204337379],[76.983826097,10.2226778402],[76.9908263197,10.2258390992],[76.9908371852,10.2284266533],[76.9932127578,10.2304756278],[76.9990727232,10.2305147894],[77.0010730716,10.2352047603],[77.0037650084,10.2346987496],[77.0052913575,10.2383829177],[77.0111378666,10.2400071937],[77.0143435347,10.2458691292],[77.0168956774,10.245519031],[77.031112589,10.2516325126],[77.0377533784,10.2530464092],[77.0398345344,10.2520733564],[77.0430530857,10.2574364169],[77.049710744,10.2607506723],[77.0518578419,10.2645859601],[77.0509489308,10.2681965349],[77.052441653,10.2733753215],[77.049389441,10.2786442595],[77.0431423684,10.2833321329],[77.0571742874,10.2870901621],[77.0588675213,10.2898926945],[77.0624669474,10.2916898986],[77.0654225039,10.2967190505],[77.0761023641,10.3004845913],[77.0876775477,10.3077900963],[77.091665829,10.3125844681],[77.0967812766,10.3093325971],[77.0967676133,10.3070368733],[77.1021166034,10.3103926453],[77.1061935978,10.308647653],[77.1115142068,10.3088997015],[77.1187367621,10.300855544],[77.1223259427,10.2923881185],[77.119680258,10.2875631615],[77.1158364638,10.2846484548],[77.1164533764,10.2794207243],[77.1092159367,10.2662834989],[77.1024632245,10.2600914762],[77.097809009,10.253254064],[77.0994083013,10.2503967406],[77.098568888,10.2472682769],[77.1024084501,10.2417032824],[77.1108315848,10.2410264432],[77.1195986333,10.2361544998],[77.1098815882,10.2291467172],[77.0830062592,10.215706825],[77.067815741,10.2044171676],[77.0651618453,10.2108272058],[77.0593043425,10.2097560703],[77.0566529015,10.2113021393],[77.0486891614,10.2045072543],[77.043445603,10.2058251184],[77.0404469212,10.20133178],[77.0356656695,10.206704249],[77.0290779785,10.2071855203],[77.0245756615,10.2098883454],[77.0223012848,10.203798797],[77.0325650954,10.1905064692],[77.0357355473,10.1801034286],[77.0299328428,10.1780698504],[77.0169790049,10.1802701647],[77.0142617184,10.1793605459],[77.0121014564,10.1767335005],[77.0127042935,10.1732598619],[77.0008244134,10.1672559753],[76.9937980814,10.1610456322],[76.9937929507,10.1593436747],[76.9895174598,10.1594966334],[76.9865447654,10.1574816665],[76.9811322546,10.1628585984],[76.9746866953,10.1610025588],[76.9660246378,10.1615188564],[76.9614207977,10.1660420623],[76.9547736571,10.1670139201],[76.9546142016,10.1671431665]]]]}},{"type":"Feature","properties":{"code":"G06044","name":"Edavetty","type":"Grama Panchayat","leading":"UDF","seats":{"LDF":4,"UDF":7,"NDA":2,"OTHERS":1}},"geometry":{"type":"MultiPolygon","coordinates":[[[[76.7506123705,9.8551467891],[76.7477382624,9.8562382835],[76.7478669546,9.853397659],[76.7448061303,9.8527894723],[76.7372840183,9.8565243977],[76.7334320952,9.856112776],[76.7289150557,9.8600833434],[76.7221436449,9.8779200054],[76.7289305562,9.8773042255],[76.7304010019,9.8808411849],[76.7283789708,9.8856334524],[76.7316849884,9.8862909981],[76.7310612108,9.8906315176],[76.7357865934,9.8914879087],[76.7367250283,9.8902420861],[76.7426159959,9.8951786701],[76.7371151451,9.9076736019],[76.7388229413,9.9084660012],[76.7397334588,9.9117058341],[76.7419504385,9.9123232183],[76.7425604421,9.91022863],[76.7498982633,9.9135848716],[76.7533545242,9.913188365],[76.7630764203,9.9034633482],[76.7705607104,9.898549406],[76.769897458,9.8967360088],[76.7659122967,9.8972456209],[76.7652667,9.8955419557],[76.7676499606,9.8925742523],[76.7648140432,9.8889133587],[76.7655966803,9.8853485551],[76.7609603962,9.8874302468],[76.7593755452,9.8815715997],[76.7516173032,9.8713159674],[76.7516243576,9.8681940541],[76.7493666958,9.8657098639],[76.7509423968,9.8549577221],[76.7506123705,9.8551467891]]]]}},{"type":"Feature","properties":{"code":"G06052","name":"Elappara","type":"Grama Panchayat","leading":"UDF","seats":{"LDF":8,"UDF":9,"NDA":0,"OTHERS":0}},"geometry":{"type":"MultiPolygon","coordinates":[[[[76.9291169111,9.6146523152],[76.9301638736,9.6210472901],[76.9334711826,9.6225781494],[76.9321830303,9.6266674825],[76.9199506211,9.6388252071],[76.9192990103,9.6423090978],[76.9234990813,9.6495795452],[76.9280842056,9.6531654652],[76.9169845303,9.662107836],[76.9073884339,9.6739335578],[76.9021605668,9.6773200832],[76.9035644401,9.6825628324],[76.9008354518,9.6876545201],[76.9015966721,9.6893663314],[76.8976441643,9.6940074571],[76.889293783,9.7164856711],[76.885387787,9.7201153248],[76.8711275811,9.7265640098],[76.8677689079,9.7314744239],[76.86765639,9.7351833324],[76.870967353,9.7379634136],[76.8915111637,9.7507145741],[76.8943629678,9.7492990756],[76.8983237984,9.7439649864],[76.9243386355,9.7332236628],[76.9448783349,9.7223131533],[76.9364599947,9.7153325086],[76.9365034181,9.7133857734],[76.9405982984,9.7103407755],[76.9378606419,9.7085697044],[76.9393866214,9.7015116812],[76.9374325298,9.6923548759],[76.9396963286,9.6876643537],[76.936724003,9.6841783126],[76.9466682808,9.6719634874],[76.9576574353,9.6678080638],[76.9600094712,9.66935191],[76.9674507136,9.6680759615],[76.969934117,9.665270754],[76.9719186572,9.6668537358],[76.9911937427,9.6586596155],[76.9990303674,9.6579939772],[76.9969189884,9.6619522334],[76.9982535667,9.6628708782],[77.0087056391,9.6626150033],[77.0130263598,9.6595636874],[77.0142188528,9.6567420556],[77.0264693337,9.6514013599],[77.0286049124,9.6485469504],[77.0366717714,9.6462437384],[77.0425739622,9.6418193722],[77.0356053416,9.6396926393],[77.031336459,9.6427181246],[77.028064661,9.6426260645],[77.0210509037,9.6384008387],[77.019188378,9.6338598343],[77.0111090134,9.6292482661],[76.991356615,9.6270258515],[76.9706755336,9.6129339039],[76.9538646049,9.6133516257],[76.9391902686,9.6160974268],[76.929288801,9.614613159],[76.9291169111,9.6146523152]]]]}},{"type":"Feature","properties":{"code":"G06039","name":"Erattayar","type":"Grama Panchayat","leading":"UDF","seats":{"LDF":6,"UDF":8,"NDA":0,"OTHERS":1}},"geometry":{"type":"MultiPolygon","coordinates":[[[[77.0973214311,9.787023903],[77.0973214311,9.787023903],[77.0973214311,9.787023903]]]]}},{"type":"Feature","properties":{"code":"G06029","name":"Idukki-Kanjikuzhy","type":"Grama Panchayat","leading":"UDF","seats":{"LDF":3,"UDF":14,"NDA":1,"OTHERS":0}},"geometry":{"type":"MultiPolygon","coordinates":[[[[76.88864402,9.9095546611],[76.8730446331,9.9139221826],[76.8614921123,9.9205306905],[76.85446264,9.9215560507],[76.8511401984,9.923993279],[76.8488358691,9.9288256044],[76.8517838518,9.9308566223],[76.8499614423,9.9328983381],[76.8517625144,9.9408048562],[76.8538407316,9.9434366469],[76.8445426691,9.9530091937],[76.847874472,9.955482488],[76.8517647268,9.9551046577],[76.8536159972,9.952582786],[76.8551096961,9.9545911885],[76.8619532647,9.9563636835],[76.8631890312,9.9606763165],[76.8608331461,9.9627146408],[76.8590376684,9.9619356694],[76.854633216,9.9701269144],[76.8589492653,9.981480944],[76.8573669769,9.9829770273],[76.8625332065,9.9839070836],[76.8677304295,9.9820272811],[76.8735540668,9.982739709],[76.8778921974,9.9879353347],[76.8770151851,9.9919721417],[76.8708158145,9.9990971057],[76.8682025202,10.0008870408],[76.8649693685,10.0004138025],[76.8576494007,10.0059457432],[76.8432139344,10.0081633685],[76.8359180386,10.0127049853],[76.8244300352,10.01397201],[76.8270471818,10.0146339732],[76.8238492646,10.018197114],[76.8230609809,10.0237125587],[76.8268833813,10.0192750636],[76.8292400593,10.0197152665],[76.8280543031,10.0189508358],[76.8316780475,10.017056378],[76.8332135241,10.018908143],[76.8326457339,10.0170465851],[76.8361575149,10.0154727534],[76.8365232862,10.0171797903],[76.8403342883,10.0179736115],[76.8435489291,10.016927352],[76.8478108526,10.021503665],[76.8508188893,10.0204597617],[76.8980010435,9.9946773672],[76.9019441682,9.9909362673],[76.9156894556,9.9860334986],[76.9289346052,9.977296899],[76.9389560254,9.9732967627],[76.9480772962,9.9648512656],[76.9533129507,9.9649100755],[76.9640394047,9.9573284911],[76.9837440477,9.9510768085],[76.971132593,9.9319410315],[76.971681173,9.929327211],[76.9784293797,9.9232707838],[76.9721253709,9.9144444933],[76.9777794013,9.9061156346],[76.9755506081,9.9009885591],[76.9701711253,9.9019310621],[76.9687101132,9.9003369551],[76.9668001013,9.9024645061],[76.9634636638,9.9016789602],[76.9636469856,9.9044561864],[76.9593931171,9.9080208222],[76.9553627356,9.9070769211],[76.951419411,9.9133371115],[76.9462800431,9.915627613],[76.9416546605,9.9147037078],[76.9320916464,9.9273714274],[76.9280323115,9.9232973535],[76.9231438861,9.9226011896],[76.9166739351,9.926758753],[76.9075617977,9.9273427722],[76.8920364731,9.9126095536],[76.88864402,9.9095546611]]]]}},{"type":"Feature","properties":{"code":"G06032","name":"Kamakshy","type":"Grama Panchayat","leading":"UDF","seats":{"LDF":3,"UDF":12,"NDA":0,"OTHERS":0}},"geometry":{"type":"MultiPolygon","coordinates":[[[[77.0562337587,9.8118272311],[77.0562337587,9.8118272311],[77.0562337587,9.8118272311]]]]}},{"type":"Feature","properties":{"code":"G06038","name":"Kanchiyar","type":"Grama Panchayat","leading":"UDF","seats":{"LDF":6,"UDF":10,"NDA":0,"OTHERS":1}},"geometry":{"type":"MultiPolygon","coordinates":[[[[77.0686685624,9.6929380135],[77.0390704396,9.7151862683],[77.0280265626,9.7166693072],[77.0203584782,9.7246914004],[77.0146752943,9.7274606672],[77.0162918318,9.7342728954],[77.011659774,9.7499583687],[77.0145059848,9.7565584681],[77.0143900746,9.7658148001],[77.0209048754,9.7738066894],[77.0290288126,9.7795282534],[77.0329885164,9.7857701682],[77.0265096273,9.7959800974],[77.0041162476,9.8117980864],[76.988315465,9.8253128995],[76.9804103551,9.8348022081],[76.9729592814,9.8401273616],[76.9761077916,9.8433269337],[76.9797139749,9.8431473116],[76.9929936315,9.8297689688],[77.0096698919,9.8215848119],[77.0145030913,9.8230124422],[77.0156668906,9.8199468949],[77.0203471628,9.8163961164],[77.0299015157,9.8129920816],[77.0300117084,9.8089750543],[77.0511120897,9.799926068],[77.0526913793,9.7969596324],[77.0555611181,9.7976405864],[77.0619390944,9.7895637135],[77.0779129427,9.7763451397],[77.085296235,9.7649259835],[77.0924088705,9.7582875126],[77.0942441642,9.7522881501],[77.0915626167,9.7486026802],[77.0908807537,9.741307423],[77.0885713324,9.738960131],[77.0889421371,9.7364463155],[77.0856126651,9.7289359239],[77.090047179,9.7254688879],[77.0908518235,9.7174657014],[77.0884736501,9.7126459422],[77.09098102,9.7074943927],[77.0903381028,9.7053847699],[77.0924604612,9.7047424661],[77.0931669616,9.7002845385],[77.0954557716,9.6991033161],[77.0913504324,9.6987611596],[77.0845364531,9.6839090655],[77.0799255868,9.6847492282],[77.069072726,9.6927227573],[77.0686685624,9.6929380135]]]]}},{"type":"Feature","properties":{"code":"G06008","name":"Kanthalloor","type":"Grama Panchayat","leading":"LDF","seats":{"LDF":8,"UDF":5,"NDA":1,"OTHERS":0}},"geometry":{"type":"MultiPolygon","coordinates":[[[[77.1453576253,10.2236902767],[77.140986925,10.2268758083],[77.1461172918,10.2329174372],[77.1507193965,10.2357008388],[77.1528107175,10.2401305899],[77.1581473024,10.2364161646],[77.1608348075,10.2373041333],[77.1636585717,10.2352365607],[77.167192765,10.2417437745],[77.1663434622,10.245169217],[77.1680611416,10.2468713521],[77.1659882321,10.2507123477],[77.170845033,10.2548628809],[77.1731172091,10.2538743005],[77.1756905519,10.2551213332],[77.1780450269,10.2588079203],[77.1778206968,10.2616990966],[77.1834900961,10.2618014686],[77.1823064642,10.2705592307],[77.187607209,10.2800541106],[77.1883659152,10.285180252],[77.1857630101,10.2946347328],[77.1872008073,10.2986322424],[77.2047638211,10.3185862433],[77.2159221046,10.3279904385],[77.2180019553,10.3318724097],[77.2356204855,10.3495968251],[77.236750426,10.3383490515],[77.233646105,10.3372145046],[77.2338353539,10.3338782666],[77.2311163726,10.3327861248],[77.2299190247,10.3300474714],[77.2306346241,10.3288626124],[77.2291045232,10.3273353196],[77.230816943,10.322311051],[77.2284040838,10.3167063442],[77.2314976311,10.3127106242],[77.2319899407,10.3087568134],[77.2356950834,10.3081209944],[77.2372321792,10.3022964364],[77.2400574013,10.2989635612],[77.2399779478,10.2947662412],[77.262729171,10.2632401176],[77.247413952,10.2508094687],[77.2299801453,10.2444754356],[77.2235509641,10.2389991338],[77.2198422515,10.2241575668],[77.2106182607,10.2045953221],[77.2081753711,10.1956607988],[77.2097271636,10.1862007439],[77.2007649109,10.1899968467],[77.1897777008,10.1766511146],[77.1849889055,10.173874976],[77.1779763665,10.1729490661],[77.1782473751,10.1716268145],[77.172505154,10.1676272105],[77.1607224734,10.1814918176],[77.1601668101,10.1881831669],[77.1589381013,10.1873488706],[77.1567123351,10.188736094],[77.1529586458,10.2105880829],[77.1478018313,10.222220437],[77.1457260956,10.2234209406],[77.1453576253,10.2236902767]]]]}},{"type":"Feature","properties":{"code":"G06027","name":"Karimannoor","type":"Grama Panchayat","leading":"UDF","seats":{"LDF":1,"UDF":12,"NDA":0,"OTHERS":2}},"geometry":{"type":"MultiPolygon","coordinates":[[[[76.7901274047,9.8965247423],[76.7746375086,9.902873113],[76.7735071654,9.899269921],[76.7707026267,9.8971689364],[76.7555287135,9.9099930191],[76.7492446258,9.9249252458],[76.7582785214,9.9266151801],[76.7569837759,9.9307945506],[76.7594820283,9.9350936476],[76.7621242218,9.9359376696],[76.7630091788,9.9403801683],[76.7715819847,9.937714273],[76.7747765555,9.9448471387],[76.7784380227,9.9462260769],[76.7807772165,9.9447636595],[76.782523744,9.946929515],[76.7814488164,9.9490553573],[76.7834397998,9.9508285726],[76.7931673823,9.9524353884],[76.7969821283,9.9560656777],[76.803613624,9.9557452779],[76.8048383675,9.9536777252],[76.8092914411,9.9557863554],[76.8093374588,9.9540951171],[76.8129816418,9.9522841755],[76.8133158383,9.9482233637],[76.8147811524,9.9486794425],[76.8169675203,9.953780512],[76.8169134302,9.963719608],[76.8207602327,9.9650514307],[76.8362311335,9.9569329593],[76.8341703753,9.9536499033],[76.8321534296,9.9533300493],[76.8250838364,9.9573879862],[76.8238711779,9.9561354642],[76.8239510239,9.9513075033],[76.8211805108,9.9510819385],[76.8213102999,9.947631414],[76.8239181069,9.9446619065],[76.823650584,9.94010007],[76.814525,9.92532],[76.8133396345,9.9201789609],[76.8094833127,9.9203205583],[76.808305123,9.9107646269],[76.8068506931,9.9094777915],[76.808346381,9.9059852037],[76.8055962711,9.9053443967],[76.803815481,9.9005557178],[76.8014544073,9.8996638929],[76.8012681139,9.8962971629],[76.7990498528,9.8950675708],[76.7981183578,9.8919136981],[76.7911885532,9.8961755974],[76.7901274047,9.8965247423]]]]}},{"type":"Feature","properties":{"code":"G06045","name":"Karimkunnam","type":"Grama Panchayat","leading":"UDF","seats":{"LDF":0,"UDF":11,"NDA":1,"OTHERS":2}},"geometry":{"type":"MultiPolygon","coordinates":[[[[76.7075079911,9.8330882946],[76.7049114549,9.823356684],[76.7013090261,9.823766079],[76.6967709348,9.830896354],[76.6914741336,9.8320304567],[76.69116649,9.8335508794],[76.6848860955,9.832988817],[76.6820621025,9.8395315174],[76.6780401732,9.8392152305],[76.6696830124,9.8437277748],[76.6738810018,9.8503098838],[76.6711838312,9.8548927209],[76.6762675136,9.8568550528],[76.6772527057,9.8587876553],[76.6757122838,9.868557082],[76.6837763561,9.8761119957],[76.6873505755,9.8718078202],[76.6937682507,9.870954744],[76.6976369531,9.8638946832],[76.7006478954,9.862979927],[76.704196359,9.8672112971],[76.7001796535,9.8698826598],[76.7005128645,9.8751992706],[76.7036587845,9.8756193104],[76.7067610511,9.8784803361],[76.702927806,9.8825827734],[76.7050420185,9.8845799965],[76.7213544204,9.8727439248],[76.7207696251,9.870360723],[76.7233481292,9.8682469566],[76.7233443089,9.8694120347],[76.7260415245,9.8688596656],[76.7318950727,9.8547125545],[76.7302615601,9.8536732343],[76.7236545557,9.8557071873],[76.7195359239,9.8532064596],[76.7177295388,9.8489263962],[76.7188364183,9.8448584815],[76.715893385,9.841177599],[76.7126151262,9.8406217373],[76.7111313267,9.8384148018],[76.7095292044,9.8390086829],[76.7074996387,9.8333029571],[76.7075079911,9.8330882946]]]]}},{"type":"Feature","properties":{"code":"G06017","name":"Karunapuram","type":"Grama Panchayat","leading":"LDF","seats":{"LDF":10,"UDF":7,"NDA":0,"OTHERS":1}},"geometry":{"type":"MultiPolygon","coordinates":[[[[77.2062353544,9.7242512519],[77.1916473,9.73094636],[77.18541643,9.73117212],[77.1782423748,9.7354315484],[77.1660625072,9.7323969829],[77.1642785232,9.740011703],[77.1685942969,9.7460516132],[77.16786927,9.74763661],[77.16969664,9.75098676],[77.1779992645,9.7577428311],[77.1762042652,9.7625959459],[77.18471802,9.76522947],[77.1857729434,9.7690258813],[77.1916894038,9.7728526193],[77.19528124,9.77247704],[77.2021636932,9.7755509356],[77.2059124006,9.7791096219],[77.2055931409,9.7874876325],[77.2035632137,9.7877179801],[77.2030875906,9.7904542037],[77.1989503662,9.7952347119],[77.1935551695,9.7959146749],[77.1899383959,9.8057036351],[77.1933891224,9.8112524379],[77.1932892297,9.8144368199],[77.198212792,9.8124976828],[77.205922401,9.8168364468],[77.2110304826,9.8172235021],[77.2178505727,9.816370255],[77.2211539809,9.8128120637],[77.2301670162,9.8118959689],[77.233952,9.80964741],[77.2447247245,9.8120610467],[77.2469701537,9.8071383561],[77.2453773316,9.8027938021],[77.2468326822,9.7983523528],[77.2424719434,9.7960569764],[77.2383113346,9.7972003934],[77.2383720978,9.7922375998],[77.2351410208,9.7898376558],[77.2256504049,9.7893190258],[77.2228017636,9.7877313291],[77.2251789463,9.7817856984],[77.2252828779,9.776448779],[77.2288819871,9.7715929562],[77.2328390698,9.7693879272],[77.2288597505,9.766302329],[77.2268368654,9.7620741832],[77.2258853732,9.7531341538],[77.222321324,9.7502640521],[77.2205027304,9.745667198],[77.2200906814,9.7423453299],[77.2231483581,9.7400834482],[77.2218761189,9.7379318054],[77.2238667172,9.73009401],[77.220482405,9.7288566593],[77.2190145624,9.7256542671],[77.2157319284,9.7260391253],[77.2111018918,9.7231260926],[77.206875824,9.7242160724],[77.2062353544,9.7242512519]],[[77.1851080186,9.7653334128],[77.1851080186,9.7653334128],[77.1851080186,9.7653334128]]]]}},{"type":"Feature","properties":{"code":"G06024","name":"Kodikulam","type":"Grama Panchayat","leading":"UDF","seats":{"LDF":2,"UDF":10,"NDA":0,"OTHERS":2}},"geometry":{"type":"MultiPolygon","coordinates":[[[[76.7526184688,9.9260811209],[76.7436635022,9.9302800293],[76.7428072404,9.9344296258],[76.7458104221,9.9396715032],[76.7399861774,9.9428392985],[76.7406071801,9.9458567182],[76.7342356796,9.9496992495],[76.7350568662,9.9507696683],[76.7322538848,9.9533147256],[76.7359026122,9.9599367391],[76.7328189461,9.9631439507],[76.7349846464,9.9719309626],[76.7339192762,9.9765078056],[76.728828303,9.9828623899],[76.730690607,9.9843269741],[76.736908108,9.984588114],[76.7443720387,9.990564129],[76.7478294752,9.9885287354],[76.7561782797,9.9872383073],[76.762907525,9.9814193692],[76.7682907622,9.979539047],[76.7705183528,9.9805945631],[76.777339156,9.9792170843],[76.7789290627,9.9753009049],[76.7840520975,9.9741472534],[76.7926294266,9.968011584],[76.7939288124,9.9632546328],[76.7969442285,9.9617004263],[76.7969821283,9.9560656777],[76.7939931275,9.9528478633],[76.7834397998,9.9508285726],[76.7814488164,9.9490553573],[76.782523744,9.946929515],[76.7811234278,9.9449554101],[76.7784380227,9.9462260769],[76.7747765555,9.9448471387],[76.7715819847,9.937714273],[76.7630091788,9.9403801683],[76.7621242218,9.9359376696],[76.7594820283,9.9350936476],[76.7569837759,9.9307945506],[76.7582785214,9.9266151801],[76.7529541204,9.926284493],[76.7526184688,9.9260811209]]]]}},{"type":"Feature","properties":{"code":"G06050","name":"Kokkayar","type":"Grama Panchayat","leading":"UDF","seats":{"LDF":6,"UDF":7,"NDA":0,"OTHERS":1}},"geometry":{"type":"MultiPolygon","coordinates":[[[[76.9111794218,9.5369357542],[76.9111794218,9.5369357542],[76.9111794218,9.5369357542]]]]}},{"type":"Feature","properties":{"code":"G06002","name":"Konnathady","type":"Grama Panchayat","leading":"UDF","seats":{"LDF":3,"UDF":14,"NDA":0,"OTHERS":2}},"geometry":{"type":"MultiPolygon","coordinates":[[[[76.9766880529,9.9400663594],[76.991975829,9.9608333169],[77.0023094909,9.9811932342],[77.0179210727,9.9728806112],[77.0262350423,9.9728323792],[77.0292538383,9.9757676628],[77.0390884473,9.9768687175],[77.0465063902,9.9754575146],[77.0533318024,9.9779774256],[77.0583342928,9.9776707145],[77.056711332,9.9665744502],[77.0584089649,9.9617122441],[77.0569007457,9.9587247467],[77.0632202384,9.9578589148],[77.0718716063,9.9523187498],[77.0747219971,9.9487932121],[77.0739126066,9.943547644],[77.0768199775,9.9426319822],[77.0776753748,9.9400544702],[77.0864290283,9.938979061],[77.0878227757,9.9359805679],[77.0931290496,9.9345026065],[77.0967555524,9.9359593339],[77.1047601718,9.9339412358],[77.1055938441,9.9285182965],[77.1008210922,9.9243040567],[77.1069675137,9.9162021097],[77.1041051526,9.9093794258],[77.1051580017,9.9057485059],[77.1014777952,9.9052753705],[77.1010238903,9.9012213707],[77.1027380218,9.9001109331],[77.1042788692,9.8939999889],[77.1073925557,9.8919468679],[77.0964901807,9.8965532462],[77.0835538745,9.8981864659],[77.0828027852,9.9001933492],[77.0791552133,9.9017565156],[77.0775980542,9.8993612871],[77.0752356164,9.8997504106],[77.063973774,9.9057662393],[77.0568354748,9.9070722669],[77.0502453756,9.9118458219],[77.0468265317,9.9118494968],[77.0351748979,9.9166156788],[77.00500096,9.9248363018],[77.0014852577,9.9236084595],[76.9964797911,9.9243191414],[76.9912271065,9.9282842434],[76.9847560265,9.929185363],[76.9832043034,9.9309797641],[76.9839366795,9.933839962],[76.9769709529,9.9395056731],[76.9766880529,9.9400663594]],[[77.0559298297,9.9347627343],[77.055958508,9.9347025463],[77.0559298297,9.9347627343]],[[77.0561951408,9.9354170781],[77.0561853867,9.9354138427],[77.0561951408,9.9354170781]]]]}},{"type":"Feature","properties":{"code":"G06028","name":"Kudayathoor","type":"Grama Panchayat","leading":"UDF","seats":{"LDF":2,"UDF":6,"NDA":4,"OTHERS":2}},"geometry":{"type":"MultiPolygon","coordinates":[[[[76.7698710061,9.8102333876],[76.7703290944,9.8114053787],[76.7678655099,9.8129814563],[76.7663189879,9.822218244],[76.7630566044,9.8235086698],[76.7642767248,9.8268553526],[76.7613080257,9.8278925816],[76.7639504589,9.8355740678],[76.7624874547,9.8373785298],[76.7601381532,9.8371542086],[76.7604613606,9.8382736954],[76.7689936464,9.8356442614],[76.772481166,9.8400591053],[76.7744661282,9.8394109564],[76.780656647,9.8355274066],[76.7801134965,9.8308936542],[76.7819545624,9.8316132027],[76.7829407727,9.8300827438],[76.7848976549,9.8310419877],[76.7848862484,9.8339990408],[76.7861844571,9.8315055371],[76.7882700581,9.8330902412],[76.7879630318,9.8364007122],[76.7843399501,9.8374686687],[76.7865008321,9.846450735],[76.8083085483,9.8367110034],[76.8175399296,9.8284162517],[76.8169448123,9.8255143438],[76.8129660667,9.8240810136],[76.8103142524,9.8198534353],[76.8121075436,9.8194214018],[76.8117195173,9.8166216844],[76.8176924747,9.8144147968],[76.8249438602,9.8090609267],[76.8274221776,9.8026663504],[76.824862386,9.8049763169],[76.8229252269,9.8045364337],[76.8165147091,9.8007473362],[76.8118140817,9.7951545874],[76.802556996,9.7940450476],[76.7830050331,9.8056587345],[76.7800609586,9.808945959],[76.7735269246,9.8094565433],[76.7698710061,9.8102333876]]]]}},{"type":"Feature","properties":{"code":"G06042","name":"Kumaramangalam","type":"Grama Panchayat","leading":"UDF","seats":{"LDF":1,"UDF":10,"NDA":0,"OTHERS":3}},"geometry":{"type":"MultiPolygon","coordinates":[[[[76.7144672249,9.9174009105],[76.7144672249,9.9174009105],[76.7144672249,9.9174009105]]]]}},{"type":"Feature","properties":{"code":"G06049","name":"Kumily","type":"Grama Panchayat","leading":"UDF","seats":{"LDF":3,"UDF":17,"NDA":0,"OTHERS":2}},"geometry":{"type":"MultiPolygon","coordinates":[[[[77.0463952451,9.6403342553],[77.0462204471,9.6542015575],[77.0537987637,9.6535936708],[77.0627076276,9.6584669828],[77.0668619008,9.6629536141],[77.0701838271,9.6631114712],[77.0708303305,9.6657081055],[77.0753634688,9.6656155105],[77.0771270661,9.6675393544],[77.0810596255,9.6679226505],[77.0815366984,9.6656449316],[77.08576982,9.6660459758],[77.0904161588,9.6618581882],[77.0917324942,9.6514723533],[77.0975310214,9.6457667776],[77.1120937124,9.6452204692],[77.1209678591,9.6409453919],[77.1383586,9.64484933],[77.1527271211,9.638938627],[77.1555241103,9.6359896633],[77.1615459243,9.6400007969],[77.1740705043,9.6368739604],[77.176143406,9.6289564524],[77.174838295,9.6262674167],[77.1717167327,9.626194389],[77.1691753015,9.6239847851],[77.167764964,9.6146892607],[77.1657527098,9.6139084173],[77.1672632606,9.6116664734],[77.170299377,9.6096488141],[77.1734962505,9.6112273769],[77.1798307965,9.6097371529],[77.1888281452,9.6058742932],[77.1919237935,9.6100008861],[77.1973535606,9.6109801121],[77.1981759374,9.6144782587],[77.2090942934,9.6134279538],[77.2104564745,9.6115926396],[77.2098874836,9.6048548433],[77.2144096635,9.6008139681],[77.217179363,9.6015595436],[77.220476636,9.599391537],[77.2222911533,9.5976326599],[77.2226730312,9.5925700817],[77.2341230257,9.5815844346],[77.2371876775,9.5809399298],[77.2437906119,9.5852322146],[77.2531053936,9.5828966341],[77.2583234314,9.5766545789],[77.261780463,9.5767833004],[77.2640484762,9.5736832067],[77.269732227,9.5727777577],[77.2722225034,9.5760300255],[77.2778280919,9.5755702697],[77.2818396947,9.580311237],[77.2903594358,9.5847773137],[77.2900977903,9.5887445778],[77.2948890415,9.5892438982],[77.3033640271,9.598582294],[77.3151636878,9.6005910513],[77.3175256117,9.6026135567],[77.3240968464,9.5977567097],[77.328822219,9.6002012283],[77.3300531768,9.5992144134],[77.3245623447,9.5930463006],[77.3262612198,9.5890961465],[77.3239435014,9.5848555971],[77.3256061027,9.5834169677],[77.3252512027,9.5801082849],[77.3330054454,9.5785675593],[77.3396672781,9.5732530356],[77.3420938572,9.5771382229],[77.3420523423,9.5811033199],[77.3544248244,9.6036357519],[77.3662674658,9.5989834756],[77.3662027858,9.5953901617],[77.362729536,9.5949732081],[77.3596745015,9.5969948569],[77.3574816436,9.5941260135],[77.3547348087,9.5861496583],[77.3591842272,9.5823413336],[77.3603078015,9.5776348323],[77.357857559,9.5735320111],[77.3529977935,9.5728016564],[77.3498853115,9.5667119438],[77.3521506025,9.5603527012],[77.3563345822,9.5574104923],[77.3610211526,9.5576682129],[77.3641006277,9.5541825121],[77.365692638,9.5514043012],[77.3650506227,9.5358640167],[77.3691715302,9.5345717986],[77.3729662485,9.5297698438],[77.3732560527,9.5268338599],[77.3770187458,9.5244921758],[77.3802340062,9.524933127],[77.385398148,9.5190082421],[77.3968664194,9.5238283423],[77.400634701,9.5276859604],[77.4034470262,9.5217318426],[77.4005029082,9.5176693375],[77.4083346217,9.5150418298],[77.41250458,9.5098751623],[77.4122175583,9.5081191633],[77.4015981949,9.5002364309],[77.3995030327,9.4968833893],[77.3982399744,9.4911323845],[77.4000330369,9.4831002051],[77.3986032762,9.4818981411],[77.4020064016,9.477854525],[77.3978202125,9.4716427925],[77.391303581,9.4679727855],[77.3922757179,9.4590581907],[77.3865844604,9.4552523745],[77.3805270809,9.4548635528],[77.3769558728,9.4526498875],[77.3657717128,9.4600528297],[77.361143413,9.4563145599],[77.3567113309,9.4479529972],[77.3486278112,9.439920146],[77.3482797138,9.4336170202],[77.3450225506,9.4254522098],[77.3392432148,9.41988112],[77.3364654331,9.4133240888],[77.3437426545,9.4003090324],[77.3397874848,9.3922453071],[77.3409747583,9.3893298102],[77.3390674326,9.387229646],[77.3366382365,9.3872346988],[77.3344386344,9.3808865935],[77.3378014057,9.3677812292],[77.3360744435,9.3614991397],[77.3262878346,9.3468971795],[77.3252640149,9.3371806215],[77.3203293812,9.3375272779],[77.3147252531,9.3346870696],[77.3054361469,9.3377536095],[77.2999606022,9.3365869595],[77.3008004093,9.3293478242],[77.2970458983,9.3291374984],[77.301712273,9.3244244111],[77.3024565737,9.3187960886],[77.2997898678,9.3147198606],[77.2994569857,9.3104894352],[77.2873855835,9.3008217991],[77.28224609,9.3007298827],[77.2832796465,9.2910726063],[77.2878679807,9.281249084],[77.2885407993,9.2741343729],[77.2817878649,9.2724452499],[77.2730893551,9.2781686624],[77.2623243769,9.2805940935],[77.2549422801,9.286250934],[77.2511192887,9.2864862347],[77.2484979521,9.2889862769],[77.2450490375,9.2896308298],[77.2435578902,9.2836426147],[77.2396924038,9.2846014442],[77.236759173,9.2823117145],[77.2360032119,9.2921489054],[77.2302422661,9.2962996441],[77.2241979626,9.2951822776],[77.2259062064,9.3042043655],[77.2241131143,9.3104515341],[77.2304285045,9.3199135268],[77.2350946895,9.3231801724],[77.2348237744,9.3267780989],[77.2303624048,9.3296218477],[77.2320108176,9.3339253471],[77.2374468224,9.3381123047],[77.2348958389,9.3504133521],[77.2380609083,9.3545516581],[77.2429788752,9.3718155662],[77.2470478988,9.3769245702],[77.2456070003,9.3882573519],[77.2422713689,9.3900663355],[77.2389017659,9.3981529607],[77.2311707323,9.403361191],[77.2280740804,9.4108099582],[77.2301259985,9.4155375234],[77.2280045045,9.4191610167],[77.2224131861,9.4191528119],[77.2198968891,9.4208204129],[77.221757328,9.4224539183],[77.2223300262,9.4310763893],[77.2246296764,9.4341194967],[77.2153788061,9.4368968297],[77.2121977877,9.4426265959],[77.2102605082,9.4426442045],[77.2082376654,9.440282919],[77.2071460154,9.443494135],[77.2093987878,9.4471935911],[77.2062393708,9.4496626226],[77.2026666705,9.4509108283],[77.2007317686,9.4488437489],[77.1982425799,9.4514114944],[77.1909259521,9.4485354439],[77.1881128608,9.4557061743],[77.1832947288,9.45388572],[77.1820937916,9.455877478],[77.184333382,9.4622962485],[77.183783672,9.4646924575],[77.1816766529,9.4650517664],[77.1817139076,9.4714448281],[77.176250657,9.4675851202],[77.1728821032,9.4625851581],[77.1687456421,9.4607940537],[77.1693004226,9.4645619692],[77.1661856276,9.4645384194],[77.1665417875,9.4685671433],[77.1608048411,9.4680115375],[77.1547256902,9.4699080692],[77.1445549537,9.4619786726],[77.134583105,9.4588263313],[77.1305314389,9.4598987149],[77.1283855676,9.458478049],[77.120685476,9.4635461574],[77.1164854718,9.4630004494],[77.1115708424,9.4678757148],[77.1021229839,9.4662563453],[77.0967301571,9.4630430833],[77.0929393897,9.4643774078],[77.084360916,9.4579111542],[77.0673123543,9.4533772086],[77.0599726854,9.4473000156],[77.0576189493,9.443302163],[77.0601221596,9.438890366],[77.0579168019,9.4349425633],[77.060621638,9.4299417558],[77.058599042,9.4277976094],[77.0538450429,9.4405347054],[77.054332747,9.4530819405],[77.0507767118,9.4638674733],[77.0402433367,9.4699035859],[77.039281951,9.4787612993],[77.0351891551,9.4893564112],[77.0305307243,9.4958744212],[77.0343186368,9.498349746],[77.0283841725,9.5033657097],[77.0283129823,9.5057499573],[77.0332416156,9.5029097785],[77.0635355057,9.5095004241],[77.0856185345,9.5108226125],[77.1056344765,9.5251416655],[77.1086113535,9.5244100326],[77.1181593054,9.5325115224],[77.1277779968,9.5300501161],[77.1333926085,9.52958609],[77.1374204305,9.5311289381],[77.1436685946,9.5298402798],[77.1430124449,9.532516847],[77.1461602828,9.5344340919],[77.1510779832,9.5450286805],[77.1455855019,9.5440931856],[77.1452933446,9.5472855997],[77.148452223,9.5489809949],[77.148568712,9.5521498581],[77.1529780146,9.5499619235],[77.1538430653,9.5509547894],[77.1506491517,9.5528411242],[77.1528067885,9.5593941077],[77.1457517543,9.5584178007],[77.1409168268,9.5599701982],[77.1400324418,9.5652394743],[77.1364513819,9.5683785326],[77.1283799128,9.5886534929],[77.1223614401,9.5938041631],[77.1241451075,9.5962565169],[77.1234120683,9.6041426175],[77.1257909507,9.6085227521],[77.12070425,9.61350087],[77.1235745242,9.6181169641],[77.1206357358,9.6184050137],[77.11673233,9.62230657],[77.1051889175,9.6163029053],[77.1040009791,9.6187590173],[77.1075116099,9.6190516252],[77.1061776266,9.6257162041],[77.1027187232,9.6278821578],[77.0811787924,9.6210194205],[77.0780961464,9.6264105805],[77.0751905803,9.6245895388],[77.0724493325,9.6333653064],[77.0666783973,9.6354215269],[77.0665400632,9.6370754216],[77.0636828038,9.6381890324],[77.0612421598,9.6368435638],[77.0589748997,9.6384663511],[77.051070365,9.6320681132],[77.0517271972,9.6387263925],[77.046685122,9.6403637601],[77.0463952451,9.6403342553]]]]}},{"type":"Feature","properties":{"code":"G06046","name":"Manakkad","type":"Grama Panchayat","leading":"OTHERS","seats":{"LDF":3,"UDF":5,"NDA":0,"OTHERS":6}},"geometry":{"type":"MultiPolygon","coordinates":[[[[76.6482898795,9.885159716],[76.6482898795,9.885159716],[76.6482898795,9.885159716]]]]}},{"type":"Feature","properties":{"code":"G06012","name":"Mankulam","type":"Grama Panchayat","leading":"UDF","seats":{"LDF":3,"UDF":10,"NDA":0,"OTHERS":1}},"geometry":{"type":"MultiPolygon","coordinates":[[[[76.917353162,10.0826257678],[76.917353162,10.0826257678],[76.917353162,10.0826257678]]]]}},{"type":"Feature","properties":{"code":"G06006","name":"Marayoor","type":"Grama Panchayat","leading":"UDF","seats":{"LDF":4,"UDF":10,"NDA":0,"OTHERS":0}},"geometry":{"type":"MultiPolygon","coordinates":[[[[77.1660813899,10.2486181805],[77.1660813899,10.2486181805],[77.1660813899,10.2486181805]]]]}},{"type":"Feature","properties":{"code":"G06034","name":"Mariyapuram","type":"Grama Panchayat","leading":"UDF","seats":{"LDF":2,"UDF":12,"NDA":0,"OTHERS":0}},"geometry":{"type":"MultiPolygon","coordinates":[[[[76.9779827719,9.8435883657],[76.9800770478,9.8469075024],[76.9796515755,9.8489044786],[76.9708366587,9.8543534125],[76.9709727961,9.8598094705],[76.9671258779,9.8653162788],[76.9663169665,9.8701388062],[76.9679859754,9.8781593902],[76.9723774012,9.8807884043],[76.9695639817,9.8865256791],[76.97407544,9.8876250832],[76.9738019129,9.8916472159],[76.9773097803,9.8922227005],[76.973769439,9.9003465877],[76.9760913832,9.9012255879],[76.9774453172,9.9071133785],[76.9815496463,9.9064672328],[76.9906915763,9.9012697517],[76.9919705587,9.9000994951],[76.9904638744,9.8980661543],[76.9917605691,9.8936749698],[76.9948203066,9.8925954307],[76.9962419135,9.8901254016],[77.0038944192,9.8874941338],[77.0071629112,9.8840458696],[77.013060196,9.8831721996],[77.0150287008,9.8802763423],[77.0196610196,9.8782797719],[77.0165555857,9.8743967509],[77.0170307593,9.8683976863],[77.0146621529,9.8669419058],[77.0125615323,9.8659239208],[77.0078846861,9.8684488785],[77.000762647,9.8682178277],[76.9944219214,9.864211086],[76.9949177592,9.862000955],[77.0056640936,9.8543245425],[77.004046089,9.846070899],[77.0100115941,9.8432139339],[77.0153811387,9.8370474388],[77.0211201142,9.8352807615],[77.0225697439,9.8290494658],[77.017680501,9.8288326099],[77.0148825869,9.8257588333],[77.0143293325,9.8224534899],[77.0096698919,9.8215848119],[76.9929936315,9.8297689688],[76.9808597907,9.8424284267],[76.9782102569,9.8433379568],[76.9779827719,9.8435883657]]]]}},{"type":"Feature","properties":{"code":"G06007","name":"Munnar","type":"Grama Panchayat","leading":"UDF","seats":{"LDF":6,"UDF":14,"NDA":0,"OTHERS":0}},"geometry":{"type":"MultiPolygon","coordinates":[[[[76.9714690697,10.065530727],[76.9701689052,10.0841062673],[76.9679257613,10.0887278279],[76.9592483351,10.0943201019],[76.9600333612,10.0956861975],[76.9699712372,10.0982321091],[76.9767206986,10.1071344675],[76.9650581333,10.1151321255],[76.9632268585,10.1183230871],[76.9666904964,10.1287673686],[76.975507463,10.1411312586],[76.9750681526,10.1466490337],[76.9801456041,10.1497008968],[76.9857344107,10.158858682],[76.9877005563,10.1574807295],[76.9895174598,10.1594966334],[76.9937929507,10.1593436747],[76.9937980814,10.1610456322],[77.0008244134,10.1672559753],[77.0127042935,10.1732598619],[77.0121014564,10.1767335005],[77.0142617184,10.1793605459],[77.0169790049,10.1802701647],[77.0299328428,10.1780698504],[77.0357355473,10.1801034286],[77.0325650954,10.1905064692],[77.0223012848,10.203798797],[77.0245756615,10.2098883454],[77.0290779785,10.2071855203],[77.0356656695,10.206704249],[77.0404469212,10.20133178],[77.043445603,10.2058251184],[77.0486891614,10.2045072543],[77.0566529015,10.2113021393],[77.0593043425,10.2097560703],[77.0651618453,10.2108272058],[77.067815741,10.2044171676],[77.0830062592,10.215706825],[77.1098815882,10.2291467172],[77.1195986333,10.2361544998],[77.1266515877,10.2315330677],[77.1370881244,10.2297251619],[77.1453576253,10.2236902767],[77.1393289803,10.2199692124],[77.1339975021,10.1954995587],[77.125677287,10.1862458891],[77.1272237396,10.1816291756],[77.1242550492,10.1778850462],[77.1211760671,10.1582861654],[77.1160896214,10.1531474382],[77.1103788275,10.1503915032],[77.1096199125,10.1446084221],[77.106906167,10.1443437508],[77.1068972709,10.1417746031],[77.1027781214,10.1383377219],[77.0978487101,10.1256501783],[77.0918917149,10.1175854956],[77.0888835153,10.0998328648],[77.0793284915,10.0891140308],[77.0750272515,10.0884962682],[77.0742948485,10.0871228639],[77.0759974441,10.0863862172],[77.0732479847,10.0830080227],[77.0743473938,10.0795797639],[77.0802189103,10.0734876265],[77.0809381112,10.0555763004],[77.0725948439,10.059185836],[77.0711199548,10.0620643847],[77.066063926,10.0614030298],[77.0629560361,10.06556744],[77.0568364734,10.0652041929],[77.0516726258,10.060271333],[77.045354531,10.0577740722],[77.040194594,10.0509164205],[77.0370151623,10.0490452763],[77.0113569366,10.053621124],[77.0091651802,10.0559509146],[77.0090288581,10.0614221247],[77.0016976788,10.0621144938],[76.9986580856,10.0642195769],[76.997911388,10.0678659809],[76.9931613152,10.0687905294],[76.9864285645,10.0743773939],[76.9816550753,10.0717726389],[76.9790579821,10.0661914798],[76.971906533,10.0654814684],[76.9714690697,10.065530727]]]]}},{"type":"Feature","properties":{"code":"G06043","name":"Muttom","type":"Grama Panchayat","leading":"TIE","seats":{"LDF":4,"UDF":5,"NDA":0,"OTHERS":5}},"geometry":{"type":"MultiPolygon","coordinates":[[[[76.7049114549,9.823356684],[76.7093303838,9.8387045213],[76.715893385,9.841177599],[76.7188364183,9.8448584815],[76.7177295388,9.8489263962],[76.7195359239,9.8532064596],[76.7236545557,9.8557071873],[76.7306380606,9.8537410723],[76.7318950727,9.8547125545],[76.7301815591,9.8587198146],[76.734206952,9.8557433483],[76.7372840183,9.8565243977],[76.7448061303,9.8527894723],[76.7478669546,9.853397659],[76.7478871953,9.8562475277],[76.7527093004,9.8538516715],[76.7485786094,9.8535378903],[76.7507243448,9.8513459882],[76.7498971054,9.8495076055],[76.7514075756,9.8478151819],[76.7494227328,9.8475689562],[76.7506176882,9.8447318987],[76.7514776381,9.844153855],[76.7521262061,9.84702126],[76.7580994133,9.8458116393],[76.7560798399,9.8438425032],[76.7575500767,9.8435517732],[76.7582357044,9.8404196571],[76.7592021658,9.8414736587],[76.7610477358,9.8392403752],[76.7601381532,9.8371542086],[76.7624874547,9.8373785298],[76.7639504589,9.8355740678],[76.7613080257,9.8278925816],[76.7642767248,9.8268553526],[76.7630566044,9.8235086698],[76.7663189879,9.822218244],[76.7678655099,9.8129814563],[76.7703290944,9.8114053787],[76.7698710061,9.8102333876],[76.7538093537,9.817305139],[76.748756897,9.8141172077],[76.7519586474,9.8071647401],[76.7458579065,9.8046754387],[76.7422803084,9.8048491422],[76.7290199841,9.8124910077],[76.7223070503,9.8130645237],[76.7158051469,9.8190045135],[76.7128933527,9.8188943287],[76.7052390589,9.823272206],[76.7049114549,9.823356684]]]]}},{"type":"Feature","properties":{"code":"G06019","name":"Nedumkandom","type":"Grama Panchayat","leading":"UDF","seats":{"LDF":6,"UDF":15,"NDA":1,"OTHERS":2}},"geometry":{"type":"MultiPolygon","coordinates":[[[[77.1553670902,9.8237608931],[77.1526801023,9.8243850278],[77.1377558377,9.8191180276],[77.1282060735,9.8207432642],[77.1257243991,9.8110207256],[77.1180411333,9.8193523602],[77.1098336985,9.8204500346],[77.1078997306,9.8184470977],[77.1055441931,9.8187965868],[77.1014528177,9.8299686858],[77.0988219414,9.8518830372],[77.0941445062,9.8572773162],[77.0920981094,9.8651738256],[77.0887891785,9.8799626671],[77.0908150277,9.8823404617],[77.0851322867,9.8843588946],[77.0837458423,9.8981649899],[77.0964901807,9.8965532462],[77.108231846,9.8922252844],[77.1125147548,9.8853632531],[77.1232704198,9.8745964496],[77.1302295538,9.8707352558],[77.1449447023,9.8663878503],[77.147800361,9.8639106717],[77.1569774446,9.8655556137],[77.1612562257,9.861914004],[77.1704462213,9.8639033562],[77.1782868894,9.8620863146],[77.1815470024,9.8629663355],[77.1985382811,9.8578010283],[77.2034135808,9.8635742934],[77.2047198636,9.8709601099],[77.210590827,9.8710151654],[77.2146338373,9.8683117094],[77.2188923656,9.8677169229],[77.2218630255,9.862994076],[77.2328814852,9.8616473446],[77.2365629977,9.8596453288],[77.2359879349,9.8544098605],[77.2375595775,9.8513087709],[77.2288064516,9.8493069046],[77.2269832446,9.8464700472],[77.2232276457,9.8448320995],[77.2277038601,9.8381035291],[77.22578751,9.8332715272],[77.2266335012,9.8302020631],[77.2240682559,9.8285342262],[77.224178793,9.8239343395],[77.2220356254,9.822309907],[77.2246852312,9.8221230591],[77.2252738448,9.8201797934],[77.2333286201,9.8213373037],[77.2328894315,9.8174415302],[77.2409914486,9.8162887871],[77.2438355688,9.8123136177],[77.2431018991,9.8107493954],[77.233952,9.80964741],[77.2301670162,9.8118959689],[77.2211539809,9.8128120637],[77.2178505727,9.816370255],[77.2110304826,9.8172235021],[77.205922401,9.8168364468],[77.198212792,9.8124976828],[77.194308679,9.8129648351],[77.1934603287,9.81438701],[77.1896496208,9.8145718713],[77.1867941811,9.8176345654],[77.1812514557,9.8179707307],[77.1790937295,9.8211780513],[77.1770228946,9.8208890461],[77.1715773552,9.8287066621],[77.1685645104,9.8256843886],[77.1647522936,9.8284674589],[77.1556935374,9.8238080571],[77.1553670902,9.8237608931]]]]}},{"type":"Feature","properties":{"code":"G06005","name":"Pallivasal","type":"Grama Panchayat","leading":"TIE","seats":{"LDF":6,"UDF":6,"NDA":0,"OTHERS":2}},"geometry":{"type":"MultiPolygon","coordinates":[[[[77.0098208191,10.0126378998],[77.008393879,10.0117941602],[77.0020047057,10.017249956],[76.9984045799,10.0161890186],[76.9938975505,10.0178284088],[76.9850342478,10.0162722931],[76.9850250696,10.0135540465],[76.980628115,10.0111961786],[76.9783509582,10.0179596953],[76.9820539463,10.0216398522],[76.9859622681,10.023021286],[76.9806914591,10.0282740944],[76.9638004341,10.0269663269],[76.9643831925,10.030518284],[76.9591295027,10.0315162247],[76.9565473277,10.04093205],[76.9499066135,10.04107831],[76.9389810162,10.0447243881],[76.9368892331,10.052536631],[76.941530411,10.0537815522],[76.9435156805,10.0575130446],[76.9412586546,10.0620081446],[76.9378364376,10.0634087339],[76.9365179527,10.067729606],[76.9393579065,10.0681058321],[76.9395948387,10.0705088322],[76.9425777345,10.0686220633],[76.9427908721,10.071012323],[76.9443230016,10.0712464108],[76.9510424235,10.0655140555],[76.9523280688,10.069021847],[76.9567922943,10.0694595243],[76.9609251488,10.0727783398],[76.9695713661,10.065583077],[76.9754020923,10.0654239515],[76.9790579821,10.0661914798],[76.9816550753,10.0717726389],[76.9864285645,10.0743773939],[76.9931613152,10.0687905294],[76.997911388,10.0678659809],[76.9986580856,10.0642195769],[77.0016976788,10.0621144938],[77.0090288581,10.0614221247],[77.0091651802,10.0559509146],[77.0113569366,10.053621124],[77.0370151623,10.0490452763],[77.040194594,10.0509164205],[77.045354531,10.0577740722],[77.0516726258,10.060271333],[77.0563182188,10.0648924736],[77.0629560361,10.06556744],[77.066063926,10.0614030298],[77.0711199548,10.0620643847],[77.0725948439,10.059185836],[77.0833811626,10.0546641585],[77.0965267954,10.0445397687],[77.1010721505,10.0435021735],[77.1019421012,10.0423969513],[77.0887820435,10.0384623984],[77.078677786,10.0410775161],[77.0736187248,10.0369523405],[77.0598620725,10.0168905159],[77.0694333586,10.0093190269],[77.0657171669,9.9972096591],[77.0653568106,10.0099012883],[77.0636759631,10.012807642],[77.0531137266,10.0164180997],[77.0420830419,10.0245218099],[77.0378387602,10.0233929831],[77.0353979361,10.0274770101],[77.0318040745,10.0290416201],[77.0221714926,10.0217893477],[77.0190795616,10.0213422837],[77.019363651,10.0183700387],[77.0172430095,10.0195266749],[77.014407022,10.0182112057],[77.009871046,10.0127742368],[77.0098208191,10.0126378998]]]]}},{"type":"Feature","properties":{"code":"G06015","name":"Pampadumpara","type":"Grama Panchayat","leading":"UDF","seats":{"LDF":3,"UDF":13,"NDA":0,"OTHERS":0}},"geometry":{"type":"MultiPolygon","coordinates":[[[[77.1611402649,9.7596940957],[77.1550563958,9.7568830414],[77.1537245959,9.7629847307],[77.1562880306,9.7684216941],[77.156002118,9.7726575659],[77.1547924678,9.7712309434],[77.1515454147,9.7721834437],[77.1492821566,9.7744501622],[77.1520816797,9.7733942967],[77.1526649374,9.7750923402],[77.1478136552,9.7759523492],[77.1470906126,9.7773712507],[77.1455102624,9.7742100323],[77.1399453047,9.7730499879],[77.1414723942,9.7769126975],[77.1386636564,9.7816685128],[77.1213531734,9.7860626258],[77.1172263364,9.7926130065],[77.1192873139,9.7940364763],[77.1210553209,9.7931025798],[77.1233520934,9.7971135055],[77.1231738978,9.8016532704],[77.1250114284,9.8040995878],[77.1245201832,9.808190222],[77.1261540989,9.8099272438],[77.1282060735,9.8207432642],[77.1317800456,9.8194127424],[77.141189126,9.819647717],[77.1438937971,9.8220295442],[77.1526801023,9.8243850278],[77.1577045646,9.8241198905],[77.1647522936,9.8284674589],[77.1685645104,9.8256843886],[77.1715773552,9.8287066621],[77.1745812856,9.8228939291],[77.1803912913,9.8205776233],[77.1812514557,9.8179707307],[77.1867941811,9.8176345654],[77.1896496208,9.8145718713],[77.1932892297,9.8144368199],[77.1933891224,9.8112524379],[77.1899383959,9.8057036351],[77.1906881697,9.8012262667],[77.1937393675,9.7957336499],[77.1989503662,9.7952347119],[77.2030875906,9.7904542037],[77.2035632137,9.7877179801],[77.2055931409,9.7874876325],[77.2059124006,9.7791096219],[77.2021636932,9.7755509356],[77.19528124,9.77247704],[77.1916894038,9.7728526193],[77.1857729434,9.7690258813],[77.18471802,9.76522947],[77.1712844626,9.7603932955],[77.1617331311,9.7598357295],[77.1611402649,9.7596940957]]]]}},{"type":"Feature","properties":{"code":"G06051","name":"Peermade","type":"Grama Panchayat","leading":"UDF","seats":{"LDF":6,"UDF":10,"NDA":0,"OTHERS":0}},"geometry":{"type":"MultiPolygon","coordinates":[[[[76.9946911986,9.5424204867],[76.9911138352,9.5435507646],[76.9910257528,9.5460468868],[76.9819899837,9.5477717335],[76.9765371011,9.5517567036],[76.9767794047,9.5530984366],[76.9726351318,9.553590032],[76.9611122016,9.565196964],[76.9581418921,9.5632937588],[76.9558889033,9.5645616576],[76.9592965972,9.5715166457],[76.9568502037,9.5785260606],[76.956035982,9.5799408636],[76.9525126976,9.5791333131],[76.9510516798,9.580793483],[76.9490067535,9.5890209066],[76.9454136798,9.5929018698],[76.9450458651,9.5960320685],[76.9356592596,9.5963625269],[76.9325948347,9.5985962677],[76.9322141132,9.6013708677],[76.9350396682,9.6064023269],[76.9315960257,9.6113632073],[76.9276213589,9.6114764447],[76.9277319761,9.6138690986],[76.9391902686,9.6160974268],[76.9538646049,9.6133516257],[76.9706755336,9.6129339039],[76.9912492069,9.626713151],[77.001912554,9.6230431669],[77.0043810456,9.6188688026],[77.0116973273,9.6184841597],[77.0132456008,9.6126996323],[77.0206194399,9.6120419177],[77.0344192105,9.6155381009],[77.0375782127,9.6125141443],[77.0449516631,9.6147532847],[77.046766314,9.6171532371],[77.0498552568,9.6164859581],[77.050539437,9.6131066705],[77.0550925632,9.6109089708],[77.0587749974,9.6111473414],[77.0606812729,9.6083377989],[77.0647626075,9.6123439809],[77.0690400859,9.6115502355],[77.0675877185,9.6040478496],[77.065036698,9.6025685093],[77.0686000027,9.5978559469],[77.0684224158,9.5917859699],[77.0697816539,9.5898388304],[77.0595946109,9.5698552587],[77.0556068636,9.5651598261],[77.0514378628,9.5639498408],[77.0506022081,9.5597091742],[77.0470547467,9.5576054522],[77.0423290722,9.5476021284],[77.0404398314,9.5499069064],[77.0329893019,9.5484889887],[77.0321084196,9.5372933486],[77.0389254728,9.5250838542],[77.0440309489,9.5198594233],[77.0481533963,9.5180987385],[77.0217900924,9.5099727663],[77.0200007199,9.5126207844],[77.0168417213,9.5132986565],[77.0171850222,9.5149879483],[77.0115058375,9.5151216483],[77.0131457713,9.5231043847],[77.0028279121,9.5251163867],[77.0026218564,9.5273082073],[76.995988419,9.5332457484],[76.9963513226,9.535339156],[76.9922494877,9.5379471403],[76.991863607,9.539780553],[76.9947871487,9.5423138854],[76.9946911986,9.5424204867]]]]}},{"type":"Feature","properties":{"code":"G06048","name":"Peruvanthanam","type":"Grama Panchayat","leading":"UDF","seats":{"LDF":4,"UDF":10,"NDA":0,"OTHERS":0}},"geometry":{"type":"MultiPolygon","coordinates":[[[[76.8885948842,9.5385002879],[76.9022618799,9.537542181],[76.9046420125,9.5406882602],[76.9145037186,9.5347911155],[76.9145247421,9.5373386259],[76.9112239146,9.5407329416],[76.9126551082,9.5430466571],[76.9111572811,9.5456909866],[76.9150788777,9.5471949223],[76.9149677926,9.5530933104],[76.9175870617,9.5553837337],[76.9190201079,9.5548727658],[76.9199323478,9.5594912363],[76.9271021962,9.5595515939],[76.9298607808,9.5609373529],[76.9294657887,9.5639707124],[76.9318861945,9.5625752478],[76.934497963,9.5640927664],[76.9415755052,9.5631019636],[76.9501209839,9.5672069844],[76.9581418921,9.5632937588],[76.9611122016,9.565196964],[76.9726351318,9.553590032],[76.9767794047,9.5530984366],[76.9765371011,9.5517567036],[76.9819899837,9.5477717335],[76.9910257528,9.5460468868],[76.9911138352,9.5435507646],[76.9946911986,9.5424204867],[76.991863607,9.539780553],[76.9922494877,9.5379471403],[76.9963513226,9.535339156],[76.995988419,9.5332457484],[77.0026218564,9.5273082073],[77.0028279121,9.5251163867],[77.0135891753,9.5226031947],[77.0115058375,9.5151216483],[77.0171850222,9.5149879483],[77.0168417213,9.5132986565],[77.0200007199,9.5126207844],[77.0217900924,9.5099727663],[77.0247571217,9.5106706784],[77.0255483673,9.507823783],[77.0281246928,9.5078892431],[77.0283841725,9.5033657097],[77.0340260664,9.4989586353],[77.0305307243,9.4958744212],[77.0351891551,9.4893564112],[77.039281951,9.4787612993],[77.0393653533,9.4718145573],[77.0440798416,9.4669797118],[77.0507767118,9.4638674733],[77.0540443825,9.4551432299],[77.053564672,9.4441814742],[77.0552319494,9.4351279121],[77.0590671576,9.4262057229],[77.0623963404,9.4259783679],[77.0672485124,9.4175215744],[77.0591817034,9.4157967854],[77.0555229425,9.4179570273],[77.0498738923,9.4161260902],[77.0469507873,9.4132590201],[77.0375616887,9.412672455],[77.0350938946,9.4090390917],[77.03261535,9.4095290051],[77.0277948613,9.4069518909],[77.0251275454,9.4093755091],[77.0211821396,9.4064602252],[77.0099862576,9.409301928],[77.0117922107,9.4195985632],[77.0008426932,9.4204250425],[76.9997570549,9.4218423425],[77.0029241566,9.4236495006],[77.0034295026,9.425951842],[76.9957178804,9.4322238144],[76.9616873545,9.4396077564],[76.9528370699,9.4394442108],[76.9453230125,9.435183516],[76.9426882848,9.4388215988],[76.9407775414,9.445163751],[76.9519096947,9.4497961424],[76.955685558,9.4575663139],[76.9588285301,9.458037536],[76.9589417655,9.4614566138],[76.9622885846,9.4639187488],[76.9693841976,9.4644917448],[76.9720753117,9.4670395367],[76.9821516546,9.4664010056],[76.984410218,9.4690649846],[76.9846067507,9.4787220987],[76.9822107884,9.4829930471],[76.984156103,9.485863686],[76.9836302403,9.4896162469],[76.9771059832,9.5000104652],[76.975434287,9.5014080886],[76.970132072,9.500720929],[76.9661098765,9.5073049058],[76.96312355,9.5088329787],[76.9608763168,9.5079421226],[76.9610188196,9.5053622944],[76.9574099559,9.5032491219],[76.9591178558,9.4999092358],[76.9568586313,9.4983449056],[76.9545951003,9.4919379971],[76.9420445155,9.4980188551],[76.9350367812,9.5048437773],[76.9295067628,9.50186804],[76.9276390335,9.5047133408],[76.924689122,9.5044688311],[76.9237327108,9.507047098],[76.918362011,9.5095465259],[76.918867112,9.5112644799],[76.9177060716,9.5107587568],[76.9037313009,9.5212223785],[76.9058307387,9.5236759438],[76.9039219802,9.5251427444],[76.9045968682,9.5274498987],[76.9021311414,9.5272073104],[76.9034806663,9.5314683404],[76.9022281434,9.532443408],[76.9027014889,9.5370022828],[76.888224373,9.5384810702],[76.8885948842,9.5385002879]]]]}},{"type":"Feature","properties":{"code":"G06047","name":"Purapuzha","type":"Grama Panchayat","leading":"UDF","seats":{"LDF":1,"UDF":12,"NDA":1,"OTHERS":0}},"geometry":{"type":"MultiPolygon","coordinates":[[[[76.631319573,9.8869884046],[76.6372377823,9.8844412126],[76.6404616869,9.8855092096],[76.642230398,9.8833287371],[76.6568671861,9.8855713158],[76.6633475511,9.8815106999],[76.6649788431,9.8840660458],[76.6681881666,9.8844577886],[76.6698067342,9.8875299964],[76.6757801286,9.8845994317],[76.6819931514,9.8839029384],[76.6805779991,9.882182627],[76.6812634525,9.878833893],[76.6837763561,9.8761119957],[76.6757122838,9.868557082],[76.6772527057,9.8587876553],[76.6762675136,9.8568550528],[76.6711838312,9.8548927209],[76.6738810018,9.8503098838],[76.6684008176,9.8417538554],[76.6646900342,9.8381933172],[76.6607354215,9.8405265902],[76.6559937037,9.8407835558],[76.6498553881,9.8408659914],[76.6465687834,9.8387427965],[76.643263616,9.8418219439],[76.6355724442,9.8433955381],[76.6314950496,9.8484353069],[76.628247364,9.8486121048],[76.6266496775,9.8512849589],[76.6269265246,9.8557826094],[76.6295931106,9.8585746068],[76.6330389351,9.8586929833],[76.632665664,9.8618028563],[76.634584528,9.8622516346],[76.6349414979,9.8650907755],[76.6326856343,9.8654521947],[76.6324453768,9.8742903475],[76.637001608,9.8743081865],[76.6356627591,9.8849415045],[76.6312506554,9.8865315322],[76.631319573,9.8869884046]]]]}},{"type":"Feature","properties":{"code":"G06018","name":"Rajakkad","type":"Grama Panchayat","leading":"UDF","seats":{"LDF":3,"UDF":10,"NDA":0,"OTHERS":1}},"geometry":{"type":"MultiPolygon","coordinates":[[[[77.0977375882,9.9357390674],[77.0977375882,9.9357390674],[77.0977375882,9.9357390674]]]]}},{"type":"Feature","properties":{"code":"G06021","name":"Rajakumary","type":"Grama Panchayat","leading":"TIE","seats":{"LDF":7,"UDF":7,"NDA":0,"OTHERS":0}},"geometry":{"type":"MultiPolygon","coordinates":[[[[77.1473756481,9.9619825525],[77.1437873903,9.9576067312],[77.135320437,9.9602569187],[77.1311103851,9.9634750292],[77.1259247501,9.9630428405],[77.123042951,9.9698959292],[77.1204422814,9.9717484043],[77.1208848356,9.9741984014],[77.1145698423,9.9832759761],[77.1182703358,9.9886708728],[77.1159826331,9.9906683967],[77.110629436,9.9900253317],[77.1130310979,9.9904861314],[77.1101372062,9.9909400161],[77.1115520743,9.9954129072],[77.122660851,10.0000137075],[77.1291773461,9.9984506475],[77.1299552116,9.9970292429],[77.1481355702,10.0026845916],[77.154979946,10.0027856911],[77.1585915425,10.0088649697],[77.1530851379,10.0102705168],[77.1598428326,10.0126526805],[77.1625954605,10.0216849584],[77.1640866458,10.0209948198],[77.1672023697,10.0240929936],[77.1720206653,10.0207281229],[77.1776245648,10.0204461474],[77.1835485571,10.0158534885],[77.184971585,10.0132614214],[77.1839466762,10.0113731716],[77.1880351599,10.009095504],[77.1847731708,10.0061018798],[77.1836562387,10.0003725965],[77.1862387919,9.9984520207],[77.1883726613,9.9988328178],[77.1798657318,9.9885902638],[77.1858984815,9.9849514785],[77.1910724304,9.9721320069],[77.1955531118,9.9685341538],[77.197305312,9.9606508058],[77.1956711082,9.959523696],[77.1940559429,9.9614786966],[77.1850188014,9.9531275402],[77.1797973106,9.9556569794],[77.1793057927,9.9536795716],[77.1705021087,9.9540877711],[77.1653819777,9.9583534137],[77.1615250974,9.9558280065],[77.1524052252,9.9611938524],[77.1475852368,9.9621839408],[77.1473756481,9.9619825525]]]]}},{"type":"Feature","properties":{"code":"G06010","name":"Santhanpara","type":"Grama Panchayat","leading":"LDF","seats":{"LDF":11,"UDF":3,"NDA":0,"OTHERS":0}},"geometry":{"type":"MultiPolygon","coordinates":[[[[77.2238555311,9.9083911247],[77.2172561019,9.9147414827],[77.2153101899,9.9120667556],[77.2067019559,9.9166880326],[77.1921036379,9.9374776987],[77.186934495,9.9411337276],[77.1889511724,9.9568631679],[77.1942972905,9.9616066677],[77.1956711082,9.959523696],[77.197305312,9.9606508058],[77.1962836608,9.9626134893],[77.1973045739,9.9640526291],[77.1951328129,9.9692317669],[77.1910724304,9.9721320069],[77.1858984815,9.9849514785],[77.1798657318,9.9885902638],[77.1883726613,9.9988328178],[77.1862387919,9.9984520207],[77.1836562387,10.0003725965],[77.1847731708,10.0061018798],[77.1880351599,10.009095504],[77.1838030335,10.0117069497],[77.187640868,10.0156943876],[77.1856140504,10.0197985812],[77.1873670223,10.0215882757],[77.1921094469,10.0201547664],[77.1996346424,10.0229285392],[77.205274115,10.0157753265],[77.2169936591,10.0149463191],[77.2248991128,10.0188310762],[77.2337125706,10.0150794164],[77.2441984876,10.0183566836],[77.2513856249,10.0224660294],[77.2620105592,10.0215841954],[77.260026976,10.0184851529],[77.2573287537,10.0186186535],[77.2567302749,10.0139861773],[77.2543062573,10.013579843],[77.253511219,10.0115063358],[77.2654536597,10.0023078859],[77.2607926964,9.9950971984],[77.2606878684,9.9924343403],[77.2613741638,9.9904878671],[77.2667297979,9.9895273359],[77.2643319336,9.9863924479],[77.2682457539,9.9790915189],[77.272656721,9.9756103036],[77.2708279467,9.9702890221],[77.2721487435,9.9693151504],[77.2726575625,9.9625713765],[77.2679202452,9.9597620685],[77.2609141707,9.9516850045],[77.2468506572,9.9515411558],[77.2484609591,9.9472709691],[77.236632669,9.9354284349],[77.2348213844,9.9306633522],[77.2357718785,9.9264400646],[77.2321104732,9.9240497921],[77.2308273621,9.9211158692],[77.2307307651,9.9126774853],[77.2240249164,9.9086287378],[77.2238555311,9.9083911247]]]]}},{"type":"Feature","properties":{"code":"G06016","name":"Senapathy","type":"Grama Panchayat","leading":"LDF","seats":{"LDF":11,"UDF":3,"NDA":0,"OTHERS":0}},"geometry":{"type":"MultiPolygon","coordinates":[[[[77.1559355083,9.9270291418],[77.1559355083,9.9270291418],[77.1559355083,9.9270291418]]]]}},{"type":"Feature","properties":{"code":"G06020","name":"Udumbanchola","type":"Grama Panchayat","leading":"LDF","seats":{"LDF":11,"UDF":2,"NDA":0,"OTHERS":1}},"geometry":{"type":"MultiPolygon","coordinates":[[[[77.108231846,9.8922252844],[77.1042788692,9.8939999889],[77.1027380218,9.9001109331],[77.1010238903,9.9012213707],[77.1014777952,9.9052753705],[77.1051580017,9.9057485059],[77.1041051526,9.9093794258],[77.1069675137,9.9162021097],[77.1008210922,9.9243040567],[77.1055938441,9.9285182965],[77.1046770869,9.9338303397],[77.1073230324,9.9359779635],[77.1137113364,9.9335303307],[77.1169003027,9.9342898547],[77.1281244634,9.9295101984],[77.1342067368,9.9312584048],[77.1376832491,9.9284288561],[77.1441024865,9.9294047967],[77.1571856764,9.926962948],[77.1581351807,9.9255626018],[77.1623535414,9.9257539303],[77.1656345443,9.9246611554],[77.1690137585,9.9208746925],[77.172029105,9.9215074507],[77.1740689113,9.9197056389],[77.1763502292,9.9209291519],[77.1787759709,9.9160564945],[77.1831729579,9.9156275444],[77.1881807527,9.9102971882],[77.2042118787,9.9092316762],[77.2061914475,9.9125916844],[77.2099910564,9.914859863],[77.2153101899,9.9120667556],[77.2172561019,9.9147414827],[77.2222873624,9.9109738059],[77.2238555311,9.9083911247],[77.2228975902,9.9057171939],[77.2187011564,9.9041309377],[77.2182988792,9.902528491],[77.2212435614,9.8843165674],[77.2178706294,9.8842708844],[77.2156414691,9.8773296798],[77.2125553325,9.8775687406],[77.2169624122,9.8689804117],[77.2150611812,9.8682195595],[77.210590827,9.8710151654],[77.2047198636,9.8709601099],[77.2034135808,9.8635742934],[77.1985382811,9.8578010283],[77.1815470024,9.8629663355],[77.1782868894,9.8620863146],[77.1704462213,9.8639033562],[77.1612562257,9.861914004],[77.1569774446,9.8655556137],[77.147800361,9.8639106717],[77.1449447023,9.8663878503],[77.1302295538,9.8707352558],[77.1232704198,9.8745964496],[77.1125147548,9.8853632531],[77.1084687246,9.8919315462],[77.108231846,9.8922252844]]]]}},{"type":"Feature","properties":{"code":"G06023","name":"Udumbannoor","type":"Grama Panchayat","leading":"UDF","seats":{"LDF":1,"UDF":14,"NDA":0,"OTHERS":2}},"geometry":{"type":"MultiPolygon","coordinates":[[[[76.8223638872,9.865841965],[76.812896366,9.8685577159],[76.8049696238,9.8753431036],[76.7948549027,9.8786203968],[76.7932176049,9.8821637095],[76.7937064588,9.8860253612],[76.7920018192,9.8875940196],[76.7927656741,9.8899537791],[76.7981183578,9.8919136981],[76.7990498528,9.8950675708],[76.8012681139,9.8962971629],[76.8014544073,9.8996638929],[76.803815481,9.9005557178],[76.8055962711,9.9053443967],[76.808346381,9.9059852037],[76.8068506931,9.9094777915],[76.808305123,9.9107646269],[76.8094833127,9.9203205583],[76.8133396345,9.9201789609],[76.814525,9.92532],[76.823650584,9.94010007],[76.8239181069,9.9446619065],[76.8213102999,9.947631414],[76.8211805108,9.9510819385],[76.8239510239,9.9513075033],[76.8237745085,9.9558605405],[76.8250838364,9.9573879862],[76.8321534296,9.9533300493],[76.8341703753,9.9536499033],[76.8362311335,9.9569329593],[76.8381055188,9.9549322712],[76.8445426691,9.9530091937],[76.8538407316,9.9434366469],[76.8517625144,9.9408048562],[76.8499614423,9.9328983381],[76.8517838518,9.9308566223],[76.8488358691,9.9288256044],[76.851921425,9.9232868116],[76.8592589604,9.9200456648],[76.8614921123,9.9205306905],[76.8815214233,9.9109512143],[76.9051268923,9.9059615218],[76.9139253171,9.8937937324],[76.9184863121,9.8838476377],[76.9148494242,9.8727912269],[76.9020111865,9.8705363106],[76.8976349309,9.8604153593],[76.8909200975,9.8564306402],[76.8978161955,9.8444690819],[76.8904714351,9.8374669724],[76.8919906989,9.8334627044],[76.8911863375,9.8306916398],[76.8773960681,9.8290563689],[76.8677107789,9.8508642924],[76.8505595344,9.8596294654],[76.8440748637,9.8578939215],[76.8306933379,9.8612406075],[76.8227088387,9.8658416458],[76.8223638872,9.865841965]]]]}},{"type":"Feature","properties":{"code":"G06036","name":"Upputhara","type":"Grama Panchayat","leading":"TIE","seats":{"LDF":8,"UDF":8,"NDA":1,"OTHERS":1}},"geometry":{"type":"MultiPolygon","coordinates":[[[[76.9971281953,9.6616367379],[76.9990303674,9.6579939772],[76.9911937427,9.6586596155],[76.9719186572,9.6668537358],[76.9695692376,9.665372333],[76.9683278594,9.6676221397],[76.9646843776,9.6688360939],[76.9600094712,9.66935191],[76.9576574353,9.6678080638],[76.9472066558,9.6716182981],[76.9439168182,9.6763818689],[76.9391103978,9.6794809073],[76.9380917837,9.6783458828],[76.9336701971,9.6821067534],[76.9332476981,9.6849352988],[76.9376589246,9.6852584224],[76.9396963286,9.6876643537],[76.9374325298,9.6923548759],[76.9393866214,9.7015116812],[76.9378606419,9.7085697044],[76.9405982984,9.7103407755],[76.9365034181,9.7133857734],[76.9365522845,9.7157580601],[76.9415523911,9.7185189281],[76.9479388625,9.7270920665],[76.9494960757,9.7440873741],[76.9540577256,9.7542820419],[76.9579150635,9.7553669594],[76.9494518661,9.7581995913],[76.9326206358,9.7688496802],[76.9270268614,9.7755528522],[76.9250218326,9.7816549238],[76.9312770611,9.7863359134],[76.9313081644,9.7966950039],[76.9413500529,9.8056560128],[76.9554390614,9.833348262],[76.9644914786,9.8316645591],[76.9685097727,9.8406280633],[76.9719978604,9.8409611794],[76.9804103551,9.8348022081],[76.988315465,9.8253128995],[77.0041162476,9.8117980864],[77.0265096273,9.7959800974],[77.0319770768,9.7885583123],[77.0328867098,9.7852982312],[77.0303029659,9.7808972658],[77.0242030155,9.7749171789],[77.0209048754,9.7738066894],[77.0143900746,9.7658148001],[77.0145059848,9.7565584681],[77.011659774,9.7499583687],[77.0162918318,9.7342728954],[77.0146752943,9.7274606672],[77.0189765908,9.7256988911],[77.027717867,9.7169095539],[77.0313645923,9.715362486],[77.0283081714,9.7059861109],[77.0297759032,9.6990221787],[77.024241231,9.7004160022],[77.0214959869,9.698422542],[77.0265770496,9.690999758],[77.0260787143,9.683192959],[77.0289602538,9.6809006144],[77.0225326183,9.6741776759],[77.0233459264,9.6707300544],[77.0190216152,9.659801255],[77.0144703646,9.6591857123],[77.0070668036,9.6629199969],[76.9969189884,9.6619522334],[76.9971281953,9.6616367379]]]]}},{"type":"Feature","properties":{"code":"G06037","name":"Vandanmedu","type":"Grama Panchayat","leading":"UDF","seats":{"LDF":6,"UDF":9,"NDA":2,"OTHERS":3}},"geometry":{"type":"MultiPolygon","coordinates":[[[[77.1613562163,9.6796082822],[77.1613562163,9.6796082822],[77.1613562163,9.6796082822]]]]}},{"type":"Feature","properties":{"code":"G06053","name":"Vandiperiyar","type":"Grama Panchayat","leading":"LDF","seats":{"LDF":14,"UDF":8,"NDA":1,"OTHERS":1}},"geometry":{"type":"MultiPolygon","coordinates":[[[[77.0283129823,9.5057499573],[77.0281246928,9.5078892431],[77.0255483673,9.507823783],[77.0249561082,9.5105175222],[77.0481533963,9.5180987385],[77.0440309489,9.5198594233],[77.0389254728,9.5250838542],[77.0321084196,9.5372933486],[77.0329893019,9.5484889887],[77.0404398314,9.5499069064],[77.0423290722,9.5476021284],[77.0470547467,9.5576054522],[77.0506022081,9.5597091742],[77.0514378628,9.5639498408],[77.0556068636,9.5651598261],[77.0595946109,9.5698552587],[77.0697816539,9.5898388304],[77.0684224158,9.5917859699],[77.0686000027,9.5978559469],[77.065036698,9.6025685093],[77.0675877185,9.6040478496],[77.0694716103,9.6105314629],[77.066460156,9.6129015937],[77.0631571617,9.6115865894],[77.0606812729,9.6083377989],[77.0587749974,9.6111473414],[77.0550925632,9.6109089708],[77.050539437,9.6131066705],[77.0498552568,9.6164859581],[77.046766314,9.6171532371],[77.0449516631,9.6147532847],[77.0375782127,9.6125141443],[77.0344192105,9.6155381009],[77.0206194399,9.6120419177],[77.0132456008,9.6126996323],[77.0116973273,9.6184841597],[77.0043810456,9.6188688026],[77.001912554,9.6230431669],[76.991356615,9.6270258515],[77.0111090134,9.6292482661],[77.019188378,9.6338598343],[77.0204810711,9.6377664058],[77.0238605554,9.6407190564],[77.031336459,9.6427181246],[77.0356053416,9.6396926393],[77.0425739622,9.6418193722],[77.0449902747,9.6401708161],[77.0503491603,9.6400498991],[77.0523572426,9.6372300421],[77.050722264,9.6357830815],[77.051070365,9.6320681132],[77.0589748997,9.6384663511],[77.0612421598,9.6368435638],[77.0636828038,9.6381890324],[77.0665400632,9.6370754216],[77.0666783973,9.6354215269],[77.0724493325,9.6333653064],[77.0751905803,9.6245895388],[77.0780961464,9.6264105805],[77.0811787924,9.6210194205],[77.1027187232,9.6278821578],[77.1061776266,9.6257162041],[77.1075116099,9.6190516252],[77.1040009791,9.6187590173],[77.1051889175,9.6163029053],[77.11673233,9.62230657],[77.1206357358,9.6184050137],[77.1237159326,9.6179659063],[77.12070425,9.61350087],[77.1257909507,9.6085227521],[77.1234120683,9.6041426175],[77.1241451075,9.5962565169],[77.1223614401,9.5938041631],[77.1283799128,9.5886534929],[77.1364513819,9.5683785326],[77.1400324418,9.5652394743],[77.1409168268,9.5599701982],[77.1457517543,9.5584178007],[77.1530425104,9.559048291],[77.1505397767,9.5539789321],[77.1535923813,9.550278336],[77.148568712,9.5521498581],[77.148452223,9.5489809949],[77.1452933446,9.5472855997],[77.1455855019,9.5440931856],[77.1510779832,9.5450286805],[77.1461602828,9.5344340919],[77.1430124449,9.532516847],[77.1436685946,9.5298402798],[77.1374204305,9.5311289381],[77.1333926085,9.52958609],[77.1277779968,9.5300501161],[77.1181593054,9.5325115224],[77.1086113535,9.5244100326],[77.1056344765,9.5251416655],[77.0856185345,9.5108226125],[77.0635355057,9.5095004241],[77.0332416156,9.5029097785],[77.0306456444,9.5044057484],[77.0283129823,9.5057499573]]]]}},{"type":"Feature","properties":{"code":"G06022","name":"Vannappuram","type":"Grama Panchayat","leading":"UDF","seats":{"LDF":2,"UDF":14,"NDA":0,"OTHERS":3}},"geometry":{"type":"MultiPolygon","coordinates":[[[[76.7661243903,9.980943775],[76.7652886765,9.9841444012],[76.7605720749,9.9889541016],[76.7612357359,9.9901161332],[76.76446908,9.9889556083],[76.762337565,9.9904623303],[76.7653746498,9.9892983018],[76.7636424832,9.9910277847],[76.7644477764,9.9923286505],[76.7681096024,9.9915174557],[76.7704538576,9.9943018005],[76.7664376835,9.9971815065],[76.768936389,10.0008809998],[76.7657991109,10.0086775327],[76.7652923141,10.016485815],[76.7667701571,10.0195039486],[76.7790021931,10.0231496993],[76.7796901815,10.0320441457],[76.7851275306,10.0365301866],[76.7923505643,10.0330373388],[76.7952363913,10.0283329504],[76.7984693673,10.0292894085],[76.8074919671,10.0257988804],[76.8127453464,10.0204309938],[76.8244300352,10.01397201],[76.8359180386,10.0127049853],[76.8432139344,10.0081633685],[76.8571668987,10.0061271912],[76.8649693685,10.0004138025],[76.8682025202,10.0008870408],[76.8737549717,9.9969579928],[76.8778921974,9.9879353347],[76.8735540668,9.982739709],[76.8677304295,9.9820272811],[76.8625332065,9.9839070836],[76.8573669769,9.9829770273],[76.8589492653,9.981480944],[76.854633216,9.9701269144],[76.8590376684,9.9619356694],[76.8608331461,9.9627146408],[76.8631890312,9.9606763165],[76.8619532647,9.9563636835],[76.8551096961,9.9545911885],[76.853023938,9.9524912385],[76.8517647268,9.9551046577],[76.847874472,9.955482488],[76.8445426691,9.9530091937],[76.8381055188,9.9549322712],[76.8350442067,9.9579209079],[76.8189625492,9.9653084285],[76.8169134302,9.963719608],[76.8162912084,9.9512077853],[76.8133797893,9.9481512468],[76.8129816418,9.9522841755],[76.8093374588,9.9540951171],[76.8092914411,9.9557863554],[76.8048383675,9.9536777252],[76.803613624,9.9557452779],[76.7967416433,9.9562607684],[76.7969442285,9.9617004263],[76.7939288124,9.9632546328],[76.79308772,9.9675860012],[76.7840520975,9.9741472534],[76.7789290627,9.9753009049],[76.7775492055,9.979080006],[76.7664755468,9.9805236693],[76.7661243903,9.980943775]]]]}},{"type":"Feature","properties":{"code":"G06030","name":"Vathikudy","type":"Grama Panchayat","leading":"UDF","seats":{"LDF":2,"UDF":16,"NDA":0,"OTHERS":1}},"geometry":{"type":"MultiPolygon","coordinates":[[[[77.0341530098,9.8704318116],[77.0237669752,9.8760897387],[77.022075749,9.8788135133],[77.0164136633,9.8795364899],[77.013060196,9.8831721996],[77.0071629112,9.8840458696],[77.0038944192,9.8874941338],[76.9962419135,9.8901254016],[76.9948203066,9.8925954307],[76.9917605691,9.8936749698],[76.9904638744,9.8980661543],[76.9919705587,9.9000994951],[76.9906915763,9.9012697517],[76.9757839173,9.9080207829],[76.9721253709,9.9144444933],[76.9772088556,9.9208652947],[76.9781801202,9.9245800123],[76.9710525257,9.9305992994],[76.9721056403,9.9349732877],[76.9766880529,9.9400663594],[76.9839366795,9.933839962],[76.9832043034,9.9309797641],[76.9847560265,9.929185363],[76.9912271065,9.9282842434],[76.9964797911,9.9243191414],[77.0014852577,9.9236084595],[77.00500096,9.9248363018],[77.0351748979,9.9166156788],[77.0468265317,9.9118494968],[77.0502453756,9.9118458219],[77.0568354748,9.9070722669],[77.063973774,9.9057662393],[77.0752356164,9.8997504106],[77.0775980542,9.8993612871],[77.0791552133,9.9017565156],[77.0828027852,9.9001933492],[77.0845947967,9.8952880195],[77.0851322867,9.8843588946],[77.0908150277,9.8823404617],[77.0887891785,9.8799626671],[77.0931497682,9.86171399],[77.0844057174,9.8622517444],[77.0834754436,9.85818121],[77.079867278,9.8588520284],[77.0777431177,9.8541020159],[77.07526672,9.8526811111],[77.0686471369,9.8550396273],[77.0645578752,9.8584220999],[77.0623542274,9.8515118625],[77.0585758383,9.8509347488],[77.0531873032,9.8546356196],[77.0509904241,9.8597496832],[77.0458579235,9.8650222473],[77.0398550266,9.866771255],[77.0353361364,9.870357179],[77.0341530098,9.8704318116]]]]}},{"type":"Feature","properties":{"code":"G06009","name":"Vattavada","type":"Grama Panchayat","leading":"LDF","seats":{"LDF":9,"UDF":1,"NDA":4,"OTHERS":0}},"geometry":{"type":"MultiPolygon","coordinates":[[[[77.2097271636,10.1862007439],[77.2081753711,10.1956607988],[77.2106182607,10.2045953221],[77.2198422515,10.2241575668],[77.2235509641,10.2389991338],[77.2299801453,10.2444754356],[77.247413952,10.2508094687],[77.2566546462,10.2588125302],[77.2594509081,10.2297260803],[77.2643782375,10.2317431838],[77.2647043097,10.2342287098],[77.2684439811,10.2339278029],[77.2694007738,10.2364983991],[77.2716631971,10.2343995947],[77.2826399604,10.2351694231],[77.2858061047,10.2317872997],[77.2884652578,10.2312849111],[77.2953359199,10.217221582],[77.2937445712,10.2143087327],[77.2896349205,10.213728001],[77.287394259,10.2087140385],[77.283277776,10.207266231],[77.286076568,10.2036369126],[77.2837591163,10.1968445113],[77.2794252028,10.1945615989],[77.2753406222,10.1842231375],[77.2758342544,10.1751899839],[77.2746136154,10.1749517598],[77.2726200784,10.1628490081],[77.2737438026,10.1510143136],[77.2714632359,10.1412553084],[77.2744882154,10.1395793156],[77.2749544976,10.1305817461],[77.2723614796,10.1274430023],[77.2680694199,10.1265595511],[77.2667422812,10.1236952142],[77.2677429018,10.121123109],[77.2525773652,10.1243076295],[77.2489638102,10.1265647246],[77.2475922995,10.1296113331],[77.2437149984,10.1298084356],[77.2457080859,10.1488517576],[77.2432446897,10.1607799643],[77.2440498344,10.1639311479],[77.2392641325,10.1650033083],[77.2338290746,10.1723343785],[77.2321068454,10.1718360933],[77.2237281782,10.1785811216],[77.2170285391,10.1777974523],[77.2097821377,10.186066407],[77.2097271636,10.1862007439]]]]}},{"type":"Feature","properties":{"code":"G06033","name":"Vazhathope","type":"Grama Panchayat","leading":"UDF","seats":{"LDF":5,"UDF":10,"NDA":0,"OTHERS":0}},"geometry":{"type":"MultiPolygon","coordinates":[[[[76.9466786853,9.8180454268],[76.9446430357,9.8209735306],[76.9385540107,9.8240283582],[76.9330478606,9.834498633],[76.9281200953,9.8365563442],[76.9306386929,9.8400539908],[76.9287522919,9.842704895],[76.9305628737,9.8502178708],[76.9261149921,9.8599948151],[76.9144395181,9.866674659],[76.9148494242,9.8727912269],[76.9184863121,9.8838476377],[76.9120394575,9.8968721126],[76.9051268923,9.9059615218],[76.88864402,9.9095546611],[76.8995107888,9.9187231272],[76.9014626019,9.922877035],[76.9075617977,9.9273427722],[76.9166739351,9.926758753],[76.9249654866,9.9227174109],[76.9280323115,9.9232973535],[76.9320916464,9.9273714274],[76.9416546605,9.9147037078],[76.9462800431,9.915627613],[76.951419411,9.9133371115],[76.9553627356,9.9070769211],[76.9593931171,9.9080208222],[76.9636469856,9.9044561864],[76.9631009558,9.9019145417],[76.9668001013,9.9024645061],[76.9687101132,9.9003369551],[76.9701711253,9.9019310621],[76.9736886746,9.9008482679],[76.976093124,9.8967165659],[76.9773097803,9.8922227005],[76.9738019129,9.8916472159],[76.97407544,9.8876250832],[76.9695639817,9.8865256791],[76.9723774012,9.8807884043],[76.9679859754,9.8781593902],[76.9663825313,9.8688600843],[76.9671258779,9.8653162788],[76.9706431656,9.8609403265],[76.9708366587,9.8543534125],[76.9792288489,9.8496740127],[76.979350776,9.8448052119],[76.9734419603,9.8420427458],[76.9729592814,9.8401273616],[76.9685097727,9.8406280633],[76.9644914786,9.8316645591],[76.9554390614,9.833348262],[76.9493684397,9.8205106556],[76.9466786853,9.8180454268]]]]}},{"type":"Feature","properties":{"code":"G06004","name":"Vellathooval","type":"Grama Panchayat","leading":"UDF","seats":{"LDF":4,"UDF":10,"NDA":0,"OTHERS":4}},"geometry":{"type":"MultiPolygon","coordinates":[[[[76.9999422224,9.9777062937],[76.9999422224,9.9777062937],[76.9999422224,9.9777062937]]]]}},{"type":"Feature","properties":{"code":"G06026","name":"Velliyamattom","type":"Grama Panchayat","leading":"UDF","seats":{"LDF":2,"UDF":11,"NDA":1,"OTHERS":2}},"geometry":{"type":"MultiPolygon","coordinates":[[[[76.8388822691,9.8225273997],[76.8388822691,9.8225273997],[76.8388822691,9.8225273997]],[[76.80359448649206,9.860601400884129],[76.80359448649206,9.860601400884129],[76.80359448649206,9.860601400884129]]]]}},{"type":"Feature","properties":{"code":"M06065","name":"Kattappana","type":"Municipality","leading":"UDF","seats":{"LDF":12,"UDF":20,"NDA":0,"OTHERS":3}},"geometry":{"type":"MultiPolygon","coordinates":[[[[77.1064614822,9.6995099653],[77.1030764197,9.7011180854],[77.0964933797,9.6990186888],[77.0935788184,9.6999764696],[77.0884736501,9.7126459422],[77.0908518235,9.7174657014],[77.090047179,9.7254688879],[77.0856126651,9.7289359239],[77.0889421371,9.7364463155],[77.0885713324,9.738960131],[77.0908807537,9.741307423],[77.0915626167,9.7486026802],[77.0942441642,9.7522881501],[77.0924088705,9.7582875126],[77.085296235,9.7649259835],[77.0779129427,9.7763451397],[77.0619390944,9.7895637135],[77.0555611181,9.7976405864],[77.0526913793,9.7969596324],[77.0511120897,9.799926068],[77.0438804656,9.803164835],[77.044679945,9.8048695289],[77.052858615,9.8080771237],[77.0709553213,9.7961852577],[77.0776291875,9.7945710304],[77.0786504732,9.7927498483],[77.0816827522,9.7932130645],[77.0913488846,9.7877836255],[77.0951110128,9.7887840613],[77.1020109509,9.7834234978],[77.1055529239,9.7836910231],[77.1079970961,9.7860726977],[77.1139826436,9.7800416794],[77.1221331343,9.7864862484],[77.1263759215,9.7838706267],[77.1386636564,9.7816685128],[77.1414723942,9.7769126975],[77.1399453047,9.7730499879],[77.1455102624,9.7742100323],[77.1470906126,9.7773712507],[77.1478136552,9.7759523492],[77.1517596287,9.7758369097],[77.1520816797,9.7733942967],[77.1492821566,9.7744501622],[77.1515454147,9.7721834437],[77.1547924678,9.7712309434],[77.1558153596,9.7727722409],[77.1567783464,9.7712796305],[77.1537245959,9.7629847307],[77.1551567861,9.7571855536],[77.1514269585,9.7528694653],[77.1524973384,9.7450548159],[77.1499707916,9.744093925],[77.1487427769,9.7388637625],[77.1466748737,9.7370005038],[77.1395837184,9.7354473048],[77.1378267926,9.7290464314],[77.1337022011,9.7271130255],[77.1307374966,9.7290551132],[77.1207963277,9.7202606921],[77.1199490895,9.7168088885],[77.1107986691,9.7060590931],[77.1104271631,9.7030511681],[77.113412106,9.7035092637],[77.1160375356,9.6980307148],[77.1117162221,9.6919710665],[77.1063667576,9.6923271859],[77.1065643351,9.6994539099],[77.1064614822,9.6995099653]]]]}},{"type":"Feature","properties":{"code":"M06020","name":"Thodupuzha","type":"Municipality","leading":"UDF","seats":{"LDF":3,"UDF":19,"NDA":9,"OTHERS":7}},"geometry":{"type":"MultiPolygon","coordinates":[[[[76.7036587845,9.8756193104],[76.7010028929,9.8758490355],[76.7003217937,9.8745567391],[76.7001796535,9.8698826598],[76.704196359,9.8672112971],[76.7006478954,9.862979927],[76.6976369531,9.8638946832],[76.6937682507,9.870954744],[76.6873505755,9.8718078202],[76.6815064241,9.8783210592],[76.6805800166,9.8819035225],[76.6819931514,9.8839029384],[76.6816971726,9.8931534953],[76.6856398096,9.8920629416],[76.6908514078,9.8938493241],[76.6912278924,9.907871688],[76.6939148786,9.9076045297],[76.6971973815,9.9097020295],[76.6959342479,9.9170586093],[76.7055324804,9.9166783241],[76.7084312155,9.9217732318],[76.7120477789,9.9205493026],[76.7137173751,9.9171208707],[76.719774682,9.9166233583],[76.7272761049,9.9270333807],[76.728710647,9.9266548596],[76.7292572283,9.9293391851],[76.7306628709,9.9293239654],[76.7304380853,9.9358084831],[76.7384634858,9.9367305399],[76.7396314484,9.9432171205],[76.7458104221,9.9396715032],[76.7428072404,9.9344296258],[76.7436197797,9.9302783679],[76.7506661587,9.9257664211],[76.7494225793,9.9228949237],[76.7523122987,9.9185586775],[76.7533545242,9.913188365],[76.7498982633,9.9135848716],[76.7425604421,9.91022863],[76.7408005168,9.9126728819],[76.7392609545,9.9111650379],[76.7388229413,9.9084660012],[76.7371151451,9.9076736019],[76.7426159959,9.8951786701],[76.7367250283,9.8902420861],[76.7357865934,9.8914879087],[76.7310612108,9.8906315176],[76.7316849884,9.8862909981],[76.7283789708,9.8856334524],[76.7304010019,9.8808411849],[76.7289305562,9.8773042255],[76.7221436449,9.8779200054],[76.7260415245,9.8688596656],[76.7233443089,9.8694120347],[76.7233481292,9.8682469566],[76.7207696251,9.870360723],[76.7213544204,9.8727439248],[76.7050420185,9.8845799965],[76.702927806,9.8825827734],[76.7067610511,9.8784803361],[76.7040091392,9.8763614205],[76.7036587845,9.8756193104]]]]}}]}
