{"type":"FeatureCollection","features":[{"type":"Feature","properties":{"code":"G14023","name":"Ajanur","type":"Grama Panchayat","leading":"LDF","seats":{"LDF":12,"UDF":8,"NDA":4,"OTHERS":0}},"geometry":{"type":"MultiPolygon","coordinates":[[[[75.0814578223,12.327304088],[75.0814578223,12.327304088],[75.0814578223,12.327304088]]]]}},{"type":"Feature","properties":{"code":"G14016","name":"Badiadka","type":"Grama Panchayat","leading":"TIE","seats":{"LDF":1,"UDF":10,"NDA":10,"OTHERS":0}},"geometry":{"type":"MultiPolygon","coordinates":[[[[75.0534498547,12.5453454292],[75.0534498547,12.5453454292],[75.0534498547,12.5453454292]]]]}},{"type":"Feature","properties":{"code":"G14029","name":"Balal","type":"Grama Panchayat","leading":"UDF","seats":{"LDF":2,"UDF":14,"NDA":0,"OTHERS":1}},"geometry":{"type":"MultiPolygon","coordinates":[[[[75.2773080382,12.3580207922],[75.2654553582,12.360237469],[75.2606463854,12.3695334879],[75.266728483,12.3758348111],[75.2604478461,12.3824066792],[75.2542662808,12.3825700449],[75.2523931461,12.3864834318],[75.2492380598,12.388589257],[75.2465378813,12.3887279411],[75.2457462266,12.3862989713],[75.240918541,12.3840830027],[75.2422886245,12.3771715713],[75.2405590568,12.3723287925],[75.2361912718,12.3703561512],[75.2301356575,12.3639374135],[75.2248339902,12.362320915],[75.2221577823,12.3749588875],[75.2195993795,12.3755045912],[75.2271390313,12.3886740496],[75.2239419596,12.3869405717],[75.2196828024,12.3887049866],[75.226614125,12.3918946068],[75.2251931996,12.3944618247],[75.2220613122,12.395375238],[75.2235753427,12.3986295593],[75.2248215468,12.3995708063],[75.2271240285,12.3959670628],[75.2347162578,12.3981399642],[75.239912029,12.3952657275],[75.2447262632,12.3966335428],[75.2468638718,12.3915104251],[75.2528648434,12.3915270025],[75.2712762355,12.4052444684],[75.2811719968,12.40821394],[75.2923578887,12.4075159583],[75.2956258511,12.4033291072],[75.3020091797,12.4031026845],[75.3043359421,12.4051191339],[75.3025501695,12.4108221217],[75.2998392381,12.4122005954],[75.3039305126,12.4193890916],[75.3154074777,12.4195279155],[75.3242051697,12.4135124922],[75.3325705026,12.4134063845],[75.3346647783,12.4118212277],[75.3394681231,12.4138349365],[75.3398641014,12.4156434154],[75.3469184402,12.4149020189],[75.3513519719,12.419000857],[75.3546526922,12.4158975369],[75.3671553967,12.4127133894],[75.3661149482,12.411770809],[75.3715052307,12.4078231392],[75.3725908671,12.4002554015],[75.378437236,12.3973464303],[75.3793058898,12.3923222606],[75.383935972,12.390912186],[75.3865030544,12.3923627765],[75.3922850401,12.3899826087],[75.3985728662,12.3814309903],[75.4002949743,12.3806777276],[75.4015286935,12.3825155677],[75.4055436311,12.3790504692],[75.4131171098,12.380299022],[75.4218598897,12.3730693527],[75.4195228093,12.3571136164],[75.4158438363,12.3504948007],[75.4105245423,12.3480857307],[75.4110588809,12.3454449357],[75.4065021622,12.3434014567],[75.3881349016,12.3451962233],[75.3857870315,12.3464631389],[75.3857545934,12.3491144689],[75.3800926433,12.3543404072],[75.371921395,12.3657399092],[75.3663385317,12.3656973157],[75.3636972548,12.3623983268],[75.3606709007,12.3648279612],[75.3588476332,12.3626205746],[75.359033492,12.3584615947],[75.354753211,12.361933773],[75.3550948493,12.3643863552],[75.3511188447,12.3624109126],[75.3515562228,12.3652342849],[75.3479725512,12.3689063027],[75.3458678532,12.3673979374],[75.3430233577,12.3679609131],[75.3429489619,12.3656892324],[75.3412266489,12.3648606753],[75.3304392047,12.3635972078],[75.3365808488,12.3721897539],[75.3351650662,12.3781992562],[75.3309003575,12.376061554],[75.3246781273,12.3754944111],[75.3148643266,12.361317153],[75.3135520227,12.3625011963],[75.2948316972,12.3631981436],[75.2780151704,12.3579923796],[75.2773080382,12.3580207922]]]]}},{"type":"Feature","properties":{"code":"G14006","name":"Bedadka","type":"Grama Panchayat","leading":"LDF","seats":{"LDF":17,"UDF":2,"NDA":0,"OTHERS":0}},"geometry":{"type":"MultiPolygon","coordinates":[[[[75.1641694547,12.4271138831],[75.1641694547,12.4271138831],[75.1641694547,12.4271138831]]]]}},{"type":"Feature","properties":{"code":"G14002","name":"Bellur","type":"Grama Panchayat","leading":"TIE","seats":{"LDF":2,"UDF":0,"NDA":6,"OTHERS":6}},"geometry":{"type":"MultiPolygon","coordinates":[[[[75.175816831,12.5770806148],[75.175816831,12.5770806148],[75.175816831,12.5770806148]]]]}},{"type":"Feature","properties":{"code":"G14019","name":"Chemnad","type":"Grama Panchayat","leading":"UDF","seats":{"LDF":4,"UDF":18,"NDA":1,"OTHERS":1}},"geometry":{"type":"MultiPolygon","coordinates":[[[[75.003206426,12.4431859827],[74.9983007972,12.4499079313],[74.9905275232,12.4683182912],[74.9981842515,12.4696260328],[74.9989298532,12.4736773501],[75.0007888835,12.473100428],[75.003198077,12.478036721],[74.99795679,12.4938984301],[74.9995580972,12.5029877659],[75.001328894,12.5051148161],[75.0049814961,12.5048877631],[75.0080577606,12.5023970857],[75.0135799112,12.5023123145],[75.0266417748,12.5069152417],[75.0343252451,12.4938514609],[75.0376598507,12.4920889118],[75.0481221875,12.4947443307],[75.0616811814,12.4934189006],[75.0675713521,12.4957067219],[75.0707957587,12.495278763],[75.0754479278,12.4915021473],[75.0753395272,12.4855636284],[75.0809448466,12.4774112481],[75.0793752463,12.4740460706],[75.0856884436,12.4728428664],[75.0809300819,12.4697519169],[75.0763834531,12.4631285695],[75.0708826231,12.4588660416],[75.0600936104,12.4540059304],[75.047614139,12.4631683683],[75.0450027454,12.4620368522],[75.0392329454,12.4673742075],[75.0300128889,12.4692680044],[75.026341874,12.474578687],[75.023330467,12.4698063178],[75.0215978611,12.4703234722],[75.0196323581,12.4643979949],[75.0246776453,12.4627903635],[75.0314769667,12.4532704178],[75.0293759537,12.4521614925],[75.0250700123,12.4448373469],[75.0240891625,12.4457464727],[75.0207303751,12.4428743067],[75.0141176751,12.4445913968],[75.012091304,12.4478650807],[75.0098339904,12.4459837075],[75.0049260538,12.445315039],[75.0038336315,12.4434323552],[75.003206426,12.4431859827]]]]}},{"type":"Feature","properties":{"code":"G14020","name":"Chengala","type":"Grama Panchayat","leading":"UDF","seats":{"LDF":4,"UDF":19,"NDA":0,"OTHERS":1}},"geometry":{"type":"MultiPolygon","coordinates":[[[[75.0450366649,12.493882125],[75.0450366649,12.493882125],[75.0450366649,12.493882125]]]]}},{"type":"Feature","properties":{"code":"G14034","name":"Cheruvathur","type":"Grama Panchayat","leading":"LDF","seats":{"LDF":13,"UDF":5,"NDA":0,"OTHERS":0}},"geometry":{"type":"MultiPolygon","coordinates":[[[[75.1434172245,12.2001361544],[75.1394271937,12.2002955356],[75.1371977234,12.1980600554],[75.1343584937,12.1979490156],[75.1329209018,12.1999817348],[75.1268222241,12.2013746404],[75.1257650202,12.2060519528],[75.1220654722,12.2053345705],[75.1212584895,12.2093207197],[75.117241582,12.2153674125],[75.116272103,12.2220366062],[75.117609982,12.2278900444],[75.1233481496,12.2347273639],[75.1354624783,12.2324000526],[75.1457843634,12.2376375283],[75.1504403423,12.2373492363],[75.1601368662,12.2399064942],[75.1642205877,12.2324594518],[75.1742056738,12.2355975537],[75.1763138554,12.234281003],[75.176454943,12.2331422672],[75.1742681885,12.2334089908],[75.1740921645,12.2305099514],[75.1763693794,12.2255089911],[75.1664961344,12.2164089717],[75.1642258528,12.2127215357],[75.1652768924,12.2102722119],[75.1581707784,12.207376272],[75.1540868987,12.2084960003],[75.1517037276,12.2072757494],[75.1490418469,12.2017923306],[75.146838876,12.2018537465],[75.1451378477,12.1988203571],[75.1435696156,12.2001048088],[75.1434172245,12.2001361544]]]]}},{"type":"Feature","properties":{"code":"G14005","name":"Delampady","type":"Grama Panchayat","leading":"TIE","seats":{"LDF":5,"UDF":4,"NDA":5,"OTHERS":3}},"geometry":{"type":"MultiPolygon","coordinates":[[[[75.2134684747,12.506953834],[75.2059378617,12.506832104],[75.1996938034,12.5099239759],[75.1987871679,12.5083138132],[75.193904748,12.5072816767],[75.1884793908,12.5088053105],[75.1736418714,12.5054982438],[75.1714174891,12.5108041607],[75.1710649606,12.5179200904],[75.1746008068,12.5304576342],[75.1790329022,12.5332151377],[75.1881765202,12.5323871854],[75.1858959151,12.5379951678],[75.1913374284,12.5491971188],[75.203504791,12.5455730543],[75.2087914653,12.5546193063],[75.2139638031,12.5542939097],[75.2189478251,12.5601016721],[75.2160140819,12.5643684694],[75.2172577249,12.5677269128],[75.2235378174,12.5699236257],[75.2272908125,12.5683996089],[75.2377015401,12.5688795049],[75.2382503856,12.5749088133],[75.2369914524,12.5761492291],[75.2390201663,12.5776762055],[75.2390757361,12.5806825481],[75.2415285977,12.5796376801],[75.248082768,12.5844539772],[75.2510344981,12.5847956253],[75.2565511772,12.5960934102],[75.2600325199,12.5961211304],[75.2627223355,12.5983431732],[75.2639930986,12.6036163144],[75.2666200967,12.6069236752],[75.2650826265,12.610814105],[75.268055203,12.6142091229],[75.2725265269,12.6153050205],[75.2732457253,12.6174199869],[75.2758191156,12.618304008],[75.281539723,12.6156565851],[75.2852011573,12.6107326183],[75.2882851464,12.6106175579],[75.290986862,12.6051759899],[75.2903670155,12.6023560801],[75.3013874468,12.6049141795],[75.3052701235,12.6009452641],[75.3109360558,12.5895399673],[75.314776474,12.59109988],[75.3243927487,12.5902545325],[75.3273451993,12.5916907135],[75.3276256902,12.5799395951],[75.3192462915,12.576656868],[75.3163923151,12.5715139503],[75.312785387,12.5727925687],[75.3121311709,12.5749548857],[75.3080265995,12.5778526765],[75.2904456055,12.5823622118],[75.2849803828,12.5689759181],[75.2793538138,12.5715259727],[75.2728852682,12.5689703523],[75.2701082622,12.5586029837],[75.2725573212,12.5526213105],[75.2705568566,12.548317963],[75.27244472,12.5456837823],[75.2711294652,12.5433284981],[75.2735535079,12.53929435],[75.2735320984,12.5345150684],[75.2783204889,12.5310670487],[75.2817171978,12.5163738303],[75.2809161359,12.5133516938],[75.2698651367,12.512276024],[75.2689262823,12.5142618735],[75.2605620759,12.5159872993],[75.2498811781,12.5112772726],[75.2416636387,12.5095275674],[75.2372417024,12.5061576378],[75.2314033169,12.5056337793],[75.2254564392,12.5085063245],[75.2136424865,12.5069936427],[75.2134684747,12.506953834]]]]}},{"type":"Feature","properties":{"code":"G14032","name":"East Eleri","type":"Grama Panchayat","leading":"UDF","seats":{"LDF":2,"UDF":11,"NDA":0,"OTHERS":5}},"geometry":{"type":"MultiPolygon","coordinates":[[[[75.3208692516,12.2739947468],[75.3190391184,12.281277222],[75.3193397989,12.2846807528],[75.3218189488,12.2873219733],[75.3381100815,12.2913079404],[75.337519874,12.2945953306],[75.3318664588,12.2972035498],[75.3326563241,12.3038808999],[75.3237436656,12.3096585819],[75.3237590744,12.3194644688],[75.3291800963,12.3212000903],[75.3360137613,12.3210940101],[75.3326787137,12.3265557244],[75.3343797967,12.3279228522],[75.3507917843,12.3284733413],[75.3579499108,12.3351876307],[75.3638443449,12.3382354485],[75.3723207509,12.335640669],[75.3729331801,12.3376645229],[75.3783227744,12.3391955148],[75.3897711236,12.340058048],[75.3901906575,12.3451157525],[75.4065021622,12.3434014567],[75.4126125387,12.3461929487],[75.4169465875,12.3384627611],[75.4177599679,12.3284422936],[75.4195296895,12.3280911086],[75.4214714186,12.3234137175],[75.4214529573,12.3187171483],[75.4247342201,12.3131312754],[75.4322943939,12.3102231729],[75.4319532749,12.3085030802],[75.4274022821,12.3070458469],[75.4280539604,12.304201624],[75.4232426574,12.3025900555],[75.424643784,12.2999010452],[75.4210996356,12.2989997972],[75.4155467446,12.2927725803],[75.4096657816,12.2946152924],[75.4061008444,12.2930472316],[75.3964475726,12.2947023782],[75.3946199537,12.2910813637],[75.3921471729,12.2899885976],[75.390138336,12.292415236],[75.3911486029,12.2966712488],[75.3896305399,12.2972677987],[75.3857552509,12.2924494636],[75.3868021799,12.2869283613],[75.3744857527,12.2825829181],[75.3689390008,12.2845582975],[75.3640163714,12.2756121609],[75.3595409835,12.2746961971],[75.345840566,12.2662260005],[75.3391593641,12.2690258224],[75.3278584194,12.2655225983],[75.3267412692,12.2701023292],[75.3210020819,12.2730820032],[75.3208692516,12.2739947468]]]]}},{"type":"Feature","properties":{"code":"G14014","name":"Enmakaje","type":"Grama Panchayat","leading":"UDF","seats":{"LDF":4,"UDF":8,"NDA":6,"OTHERS":0}},"geometry":{"type":"MultiPolygon","coordinates":[[[[75.0921352966,12.6257277185],[75.0897798268,12.6299205129],[75.0776927054,12.6276616136],[75.0593499859,12.619268885],[75.0575633086,12.6209518839],[75.0572779561,12.6258690788],[75.0471089247,12.6233981247],[75.0389710667,12.6249695382],[75.0388573697,12.6284760153],[75.0267162703,12.6376062665],[75.0293825823,12.6405182008],[75.0487408177,12.6517795836],[75.0557981263,12.650982974],[75.0564727332,12.6543849927],[75.0617649798,12.659925798],[75.0618486974,12.6635195677],[75.0642219054,12.665236619],[75.0661514579,12.6637400568],[75.0695132223,12.6643059503],[75.0738255129,12.6721281583],[75.0798027474,12.6711610269],[75.086995513,12.6761886119],[75.0851192458,12.6834522538],[75.0852826692,12.6912124466],[75.0830706998,12.693480104],[75.0847318411,12.6953898581],[75.0804359618,12.6989887158],[75.0850037935,12.7029190252],[75.0844435627,12.7051186442],[75.0922769214,12.7001413567],[75.0959779373,12.7007922281],[75.1054643183,12.6975720688],[75.1072758096,12.691529497],[75.110755177,12.6907566166],[75.1107269241,12.6881620424],[75.1136527235,12.6842345048],[75.111829872,12.6814277015],[75.1181615098,12.6812170626],[75.1225359055,12.6789013606],[75.1246406564,12.6812406755],[75.127716735,12.6768674287],[75.1327906802,12.6752303329],[75.1334059364,12.6778618001],[75.1376093395,12.6761018788],[75.1390842555,12.6798293582],[75.14204525,12.6775406731],[75.1442827432,12.6785102412],[75.1456208773,12.6815124302],[75.1500792708,12.6831967469],[75.1519101748,12.6825556646],[75.1489346905,12.6752452023],[75.1498475405,12.6732969437],[75.1620725506,12.671350608],[75.1524470862,12.6570227526],[75.1501995983,12.6494487977],[75.1387106049,12.6434731615],[75.142952005,12.6384185669],[75.1436693834,12.6396929508],[75.1455567178,12.6389514891],[75.1486345112,12.6335243278],[75.1436455915,12.6334289381],[75.1462136719,12.6264279636],[75.150736127,12.6245316951],[75.1498842169,12.6227525468],[75.1513443574,12.6202555379],[75.1543323436,12.6197635023],[75.1556325158,12.6211343956],[75.152445277,12.6050913638],[75.14820005,12.6053489335],[75.1399168896,12.6019401327],[75.1317786553,12.6037339852],[75.1260015502,12.615965668],[75.1113974994,12.6160174634],[75.111305166,12.6216760304],[75.1090767117,12.6224432679],[75.1082744344,12.6276365362],[75.1053240328,12.6289919183],[75.0945571492,12.6258561069],[75.0921352966,12.6257277185]]]]}},{"type":"Feature","properties":{"code":"G14027","name":"Kallar","type":"Grama Panchayat","leading":"UDF","seats":{"LDF":1,"UDF":12,"NDA":1,"OTHERS":1}},"geometry":{"type":"MultiPolygon","coordinates":[[[[75.2271240285,12.3959670628],[75.2271240285,12.3959670628],[75.2271240285,12.3959670628]]]]}},{"type":"Feature","properties":{"code":"G14033","name":"Kayyur -  Cheemeni","type":"Grama Panchayat","leading":"LDF","seats":{"LDF":16,"UDF":1,"NDA":0,"OTHERS":0}},"geometry":{"type":"MultiPolygon","coordinates":[[[[75.1832252974,12.2217576395],[75.1777974662,12.2202492207],[75.1652768924,12.2102722119],[75.1642258528,12.2127215357],[75.1709752261,12.2215673645],[75.1763693794,12.2255089911],[75.1740921645,12.2305099514],[75.1742681885,12.2334089908],[75.176454943,12.2331422672],[75.1763138554,12.234281003],[75.1742056738,12.2355975537],[75.1642205877,12.2324594518],[75.1601368662,12.2399064942],[75.1634332189,12.244886213],[75.1656727018,12.2566159043],[75.1723004585,12.2689966321],[75.1840339536,12.2736212934],[75.1976048412,12.2755494043],[75.2057592335,12.2806325803],[75.2170470241,12.2745959889],[75.2220162716,12.2805084212],[75.2238723922,12.2797575886],[75.2257410048,12.2754400386],[75.223352194,12.2699908396],[75.2238824291,12.2678211784],[75.2266833402,12.2664204989],[75.2364206198,12.2670441142],[75.2436045926,12.2714605761],[75.2522660623,12.2694168453],[75.2570819279,12.2774372728],[75.2640242845,12.2809979405],[75.2668181151,12.2777176097],[75.2735522458,12.2787560008],[75.2736833181,12.2709437371],[75.2783338163,12.2669058204],[75.2863957001,12.2668590483],[75.2874693962,12.2656489072],[75.2878794942,12.2598460456],[75.2860927855,12.2581492224],[75.2862411414,12.2551157494],[75.2882663869,12.2530542093],[75.2890579994,12.2465064735],[75.2913306931,12.2433224493],[75.2907630845,12.2366620168],[75.2878846101,12.2333603436],[75.2761604144,12.232036036],[75.2708500882,12.2277589617],[75.2648272211,12.2257197325],[75.2619152127,12.2262844086],[75.2586461149,12.2232237544],[75.2455690563,12.2199749405],[75.2372473869,12.219351775],[75.2322528483,12.2237607067],[75.2289249054,12.2213046132],[75.2268849752,12.2230139513],[75.2263884592,12.2212707952],[75.2221797048,12.2197561357],[75.2164431182,12.2266920334],[75.2119914324,12.227008949],[75.2044766747,12.2233501617],[75.2004942759,12.2262475895],[75.1975547691,12.2244213421],[75.1891132061,12.2247408908],[75.1846833754,12.2224917129],[75.1832252974,12.2217576395]]]]}},{"type":"Feature","properties":{"code":"G14030","name":"Kinanoor - Karindalam","type":"Grama Panchayat","leading":"LDF","seats":{"LDF":14,"UDF":5,"NDA":0,"OTHERS":0}},"geometry":{"type":"MultiPolygon","coordinates":[[[[75.1726361877,12.2749411948],[75.1726361877,12.2749411948],[75.1726361877,12.2749411948]]]]}},{"type":"Feature","properties":{"code":"G14026","name":"Kodom -Belur","type":"Grama Panchayat","leading":"LDF","seats":{"LDF":15,"UDF":4,"NDA":1,"OTHERS":1}},"geometry":{"type":"MultiPolygon","coordinates":[[[[75.186493195,12.3306225998],[75.186493195,12.3306225998],[75.186493195,12.3306225998]]]]}},{"type":"Feature","properties":{"code":"G14001","name":"Kumbadaje","type":"Grama Panchayat","leading":"NDA","seats":{"LDF":1,"UDF":5,"NDA":7,"OTHERS":1}},"geometry":{"type":"MultiPolygon","coordinates":[[[[75.115411844,12.55744195],[75.115411844,12.55744195],[75.115411844,12.55744195]]]]}},{"type":"Feature","properties":{"code":"G14015","name":"Kumbla","type":"Grama Panchayat","leading":"UDF","seats":{"LDF":3,"UDF":15,"NDA":5,"OTHERS":1}},"geometry":{"type":"MultiPolygon","coordinates":[[[[74.955503149,12.5596929759],[74.955503149,12.5596929759],[74.955503149,12.5596929759]]]]}},{"type":"Feature","properties":{"code":"G14007","name":"Kuttikkol","type":"Grama Panchayat","leading":"LDF","seats":{"LDF":10,"UDF":5,"NDA":2,"OTHERS":0}},"geometry":{"type":"MultiPolygon","coordinates":[[[[75.225016412,12.4681080845],[75.2202816949,12.459414971],[75.2153640403,12.4654039523],[75.2123539053,12.4625135926],[75.2047185694,12.4627139368],[75.2023015417,12.4654375678],[75.1995127021,12.4654456822],[75.1965260984,12.4684085425],[75.1914094895,12.4701986042],[75.1921729542,12.4766646111],[75.188788501,12.4806586655],[75.1887558976,12.4839660709],[75.185899193,12.486378794],[75.1869505129,12.4918730148],[75.183018631,12.4978931919],[75.1841415897,12.501213028],[75.1793695764,12.506446969],[75.1821567828,12.5065959554],[75.1825574063,12.5079617387],[75.1888917175,12.5087996118],[75.1934757746,12.5072170692],[75.2001135367,12.5099369781],[75.2095567051,12.5062403451],[75.2254564392,12.5085063245],[75.2314033169,12.5056337793],[75.2372417024,12.5061576378],[75.2416636387,12.5095275674],[75.2498811781,12.5112772726],[75.2605620759,12.5159872993],[75.2689262823,12.5142618735],[75.2698651367,12.512276024],[75.2756853044,12.5132037646],[75.2768010749,12.5120330838],[75.2809161359,12.5133516938],[75.2816470133,12.5153842968],[75.2802894721,12.5253305358],[75.2914000152,12.526802817],[75.2955274756,12.5252564943],[75.2965312217,12.5231937629],[75.3038778363,12.5235161725],[75.3038254277,12.5041218963],[75.3150544658,12.5028389475],[75.313951102,12.4995620206],[75.316039252,12.4968098171],[75.3069688341,12.4958211111],[75.3065780086,12.4942138713],[75.3040697874,12.4936274756],[75.3027871926,12.4894711693],[75.2970407928,12.4849028408],[75.2924898001,12.4690915985],[75.2796651295,12.470638287],[75.2720833269,12.4626867688],[75.273993801,12.4596738171],[75.2714057124,12.4580460088],[75.2647112657,12.4582732064],[75.2641868041,12.4643393728],[75.2601182821,12.4651192083],[75.2568745437,12.4647212084],[75.2546084662,12.4595098937],[75.2571750913,12.4586211978],[75.2605260381,12.4602765758],[75.2604362327,12.4583234196],[75.2503501391,12.4598795018],[75.2494495888,12.4615205137],[75.2470875308,12.4602067779],[75.2485739578,12.4649051335],[75.2475894159,12.4681051795],[75.2445422882,12.4666211612],[75.2436260507,12.4633066039],[75.2413442176,12.4622455218],[75.238117028,12.4656035978],[75.2345570881,12.4643373036],[75.2362466538,12.4678685341],[75.232893365,12.469385619],[75.2342165197,12.4737312407],[75.231551185,12.4720722875],[75.2317593094,12.4700241611],[75.2302030239,12.4713007407],[75.2259683819,12.4700577313],[75.2251420719,12.4683822023],[75.225016412,12.4681080845]]]]}},{"type":"Feature","properties":{"code":"G14018","name":"Madhur","type":"Grama Panchayat","leading":"NDA","seats":{"LDF":0,"UDF":9,"NDA":15,"OTHERS":0}},"geometry":{"type":"MultiPolygon","coordinates":[[[[74.9943908197,12.5141687161],[74.9943908197,12.5141687161],[74.9943908197,12.5141687161]]]]}},{"type":"Feature","properties":{"code":"G14025","name":"Madikai","type":"Grama Panchayat","leading":"LDF","seats":{"LDF":15,"UDF":0,"NDA":1,"OTHERS":0}},"geometry":{"type":"MultiPolygon","coordinates":[[[[75.1422837842,12.2796880347],[75.1422837842,12.2796880347],[75.1422837842,12.2796880347]]]]}},{"type":"Feature","properties":{"code":"G14011","name":"Mangalpady","type":"Grama Panchayat","leading":"UDF","seats":{"LDF":2,"UDF":19,"NDA":3,"OTHERS":0}},"geometry":{"type":"MultiPolygon","coordinates":[[[[74.932903263,12.615683374],[74.9312515352,12.612440682],[74.9283592268,12.6115053282],[74.8904029527,12.7005823239],[74.8885271833,12.7044378286],[74.8866717939,12.7041637131],[74.8878143665,12.7057096381],[74.8863990654,12.7079423522],[74.8902503613,12.7093133717],[74.8973532738,12.6972922987],[74.9072058323,12.6937552003],[74.9070913465,12.69163829],[74.9040054718,12.6932767779],[74.9040318464,12.6918637466],[74.9018365057,12.6925002002],[74.9025041067,12.6914982151],[74.8988722351,12.6922891805],[74.900150456,12.6904506118],[74.903576635,12.6901702029],[74.9036611134,12.6884719673],[74.9123235192,12.6862681597],[74.9124592906,12.6838579409],[74.9149201346,12.6875974183],[74.9130560666,12.6900704333],[74.9169084333,12.6901538673],[74.9186300105,12.6924601355],[74.9167250171,12.688378548],[74.9182749038,12.6839954662],[74.9205237256,12.682756775],[74.9195105338,12.6773013469],[74.9218719693,12.6746768135],[74.9265505561,12.6799046109],[74.930149756,12.6774369608],[74.9300660339,12.6742477611],[74.9345704086,12.6773098691],[74.9393091457,12.6766572865],[74.9453277449,12.6798660718],[74.9582063917,12.6783849625],[74.9608191516,12.6740322916],[74.9536402282,12.6701050024],[74.9540365711,12.6649817223],[74.9530627794,12.6597534014],[74.9516070631,12.6588668749],[74.9579808463,12.6522420151],[74.9636596991,12.6513959641],[74.9656144834,12.6565355148],[74.9756539005,12.6547837755],[74.9828245433,12.657818822],[74.9826637916,12.6504950847],[74.9808301818,12.6480225211],[74.9821202839,12.6451750961],[74.9741473962,12.6322671264],[74.9690243769,12.6313655738],[74.9655926625,12.6326368644],[74.96045801,12.6409040605],[74.9569869979,12.6402463078],[74.955912275,12.6346878712],[74.9452954074,12.6362544196],[74.9411875823,12.6328036965],[74.9330290047,12.6159458185],[74.932903263,12.615683374]]]]}},{"type":"Feature","properties":{"code":"G14008","name":"Manjeshwar","type":"Grama Panchayat","leading":"UDF","seats":{"LDF":0,"UDF":13,"NDA":6,"OTHERS":5}},"geometry":{"type":"MultiPolygon","coordinates":[[[[74.8866596154,12.7081742466],[74.8866596154,12.7081742466],[74.8866596154,12.7081742466]]]]}},{"type":"Feature","properties":{"code":"G14010","name":"Meenja","type":"Grama Panchayat","leading":"UDF","seats":{"LDF":1,"UDF":9,"NDA":7,"OTHERS":0}},"geometry":{"type":"MultiPolygon","coordinates":[[[[74.9461317479,12.6799420186],[74.9393091457,12.6766572865],[74.9345704086,12.6773098691],[74.9300660339,12.6742477611],[74.930149756,12.6774369608],[74.9265505561,12.6799046109],[74.9218719693,12.6746768135],[74.9195105338,12.6773013469],[74.9205237256,12.682756775],[74.9182749038,12.6839954662],[74.9167250171,12.688378548],[74.9186300105,12.6924601355],[74.9169084333,12.6901538673],[74.9130560666,12.6900704333],[74.9149201346,12.6875974183],[74.9124592906,12.6838579409],[74.9123235192,12.6862681597],[74.9036611134,12.6884719673],[74.903576635,12.6901702029],[74.900150456,12.6904506118],[74.8988722351,12.6922891805],[74.9025041067,12.6914982151],[74.9018365057,12.6925002002],[74.9040318464,12.6918637466],[74.9040054718,12.6932767779],[74.9070913465,12.69163829],[74.9087852862,12.6969077521],[74.9059770475,12.6988571533],[74.9074001864,12.6978029631],[74.908872226,12.6990142445],[74.9089005796,12.7068599911],[74.9157366717,12.7172680819],[74.9241399962,12.7244088141],[74.9245758525,12.7284844461],[74.9292536838,12.7350392517],[74.933886602,12.7366934628],[74.9358191495,12.7451602098],[74.9383143837,12.7488851101],[74.9437111287,12.7513668828],[74.9509078657,12.749688496],[74.9546857387,12.7586424405],[74.9631195924,12.7553272764],[74.967278926,12.744182157],[74.9672714826,12.732472306],[74.963723607,12.7276775047],[74.968443731,12.7279054291],[74.9695886895,12.7253957591],[74.9664440749,12.724753935],[74.9650043136,12.7225111629],[74.9674130157,12.7159629325],[74.9664860172,12.7118937637],[74.9706272857,12.7168877805],[74.982285732,12.7202719671],[74.9820824756,12.7156497788],[74.9807655517,12.710875144],[74.972333703,12.7023563197],[74.9690043435,12.7013467196],[74.9702720712,12.6963229038],[74.9688085099,12.6929700909],[74.9717061561,12.6924605246],[74.9711035833,12.6878145493],[74.9724412789,12.6868028959],[74.9708472616,12.6850166773],[74.968880049,12.6873470819],[74.9657875277,12.6846671555],[74.9686485702,12.6793396969],[74.9608191516,12.6740322916],[74.9582063917,12.6783849625],[74.9470497201,12.6800126263],[74.9461317479,12.6799420186]]]]}},{"type":"Feature","properties":{"code":"G14017","name":"Mogralputhur","type":"Grama Panchayat","leading":"UDF","seats":{"LDF":2,"UDF":8,"NDA":4,"OTHERS":3}},"geometry":{"type":"MultiPolygon","coordinates":[[[[74.9798548971,12.5187230441],[74.9798548971,12.5187230441],[74.9798548971,12.5187230441]]]]}},{"type":"Feature","properties":{"code":"G14004","name":"Muliyar","type":"Grama Panchayat","leading":"UDF","seats":{"LDF":3,"UDF":12,"NDA":3,"OTHERS":0}},"geometry":{"type":"MultiPolygon","coordinates":[[[[75.0671567859,12.4955636018],[75.0666053442,12.4994758302],[75.0727507676,12.5036401424],[75.0684417208,12.5114118097],[75.0661098704,12.5111484455],[75.0654841992,12.513499773],[75.0623850824,12.5138196085],[75.0606861553,12.5162325308],[75.0643746414,12.5188593496],[75.0647131724,12.5216409511],[75.0691622325,12.5220250585],[75.0749523767,12.5178395591],[75.0813707828,12.5157674084],[75.08262862,12.5177796565],[75.085080789,12.5180712214],[75.0847389234,12.5205650072],[75.0905228512,12.5231461747],[75.0877626122,12.5285964828],[75.0896540223,12.530444555],[75.0933095699,12.5287685686],[75.0970366593,12.5320276207],[75.1028651077,12.5302612843],[75.1065411773,12.5324647219],[75.1091421612,12.5364307675],[75.1139131047,12.5374931446],[75.1198174121,12.5354863547],[75.1247002803,12.5285617188],[75.12862227,12.5274800994],[75.1332409536,12.5224729122],[75.1411640944,12.520414125],[75.1551008272,12.5112667348],[75.16235695,12.504272225],[75.1609203858,12.5033347176],[75.1611651632,12.4997716694],[75.1569439222,12.4960100447],[75.1567444244,12.4934927389],[75.1525756719,12.4905079534],[75.1552459572,12.4840700202],[75.1482807044,12.4792003399],[75.1397037535,12.4802009615],[75.1348177296,12.4779480668],[75.1309320048,12.4799036089],[75.1265518572,12.4795784014],[75.1171436611,12.4722063407],[75.1096197038,12.4839485373],[75.1043437571,12.4859535973],[75.0996683171,12.4929820911],[75.0954306692,12.4905002599],[75.0968966811,12.4869200916],[75.0933506831,12.4827806053],[75.0787110042,12.4821066789],[75.0753395272,12.4855636284],[75.0744795125,12.4930905483],[75.0673713754,12.4956376842],[75.0671567859,12.4955636018]],[[75.0799900848,12.5154778282],[75.0804645497,12.5154918788],[75.0799900848,12.5154778282]]]]}},{"type":"Feature","properties":{"code":"G14036","name":"Padne","type":"Grama Panchayat","leading":"LDF","seats":{"LDF":9,"UDF":7,"NDA":0,"OTHERS":0}},"geometry":{"type":"MultiPolygon","coordinates":[[[[75.1567274687,12.1452728235],[75.1567274687,12.1452728235],[75.1567274687,12.1452728235]]]]}},{"type":"Feature","properties":{"code":"G14012","name":"Paivalike","type":"Grama Panchayat","leading":"UDF","seats":{"LDF":5,"UDF":7,"NDA":5,"OTHERS":4}},"geometry":{"type":"MultiPolygon","coordinates":[[[[75.0044834799,12.6382191448],[75.0044834799,12.6382191448],[75.0044834799,12.6382191448]]]]}},{"type":"Feature","properties":{"code":"G14022","name":"Pallikkara","type":"Grama Panchayat","leading":"LDF","seats":{"LDF":12,"UDF":11,"NDA":1,"OTHERS":0}},"geometry":{"type":"MultiPolygon","coordinates":[[[[75.0582961192,12.3664013103],[75.0549641313,12.3663799508],[75.0521305673,12.3632458173],[75.0394739715,12.3888509031],[75.0357395419,12.3912649809],[75.0316448457,12.3909150077],[75.0275726837,12.3989575679],[75.0321279021,12.4065874676],[75.0401956627,12.4142257932],[75.0394792491,12.417878039],[75.0424652509,12.4183503204],[75.0455878065,12.4297942432],[75.0497649016,12.4302051511],[75.0505959142,12.4327983122],[75.053486187,12.4334427526],[75.0520985387,12.4382572758],[75.0628013725,12.446716095],[75.0602034141,12.4540504156],[75.0708826231,12.4588660416],[75.0763834531,12.4631285695],[75.0816943847,12.4702472968],[75.0857021959,12.4717815461],[75.086039577,12.4687096825],[75.0887008738,12.4670617938],[75.090029916,12.4631802738],[75.0859349799,12.459235277],[75.0820064433,12.4598805097],[75.0865576642,12.4509638525],[75.0837518591,12.4454582255],[75.0865533128,12.4444974986],[75.0894159543,12.445972831],[75.0927401898,12.4445269403],[75.0910734763,12.4407727172],[75.0871596127,12.4395376075],[75.0853596745,12.4328932516],[75.077760777,12.4224373258],[75.0875436102,12.3924718372],[75.0747976311,12.3883896164],[75.0713266621,12.3889130316],[75.0692979509,12.390986257],[75.0718487827,12.3844501954],[75.0589067194,12.3770015627],[75.0588037895,12.375188983],[75.0626836599,12.3728759925],[75.0631632534,12.3703062193],[75.0585399229,12.3665366639],[75.0582961192,12.3664013103]],[[75.0407055051,12.4068977378],[75.0408051265,12.4065852558],[75.0407055051,12.4068977378]]]]}},{"type":"Feature","properties":{"code":"G14028","name":"Panathady","type":"Grama Panchayat","leading":"LDF","seats":{"LDF":8,"UDF":5,"NDA":3,"OTHERS":1}},"geometry":{"type":"MultiPolygon","coordinates":[[[[75.3367813528,12.4125857915],[75.3367813528,12.4125857915],[75.3367813528,12.4125857915]]]]}},{"type":"Feature","properties":{"code":"G14037","name":"Pilicode","type":"Grama Panchayat","leading":"LDF","seats":{"LDF":18,"UDF":0,"NDA":0,"OTHERS":0}},"geometry":{"type":"MultiPolygon","coordinates":[[[[75.1723807014,12.1716954668],[75.1715024383,12.1736793172],[75.1692593253,12.1741297019],[75.1655391125,12.17188643],[75.1621048486,12.1825533755],[75.1595996324,12.1795927834],[75.1558524853,12.1796968974],[75.1553443685,12.1856918221],[75.1477880916,12.1915420281],[75.1449471174,12.1983628101],[75.146838876,12.2018537465],[75.1490418469,12.2017923306],[75.1511819672,12.2041661386],[75.1517037276,12.2072757494],[75.1540868987,12.2084960003],[75.1581707784,12.207376272],[75.1652768924,12.2102722119],[75.1777974662,12.2202492207],[75.1891132061,12.2247408908],[75.1975547691,12.2244213421],[75.2004942759,12.2262475895],[75.2044766747,12.2233501617],[75.2119914324,12.227008949],[75.2161677181,12.2267256137],[75.2221797048,12.2197561357],[75.2263884592,12.2212707952],[75.2268849752,12.2230139513],[75.2312143383,12.2211516116],[75.2228416383,12.2147983767],[75.2156192975,12.2029215194],[75.2090190769,12.1997580168],[75.20448601,12.1916594259],[75.1928301185,12.1939625399],[75.1846751387,12.1911795796],[75.1802653081,12.1920491469],[75.172569883,12.1903662703],[75.1800369698,12.1770552158],[75.1851119553,12.1715266198],[75.1765831506,12.1690916136],[75.1753391887,12.1725891513],[75.1729248595,12.1717952863],[75.1723807014,12.1716954668]]]]}},{"type":"Feature","properties":{"code":"G14024","name":"Pullur-Periya","type":"Grama Panchayat","leading":"TIE","seats":{"LDF":9,"UDF":9,"NDA":1,"OTHERS":0}},"geometry":{"type":"MultiPolygon","coordinates":[[[[75.104597859,12.3468333831],[75.1040406089,12.3485259883],[75.1027696886,12.3471056479],[75.1004218787,12.3494870856],[75.0966787085,12.3469569992],[75.0905039381,12.3483064848],[75.086603949,12.3457342026],[75.081607576,12.3499397798],[75.0854415587,12.3522924635],[75.0844213429,12.3572470557],[75.085769371,12.3556959332],[75.0879275762,12.3570232703],[75.094064567,12.3671795062],[75.0933553893,12.3873093819],[75.0875436102,12.3924718372],[75.077760777,12.4224373258],[75.0853596745,12.4328932516],[75.0873203905,12.4396683115],[75.0910734763,12.4407727172],[75.091973369,12.4388152545],[75.0981441734,12.4391819077],[75.1008829453,12.4412936814],[75.1062756362,12.4389754302],[75.1138981459,12.4395308818],[75.1158473993,12.4335748634],[75.1209081429,12.4328962422],[75.1224972806,12.4305385492],[75.1241387641,12.4329682283],[75.1284088905,12.4318850242],[75.1294087675,12.4245922379],[75.1374372825,12.4229257392],[75.1390133021,12.4213252782],[75.1466497384,12.4233980457],[75.1463676521,12.4196453456],[75.1492745564,12.4190099879],[75.1515693378,12.4191402952],[75.1560027259,12.4249827337],[75.1578893532,12.4238221895],[75.1571686277,12.4215015805],[75.1596072564,12.4211217991],[75.162839631,12.4235909842],[75.1644129422,12.4275571541],[75.1693209192,12.4301895736],[75.172258588,12.4271287037],[75.1705816328,12.4247588555],[75.1714934004,12.4210613943],[75.1696462908,12.4140756623],[75.1651781029,12.4104471772],[75.1669146407,12.4051705041],[75.1701351944,12.4015164753],[75.1733515557,12.4006554136],[75.1703116505,12.3978079073],[75.1690287197,12.3929546003],[75.1709512581,12.3884123945],[75.1677634255,12.3869397066],[75.1660846575,12.3865937251],[75.1634979955,12.3926252392],[75.1600524264,12.3935232424],[75.1508820053,12.3914051902],[75.1434295988,12.3882666551],[75.1394936987,12.3847746815],[75.1371187606,12.384826547],[75.1355186697,12.3832079939],[75.1372489597,12.3836311406],[75.1372458857,12.3783201699],[75.1334820767,12.3739907949],[75.1341108507,12.3692503895],[75.1321018278,12.3654735928],[75.1317031618,12.3588122212],[75.1278287711,12.3562018462],[75.1227008245,12.3558940474],[75.1230208466,12.3533154137],[75.1176961933,12.3486780287],[75.1112083681,12.3532963971],[75.1112748587,12.3501656431],[75.1098736323,12.3503323969],[75.1088668257,12.347502191],[75.1063352322,12.3486528014],[75.1046014756,12.347320949],[75.104597859,12.3468333831]]]]}},{"type":"Feature","properties":{"code":"G14013","name":"Puthige","type":"Grama Panchayat","leading":"TIE","seats":{"LDF":5,"UDF":5,"NDA":2,"OTHERS":4}},"geometry":{"type":"MultiPolygon","coordinates":[[[[75.0006210189,12.5860876739],[74.9982245661,12.5767724627],[74.9902004403,12.5700585224],[74.9876072763,12.563368161],[74.9840682249,12.5612690665],[74.9815102937,12.5616704853],[74.9805191384,12.5652284544],[74.9756464194,12.5711234137],[74.9730863088,12.5703571335],[74.9714640368,12.5716014519],[74.9723819883,12.5796162225],[74.9706594463,12.582858759],[74.9799965354,12.5861680427],[74.9837115937,12.5896997681],[74.9877193725,12.5901602182],[74.9894834419,12.5945094238],[74.9884090891,12.5965656148],[74.9851615994,12.6003572572],[74.9805320849,12.6019015213],[74.9809085033,12.6043245056],[74.9840086198,12.6049345865],[74.9877188632,12.6105927199],[74.9851330959,12.6137828539],[74.9854091616,12.6187901283],[74.9883566096,12.6208478794],[74.994334101,12.6207004284],[74.9948099547,12.6290727154],[74.9996119359,12.6299620434],[75.0001200527,12.6325594476],[74.9977022578,12.6346103427],[75.0041889987,12.6352321815],[75.0052409951,12.6393508613],[75.0145185977,12.6402633714],[75.0188242606,12.6448239937],[75.0144079172,12.6505874195],[75.0143533715,12.6553739186],[75.0219597969,12.6683432221],[75.0238105779,12.6684911688],[75.0270222634,12.6648924252],[75.0358317782,12.6662628852],[75.0422584623,12.6653024707],[75.046003351,12.6625150907],[75.0476592631,12.6639636037],[75.0466886883,12.6671753832],[75.0505021534,12.6694586802],[75.0546879119,12.6695121073],[75.0568181327,12.6656815153],[75.0594215007,12.6657975922],[75.0581561078,12.66987531],[75.0598454301,12.6714787316],[75.0604115421,12.6686795959],[75.06281886,12.667976584],[75.0642219054,12.665236619],[75.0618486974,12.6635195677],[75.0617649798,12.659925798],[75.0564727332,12.6543849927],[75.0557989393,12.650992314],[75.0487408177,12.6517795836],[75.0293825823,12.6405182008],[75.0267162703,12.6376062665],[75.0388573697,12.6284760153],[75.0389710667,12.6249695382],[75.0471089247,12.6233981247],[75.0483292617,12.617719345],[75.0414381792,12.6098412633],[75.0283613739,12.6141612333],[75.0277961854,12.6122258398],[75.0200582709,12.6093717464],[75.0106562705,12.6008189453],[75.0061244954,12.5923039675],[75.0010994436,12.5866618182],[75.0006210189,12.5860876739]]]]}},{"type":"Feature","properties":{"code":"G14038","name":"Trikaripur","type":"Grama Panchayat","leading":"UDF","seats":{"LDF":3,"UDF":20,"NDA":0,"OTHERS":0}},"geometry":{"type":"MultiPolygon","coordinates":[[[[75.1728912742,12.0979006032],[75.1688829456,12.1044806961],[75.1710419996,12.1089057105],[75.169504675,12.1117589607],[75.1631360427,12.1156013335],[75.1602905419,12.1127907604],[75.1560231958,12.1174406631],[75.1588353897,12.1212478655],[75.1591932435,12.1306227417],[75.1638211096,12.1360991123],[75.1590202127,12.1441512759],[75.1569073868,12.1448751159],[75.1539740757,12.1535195861],[75.1554904975,12.1513637318],[75.160580245,12.1534614145],[75.1672158485,12.152599831],[75.1790274269,12.1557506703],[75.1753391887,12.1725891513],[75.1765831506,12.1690916136],[75.1851119553,12.1715266198],[75.1876890152,12.1667817311],[75.1911660901,12.1474803944],[75.1934510889,12.1473762687],[75.1966347559,12.1394939939],[75.1946568202,12.1349947431],[75.1905700004,12.1342183335],[75.187989976,12.1302101126],[75.193550368,12.1183382677],[75.1910153851,12.1140315469],[75.192564988,12.1034032939],[75.1898278177,12.0963841597],[75.1857256753,12.0947226632],[75.181851175,12.0944804486],[75.177219695,12.0998822258],[75.1735442272,12.0989535845],[75.1728912742,12.0979006032]]]]}},{"type":"Feature","properties":{"code":"G14021","name":"Udma","type":"Grama Panchayat","leading":"UDF","seats":{"LDF":11,"UDF":12,"NDA":0,"OTHERS":0}},"geometry":{"type":"MultiPolygon","coordinates":[[[[75.0275726837,12.3989575679],[75.0196112216,12.4144869284],[75.0149652077,12.4170874454],[75.003206426,12.4431859827],[75.0049260538,12.445315039],[75.0098339904,12.4459837075],[75.012091304,12.4478650807],[75.0141176751,12.4445913968],[75.0207303751,12.4428743067],[75.0240891625,12.4457464727],[75.0250700123,12.4448373469],[75.0293759537,12.4521614925],[75.0314769667,12.4532704178],[75.0246776453,12.4627903635],[75.0196323581,12.4643979949],[75.0215978611,12.4703234722],[75.023330467,12.4698063178],[75.026341874,12.474578687],[75.0300128889,12.4692680044],[75.0392329454,12.4673742075],[75.0450027454,12.4620368522],[75.047614139,12.4631683683],[75.0592481825,12.4551081866],[75.0628012233,12.4469536588],[75.0520985387,12.4382572758],[75.053486187,12.4334427526],[75.0505959142,12.4327983122],[75.0497649016,12.4302051511],[75.0455878065,12.4297942432],[75.0424652509,12.4183503204],[75.0394792491,12.417878039],[75.0401956627,12.4142257932],[75.0321279021,12.4065874676],[75.0278741897,12.399263964],[75.0275726837,12.3989575679]]]]}},{"type":"Feature","properties":{"code":"G14035","name":"Valiyaparamba","type":"Grama Panchayat","leading":"UDF","seats":{"LDF":6,"UDF":8,"NDA":0,"OTHERS":0}},"geometry":{"type":"MultiPolygon","coordinates":[[[[75.1403197607,12.1663735435],[75.142025479,12.1637891286],[75.1419534737,12.1557994019],[75.1447092651,12.1492577072],[75.148080336,12.1445783019],[75.1538344739,12.1425658469],[75.1535481844,12.1413739248],[75.1620507835,12.1344837293],[75.1615325679,12.1319400859],[75.1591932435,12.1306227417],[75.1588353897,12.1212478655],[75.1560231958,12.1174406631],[75.1602905419,12.1127907604],[75.1635588339,12.1155064544],[75.169504675,12.1117589607],[75.1710419996,12.1089057105],[75.1688829456,12.1044806961],[75.1729609763,12.0964572628],[75.1680381807,12.0910756703],[75.1748502483,12.0805895344],[75.1756466461,12.0730046819],[75.185359787,12.0462607218],[75.1835406465,12.0445688184],[75.1247807478,12.190075297],[75.1200874313,12.1978432906],[75.1195388068,12.2006801373],[75.1229173068,12.2054918501],[75.1257650202,12.2060519528],[75.1270086281,12.1960165777],[75.1303990766,12.1904702747],[75.1318382738,12.1835183431],[75.1343594873,12.1814101735],[75.1369405923,12.1825593412],[75.1408118811,12.180235356],[75.1404357206,12.1757540352],[75.1353535369,12.1735600226],[75.1402200027,12.1664939205],[75.1403197607,12.1663735435]]]]}},{"type":"Feature","properties":{"code":"G14009","name":"Vorkady","type":"Grama Panchayat","leading":"UDF","seats":{"LDF":4,"UDF":10,"NDA":2,"OTHERS":2}},"geometry":{"type":"MultiPolygon","coordinates":[[[[74.9308140736,12.735627188],[74.9245758525,12.7284844461],[74.9206051399,12.7308284753],[74.9182328716,12.7280467002],[74.9171894856,12.7306435641],[74.9186689713,12.7360605135],[74.9087030688,12.7348569802],[74.9018379745,12.740172791],[74.9062182218,12.7476968692],[74.9034715384,12.7660377756],[74.9114191771,12.7707144682],[74.9193759796,12.7725720961],[74.9194458389,12.7739702382],[74.9314387917,12.7798299894],[74.9419075918,12.7801670188],[74.9509002632,12.7845159161],[74.9588486808,12.78491136],[74.9607203989,12.7786262131],[74.9633025747,12.7792349151],[74.9643718655,12.7823116687],[74.9673296063,12.7796092078],[74.966609726,12.7765371959],[74.9825410386,12.7799952295],[74.9832037536,12.7829927946],[74.9863357819,12.7823677063],[74.9923993526,12.78814733],[74.9876157743,12.7939578059],[74.9888475874,12.7961372895],[74.9912957427,12.7960795099],[74.9947603156,12.7907091818],[74.998313591,12.7898231873],[74.9994363925,12.7881740858],[74.998219956,12.7866301077],[75.0024946899,12.7882890282],[74.9994333302,12.7912948767],[75.0049684202,12.791207221],[75.0029334495,12.7801751163],[75.0081890628,12.76705115],[75.0048648426,12.7644645744],[75.0035776512,12.7598736735],[74.9986928812,12.757052515],[74.9969623011,12.7520848381],[74.9938064054,12.7505375144],[74.9921465263,12.7469507981],[74.9874736806,12.7424409908],[74.9847104978,12.7441187957],[74.982997168,12.7386924075],[74.9800389287,12.7357539701],[74.9769624566,12.7358428787],[74.9752523653,12.7341108126],[74.9758447072,12.7280006494],[74.9703065773,12.7271872748],[74.9663181967,12.7306585013],[74.967278926,12.744182157],[74.9631195924,12.7553272764],[74.9546857387,12.7586424405],[74.9509078657,12.749688496],[74.9437111287,12.7513668828],[74.9383143837,12.7488851101],[74.9358191495,12.7451602098],[74.933886602,12.7366934628],[74.9309401495,12.7356595642],[74.9308140736,12.735627188]]]]}},{"type":"Feature","properties":{"code":"G14031","name":"West Eleri","type":"Grama Panchayat","leading":"LDF","seats":{"LDF":10,"UDF":9,"NDA":0,"OTHERS":0}},"geometry":{"type":"MultiPolygon","coordinates":[[[[75.3202849236,12.2770244431],[75.3209637104,12.2733882542],[75.3186196016,12.273397923],[75.3157555245,12.2709394693],[75.2971156153,12.2683251901],[75.2887196337,12.2590178873],[75.2868861443,12.2613222757],[75.2869000709,12.266656614],[75.2786705417,12.2666938689],[75.2738107369,12.2707400042],[75.2735522458,12.2787560008],[75.2668181151,12.2777176097],[75.2640242845,12.2809979405],[75.2680676141,12.2853845893],[75.2658120217,12.292799908],[75.2730566614,12.3045861585],[75.273187024,12.3086750431],[75.2775257988,12.3134531853],[75.2802077945,12.3220755004],[75.288204484,12.326604952],[75.2854627728,12.329989229],[75.2901353157,12.3347096209],[75.2893782524,12.3362911493],[75.2860983721,12.3363828754],[75.282362598,12.3436150213],[75.2865878981,12.3507585055],[75.2910224219,12.3492854583],[75.2949175931,12.3514529112],[75.2952247584,12.3556337094],[75.2931140043,12.3606020176],[75.2943218815,12.3628958145],[75.3135520227,12.3625011963],[75.3148643266,12.361317153],[75.3246781273,12.3754944111],[75.3309003575,12.376061554],[75.3351650662,12.3781992562],[75.3365808488,12.3721897539],[75.3304392047,12.3635972078],[75.3412266489,12.3648606753],[75.3429489619,12.3656892324],[75.3430233577,12.3679609131],[75.3458678532,12.3673979374],[75.3479725512,12.3689063027],[75.3515562228,12.3652342849],[75.3511188447,12.3624109126],[75.3550948493,12.3643863552],[75.354753211,12.361933773],[75.359033492,12.3584615947],[75.3588476332,12.3626205746],[75.3606709007,12.3648279612],[75.3636972548,12.3623983268],[75.3663385317,12.3656973157],[75.3726068356,12.3655486916],[75.3800926433,12.3543404072],[75.3857545934,12.3491144689],[75.3857870315,12.3464631389],[75.3901906575,12.3451157525],[75.3897711236,12.340058048],[75.3783227744,12.3391955148],[75.3729331801,12.3376645229],[75.3723207509,12.335640669],[75.3638443449,12.3382354485],[75.3579499108,12.3351876307],[75.3507917843,12.3284733413],[75.3343797967,12.3279228522],[75.3326787137,12.3265557244],[75.3360137613,12.3210940101],[75.3291800963,12.3212000903],[75.3237590744,12.3194644688],[75.3237436656,12.3096585819],[75.3326563241,12.3038808999],[75.3318664588,12.2972035498],[75.337519874,12.2945953306],[75.3381100815,12.2913079404],[75.3218189488,12.2873219733],[75.3193397989,12.2846807528],[75.3200406133,12.2776736817],[75.3202849236,12.2770244431]]]]}},{"type":"Feature","properties":{"code":"M14058","name":"Kanhangad","type":"Municipality","leading":"TIE","seats":{"LDF":20,"UDF":20,"NDA":4,"OTHERS":3}},"geometry":{"type":"MultiPolygon","coordinates":[[[[75.0705417088,12.3223309793],[75.0734308695,12.32359314],[75.0727772805,12.3250023349],[75.0739705513,12.323895024],[75.0782800859,12.3261539182],[75.0821360692,12.3261154764],[75.0814578223,12.327304088],[75.0837414781,12.329108685],[75.0881491798,12.3300272359],[75.0898280071,12.3283736363],[75.0953197102,12.3306363902],[75.0972929469,12.3278975992],[75.1135952205,12.3330799782],[75.1176604161,12.3393551848],[75.1212514521,12.33282478],[75.1323518119,12.3202266322],[75.1234564397,12.3200867928],[75.1148235553,12.3156384457],[75.115838842,12.3134869976],[75.1094661053,12.3102926397],[75.107940156,12.3088495661],[75.1083682733,12.3067871048],[75.1105287036,12.3094244766],[75.1164303557,12.3090521531],[75.1209990956,12.3010790413],[75.1274091204,12.294822408],[75.1335369655,12.2855589118],[75.1387758379,12.2821978256],[75.1393198971,12.2795882313],[75.145742404,12.2796547701],[75.1417686866,12.2787286575],[75.1378901008,12.2751097388],[75.1329633894,12.2692048282],[75.1339314122,12.2670376544],[75.1328145637,12.2652006279],[75.1292030731,12.2640294727],[75.1250622043,12.2680464663],[75.1213464103,12.2687587153],[75.1185179577,12.2588891559],[75.1189607733,12.2546587765],[75.1131259577,12.2523602168],[75.1136392119,12.248586701],[75.1092028037,12.2449384204],[75.1091964194,12.2426543183],[75.1042819323,12.2419740856],[75.0706073523,12.3220678265],[75.0705417088,12.3223309793]]]]}},{"type":"Feature","properties":{"code":"M14059","name":"Kasaragod","type":"Municipality","leading":"UDF","seats":{"LDF":1,"UDF":24,"NDA":12,"OTHERS":2}},"geometry":{"type":"MultiPolygon","coordinates":[[[[74.9905275232,12.4683182912],[74.9821484461,12.4804178716],[74.9668747398,12.5183018285],[74.9701712605,12.5189335665],[74.9739508861,12.5163112965],[74.9801291959,12.5187344226],[74.9834241086,12.5148466],[74.9876194071,12.5163010675],[74.9865684618,12.5136426911],[74.9901618451,12.5107152406],[74.9944879689,12.5142059708],[74.9964856038,12.5202881841],[75.0014787896,12.5224751853],[75.0114665796,12.5202273358],[75.014070351,12.5258489804],[75.0155205894,12.5255108521],[75.015179994,12.5237057111],[75.0135013347,12.5232591679],[75.0228961639,12.5152686069],[75.0208540615,12.5044959459],[75.0135799112,12.5023123145],[75.0079255501,12.5024278742],[75.0029716773,12.5053234851],[75.0002573189,12.5044302467],[74.99795679,12.4938984301],[75.003198077,12.478036721],[75.0007888835,12.473100428],[74.9989298532,12.4736773501],[74.9981842515,12.4696260328],[74.9906342385,12.4683755554],[74.9905275232,12.4683182912]]]]}},{"type":"Feature","properties":{"code":"M14060","name":"Nileshwar","type":"Municipality","leading":"LDF","seats":{"LDF":20,"UDF":13,"NDA":0,"OTHERS":1}},"geometry":{"type":"MultiPolygon","coordinates":[[[[75.1175426478,12.2190762708],[75.1178232016,12.2137375737],[75.1229173068,12.2054918501],[75.121946219,12.202593367],[75.1166191986,12.1985549825],[75.1188809517,12.2010498999],[75.1184497298,12.202886677],[75.1042819323,12.2419740856],[75.1091964194,12.2426543183],[75.1092028037,12.2449384204],[75.1136392119,12.248586701],[75.1131259577,12.2523602168],[75.1189607733,12.2546587765],[75.1185179577,12.2588891559],[75.1213464103,12.2687587153],[75.1250622043,12.2680464663],[75.1292030731,12.2640294727],[75.1328145637,12.2652006279],[75.1339314122,12.2670376544],[75.1329633894,12.2692048282],[75.1378901008,12.2751097388],[75.1417686866,12.2787286575],[75.1463827016,12.2796544295],[75.1509570344,12.275781433],[75.1571389213,12.2765553993],[75.163210187,12.279994415],[75.1748222541,12.2725150967],[75.1757353431,12.270117343],[75.170724553,12.2673565221],[75.1656727018,12.2566159043],[75.1634332189,12.244886213],[75.1602335779,12.2399419147],[75.1504403423,12.2373492363],[75.1457843634,12.2376375283],[75.1354624783,12.2324000526],[75.1233481496,12.2347273639],[75.117609982,12.2278900444],[75.116272103,12.2220366062],[75.1173877792,12.2194441464],[75.1175426478,12.2190762708]]]]}},{"type":"Feature","properties":{"code":"G14003","name":"Karadka","type":"Grama Panchayat","leading":"NDA","seats":{"LDF":3,"UDF":4,"NDA":8,"OTHERS":1}},"geometry":{"type":"MultiPolygon","coordinates":[[[[75.1725739461,12.5068734922],[75.1676563742,12.5073622981],[75.1669069125,12.5053276798],[75.16235695,12.504272225],[75.1551008272,12.5112667348],[75.1411640944,12.520414125],[75.1332409536,12.5224729122],[75.12862227,12.5274800994],[75.1247002803,12.5285617188],[75.1198174121,12.5354863547],[75.1220645182,12.5397062863],[75.1260563788,12.540222209],[75.1223341421,12.5468178346],[75.124203944,12.5510125815],[75.1207055216,12.5535016976],[75.121299185,12.5571602615],[75.1246082102,12.5598583754],[75.1438132082,12.5639651293],[75.1537805597,12.5619310719],[75.1560047623,12.5576050624],[75.1596711445,12.555043684],[75.162862697,12.5577254155],[75.1650331139,12.5666657136],[75.1610449417,12.5680761675],[75.1610205336,12.5732035175],[75.156198581,12.5806319475],[75.1570201308,12.5835791056],[75.1678256132,12.5818787113],[75.1703106291,12.5774458602],[75.1775939017,12.5762803402],[75.1790979097,12.571317352],[75.1881839241,12.577207175],[75.1852831697,12.5826440866],[75.1892829715,12.5811768838],[75.191785854,12.5851667566],[75.1978549008,12.5857736471],[75.2085887012,12.5913400988],[75.2120912783,12.5786031887],[75.2171003203,12.5760411331],[75.2196272039,12.5714838102],[75.220025242,12.5690928736],[75.2159424045,12.5651653608],[75.2192044541,12.5611487195],[75.2184584769,12.558390598],[75.2139638031,12.5542939097],[75.2087914653,12.5546193063],[75.203504791,12.5455730543],[75.1911165327,12.5490380355],[75.1858959151,12.5379951678],[75.1881765202,12.5323871854],[75.1790329022,12.5332151377],[75.1746008068,12.5304576342],[75.1710649606,12.5179200904],[75.1725970454,12.5074589431],[75.1725739461,12.5068734922]]]]}}]}
