{"type":"FeatureCollection","features":[{"type":"Feature","properties":{"code":"C02002","name":"Kollam","type":"Corporation","leading":"UDF","seats":{"LDF":16,"UDF":27,"NDA":12,"OTHERS":1}},"geometry":{"type":"MultiPolygon","coordinates":[[[[76.5378843279,8.9342725462],[76.5496741625,8.9373665459],[76.5545394137,8.9344198123],[76.5580971069,8.9365058569],[76.5620995726,8.9354529499],[76.5676378289,8.9315343751],[76.5688659725,8.9241507162],[76.5720629312,8.9237183357],[76.5787394501,8.9262549449],[76.5820866597,8.9249772385],[76.582549695,8.9278539494],[76.5856701692,8.9295085507],[76.5913855443,8.9290879039],[76.5910609255,8.9346490135],[76.600957171,8.9371021594],[76.6021754295,8.9350711306],[76.6053376987,8.9343199798],[76.6084580212,8.9366941156],[76.6128149328,8.9374111474],[76.6131857342,8.9313360005],[76.6151956929,8.9295297068],[76.6259248607,8.9298984532],[76.6270423924,8.9323290773],[76.6320007157,8.9330586749],[76.6409877502,8.9289497129],[76.6335974636,8.9209000438],[76.6322393008,8.9158989181],[76.6358464853,8.9095220092],[76.6368072647,8.8976676097],[76.6459463039,8.8973738256],[76.6469803561,8.8881272204],[76.643963816,8.8865608615],[76.6448282677,8.8827334235],[76.6412017031,8.8822510201],[76.6419263844,8.8801884718],[76.6390974033,8.8787533025],[76.6431746548,8.8694645155],[76.6389866804,8.8715197323],[76.6363256158,8.8464211907],[76.6348584541,8.845220376],[76.6304424026,8.8482232442],[76.6255507252,8.8489982739],[76.6251948017,8.8466660372],[76.629020276,8.8410513077],[76.6333212111,8.8387606947],[76.6340590925,8.8363926688],[76.6323924904,8.8355359293],[76.6138339972,8.8560827021],[76.6004433006,8.8674933936],[76.5907978717,8.8742996665],[76.5844070511,8.8761626703],[76.5814491687,8.8755040526],[76.5837305842,8.8792805751],[76.5716254499,8.8821323896],[76.5674242915,8.8795372024],[76.5655252461,8.8801028293],[76.5619120748,8.8866454689],[76.5545141389,8.8926782962],[76.5498846359,8.9007035316],[76.5463242115,8.9037020245],[76.5421015527,8.9127118227],[76.5389917814,8.9322693028],[76.5378843279,8.9342725462]]]]}},{"type":"Feature","properties":{"code":"G02069","name":"Adichanalloor","type":"Grama Panchayat","leading":"LDF","seats":{"LDF":8,"UDF":6,"NDA":7,"OTHERS":0}},"geometry":{"type":"MultiPolygon","coordinates":[[[[76.6807400664,8.8495691816],[76.6807400664,8.8495691816],[76.6807400664,8.8495691816]],[[76.6847306786,8.8802025895],[76.6847486812,8.8801563953],[76.6847306786,8.8802025895]]]]}},{"type":"Feature","properties":{"code":"G02005","name":"Alappad","type":"Grama Panchayat","leading":"LDF","seats":{"LDF":9,"UDF":3,"NDA":4,"OTHERS":0}},"geometry":{"type":"MultiPolygon","coordinates":[[[[76.492810647,9.082779326],[76.4977877825,9.0665324779],[76.500305577,9.0656414495],[76.5013933369,9.059715325],[76.5077156061,9.048415734],[76.5092827954,9.0386237136],[76.515845024,9.035222175],[76.5170260298,9.0331103065],[76.5212384803,9.0201205277],[76.5190082065,9.0176429568],[76.510820075,9.0303845339],[76.4865374198,9.086406859],[76.464513115,9.131212004],[76.4621571561,9.1344194343],[76.4579891302,9.1358122509],[76.4685201543,9.1363793855],[76.4729542623,9.1271206231],[76.479127904,9.1279528172],[76.4804344256,9.1248566695],[76.4776500643,9.1234937331],[76.4766733498,9.1179744884],[76.4791938179,9.1163442206],[76.4810536246,9.1082565695],[76.4927467115,9.0829185096],[76.492810647,9.082779326]]]]}},{"type":"Feature","properties":{"code":"G02028","name":"Alayaman","type":"Grama Panchayat","leading":"UDF","seats":{"LDF":3,"UDF":9,"NDA":3,"OTHERS":1}},"geometry":{"type":"MultiPolygon","coordinates":[[[[76.9418130328,8.885733796],[76.9418130328,8.885733796],[76.9418130328,8.885733796]]]]}},{"type":"Feature","properties":{"code":"G02029","name":"Anchal","type":"Grama Panchayat","leading":"LDF","seats":{"LDF":11,"UDF":3,"NDA":6,"OTHERS":1}},"geometry":{"type":"MultiPolygon","coordinates":[[[[76.9148976526,8.9115415693],[76.9099215888,8.9097345909],[76.9086762311,8.9073564038],[76.9041884539,8.9087637832],[76.9052914705,8.9190296066],[76.9036898023,8.9212724445],[76.9029529783,8.9307769051],[76.8945362956,8.9398695468],[76.8903436923,8.9370824442],[76.8834961191,8.9438964059],[76.8825405845,8.9518900357],[76.8842141188,8.9565130609],[76.8820251332,8.9587819209],[76.8866500528,8.9688414831],[76.8965632064,8.9685636517],[76.8968253166,8.9699731112],[76.9029038253,8.9714923178],[76.9049991881,8.9658276154],[76.9078431357,8.9647306815],[76.911000215,8.9671484206],[76.9127292417,8.9651621353],[76.9145594919,8.9688263485],[76.9185008048,8.9677787507],[76.9210040675,8.9696627416],[76.9278438421,8.9678629355],[76.9279979358,8.9693191889],[76.9301730281,8.9683479198],[76.9344733902,8.9697981992],[76.9386596581,8.967198349],[76.9410754441,8.9604156338],[76.9350550552,8.9559167504],[76.9339685554,8.9525151447],[76.9269015353,8.9475809479],[76.9297001845,8.9448231139],[76.9269599894,8.9401526677],[76.9296931444,8.9395257021],[76.9290205173,8.9367882948],[76.9301893414,8.9356487078],[76.9278197888,8.9291267527],[76.9232386308,8.927085678],[76.9138371065,8.9274205839],[76.9131037089,8.919044989],[76.9179932148,8.9150455287],[76.9150503087,8.9115984384],[76.9148976526,8.9115415693]]]]}},{"type":"Feature","properties":{"code":"G02033","name":"Aryankavu","type":"Grama Panchayat","leading":"LDF","seats":{"LDF":6,"UDF":5,"NDA":2,"OTHERS":1}},"geometry":{"type":"MultiPolygon","coordinates":[[[[77.1063725607,8.9579262054],[77.1063725607,8.9579262054],[77.1063725607,8.9579262054]],[[77.0991109248,9.0687215625],[77.0991109248,9.0687215625],[77.0991109248,9.0687215625]]]]}},{"type":"Feature","properties":{"code":"G02060","name":"Chadayamangalam","type":"Grama Panchayat","leading":"LDF","seats":{"LDF":13,"UDF":2,"NDA":1,"OTHERS":0}},"geometry":{"type":"MultiPolygon","coordinates":[[[[76.8644771032,8.8456816022],[76.8644771032,8.8456816022],[76.8644771032,8.8456816022]],[[76.8404500898,8.8456156527],[76.8404483333,8.8456916667],[76.8404500898,8.8456156527]]]]}},{"type":"Feature","properties":{"code":"G02068","name":"Chathannur","type":"Grama Panchayat","leading":"LDF","seats":{"LDF":10,"UDF":1,"NDA":7,"OTHERS":1}},"geometry":{"type":"MultiPolygon","coordinates":[[[[76.7018763406,8.8440994507],[76.6920810155,8.848068572],[76.6815841089,8.8478770428],[76.6808476484,8.8495615568],[76.6883181227,8.8522104162],[76.6895208636,8.8548269807],[76.6927502495,8.8541493052],[76.6999934249,8.8563146661],[76.6978000572,8.8644862149],[76.7000564192,8.8646755474],[76.6998652929,8.8686314598],[76.7030102255,8.8671757565],[76.7046730386,8.8703049529],[76.7091528887,8.8698556237],[76.7077232134,8.871823664],[76.7085033479,8.8748117546],[76.7132175206,8.8739259005],[76.7261299991,8.8770010216],[76.7298194631,8.8743949926],[76.7302422495,8.8708055826],[76.7340408832,8.8679974728],[76.7405885512,8.8698825847],[76.7497428975,8.865550019],[76.7494111252,8.8617853643],[76.7448430292,8.8590821765],[76.7462277246,8.8501599663],[76.7382276442,8.8445268706],[76.738620706,8.8386789122],[76.7344729808,8.8454953683],[76.7335265541,8.8445736372],[76.7275008948,8.8478659274],[76.7163739957,8.8474512824],[76.7166019064,8.849392243],[76.709336673,8.8523660319],[76.7066000915,8.8420683608],[76.7041012361,8.8405545088],[76.7020805848,8.84386422],[76.7018763406,8.8440994507]]]]}},{"type":"Feature","properties":{"code":"G02049","name":"Chavara","type":"Grama Panchayat","leading":"UDF","seats":{"LDF":9,"UDF":12,"NDA":1,"OTHERS":2}},"geometry":{"type":"MultiPolygon","coordinates":[[[[76.547149335,8.970311229],[76.547149335,8.970311229],[76.547149335,8.970311229]]]]}},{"type":"Feature","properties":{"code":"G02070","name":"Chirakkara","type":"Grama Panchayat","leading":"NDA","seats":{"LDF":5,"UDF":5,"NDA":6,"OTHERS":1}},"geometry":{"type":"MultiPolygon","coordinates":[[[[76.7115798202,8.8180000454],[76.7085126363,8.8174867076],[76.7007581948,8.8234100814],[76.6932238342,8.8333206167],[76.6778425399,8.8348859784],[76.6767609407,8.8311974751],[76.6743757055,8.8331441575],[76.6707496141,8.8333437305],[76.6688350502,8.8425203724],[76.6728689836,8.8479892706],[76.6784695563,8.8512152865],[76.6815841089,8.8478770428],[76.6920810155,8.848068572],[76.7000311773,8.8451601721],[76.7041012361,8.8405545088],[76.7066000915,8.8420683608],[76.7090212566,8.8473284071],[76.709336673,8.8523660319],[76.7166019064,8.849392243],[76.7163739957,8.8474512824],[76.7275008948,8.8478659274],[76.7335265541,8.8445736372],[76.7344729808,8.8454953683],[76.7399509802,8.8360511722],[76.7378466679,8.8314257158],[76.7341094597,8.8316632777],[76.732533646,8.8250208732],[76.7340346744,8.8205030153],[76.7323857283,8.8195667644],[76.7330390084,8.817806092],[76.7299095882,8.8119057728],[76.7235287017,8.8132279916],[76.723324452,8.8158335448],[76.7177781844,8.8188599763],[76.7123446074,8.8182427718],[76.7115798202,8.8180000454]]]]}},{"type":"Feature","properties":{"code":"G02058","name":"Chithara","type":"Grama Panchayat","leading":"UDF","seats":{"LDF":10,"UDF":13,"NDA":0,"OTHERS":1}},"geometry":{"type":"MultiPolygon","coordinates":[[[[76.9399031998,8.7650269936],[76.9422997817,8.7717243977],[76.9405224607,8.7778531686],[76.9414979116,8.7817168656],[76.9436737837,8.7828001435],[76.9431481513,8.7930144607],[76.9404703909,8.796102563],[76.9451769901,8.8093709762],[76.9421658954,8.8126254439],[76.9455439943,8.816139963],[76.9509287001,8.8179714303],[76.9503557229,8.8225854523],[76.953192221,8.8235704505],[76.9550584103,8.8281592504],[76.9585707675,8.831134083],[76.9582365291,8.8382570985],[76.9617078747,8.8431173689],[76.9602388077,8.8468767159],[76.9647027665,8.8488195834],[76.9750816231,8.8612473324],[76.9810207076,8.8642260489],[76.9886928152,8.864526839],[77.0056617599,8.8626940922],[77.0162007993,8.8593947157],[77.0282996802,8.8421782343],[77.0310425041,8.8419967078],[77.0290260824,8.8361587463],[77.0245485676,8.8349120965],[77.0190522574,8.8287885264],[77.01794438,8.8223517573],[77.0200997968,8.8168747629],[77.0132574888,8.8176537708],[77.0075567675,8.8131249298],[77.0093359264,8.8090647106],[77.0085195194,8.8008389415],[77.0102596572,8.7961572381],[77.0144803056,8.7916875474],[77.0246307949,8.7742167074],[77.0142827488,8.770361351],[77.0033612066,8.7710061255],[77.0005316035,8.7740016989],[76.9994697076,8.7822480175],[76.9972662411,8.7845838759],[76.9894476626,8.7891236787],[76.9838794074,8.7901343689],[76.9775206172,8.7879101561],[76.9746570225,8.7845024216],[76.9723991588,8.7758482366],[76.960089212,8.7703871023],[76.9542831867,8.7719749262],[76.947272884,8.7710552799],[76.9405125219,8.7650012159],[76.9399031998,8.7650269936]],[[77.0188581437,8.775392407],[77.0188581437,8.775392407],[77.0188581437,8.775392407]]]]}},{"type":"Feature","properties":{"code":"G02004","name":"Clappana","type":"Grama Panchayat","leading":"UDF","seats":{"LDF":6,"UDF":10,"NDA":0,"OTHERS":0}},"geometry":{"type":"MultiPolygon","coordinates":[[[[76.4950484682,9.0935840289],[76.4950484682,9.0935840289],[76.4950484682,9.0935840289]]]]}},{"type":"Feature","properties":{"code":"G02030","name":"Edamulakkal","type":"Grama Panchayat","leading":"UDF","seats":{"LDF":9,"UDF":12,"NDA":1,"OTHERS":1}},"geometry":{"type":"MultiPolygon","coordinates":[[[[76.8692978689,8.893588258],[76.8692978689,8.893588258],[76.8692978689,8.893588258]]]]}},{"type":"Feature","properties":{"code":"G02063","name":"Elamadu","type":"Grama Panchayat","leading":"UDF","seats":{"LDF":8,"UDF":9,"NDA":1,"OTHERS":0}},"geometry":{"type":"MultiPolygon","coordinates":[[[[76.8290775462,8.8667876343],[76.8290775462,8.8667876343],[76.8290775462,8.8667876343]]]]}},{"type":"Feature","properties":{"code":"G02054","name":"Elampalloor","type":"Grama Panchayat","leading":"UDF","seats":{"LDF":6,"UDF":9,"NDA":7,"OTHERS":1}},"geometry":{"type":"MultiPolygon","coordinates":[[[[76.6659615725,8.9172429712],[76.6614082194,8.9117557649],[76.6597422265,8.9131429846],[76.6562379459,8.9125790167],[76.6551709435,8.9144369635],[76.6641204599,8.9282164],[76.6682312189,8.9390878969],[76.6669262509,8.9418561502],[76.6588004709,8.9426495414],[76.6646755624,8.9512622415],[76.675121971,8.9585713339],[76.6841704741,8.9622656323],[76.6916139801,8.9696470499],[76.6934792695,8.97014774],[76.6953627394,8.9677497916],[76.6946807246,8.9636915325],[76.6986940202,8.9601765895],[76.695070847,8.9315489315],[76.6912208113,8.9236393669],[76.6886413644,8.9223036604],[76.6852961515,8.9225806166],[76.6828237453,8.9213390067],[76.6824296183,8.9192738692],[76.6710802176,8.9198748505],[76.666373326,8.9175052303],[76.6659615725,8.9172429712]]]]}},{"type":"Feature","properties":{"code":"G02037","name":"Ezhukone","type":"Grama Panchayat","leading":"UDF","seats":{"LDF":6,"UDF":10,"NDA":0,"OTHERS":1}},"geometry":{"type":"MultiPolygon","coordinates":[[[[76.7110519686,8.9649085554],[76.7110519686,8.9649085554],[76.7110519686,8.9649085554]]]]}},{"type":"Feature","properties":{"code":"G02061","name":"Ittiva","type":"Grama Panchayat","leading":"LDF","seats":{"LDF":11,"UDF":6,"NDA":3,"OTHERS":2}},"geometry":{"type":"MultiPolygon","coordinates":[[[[76.9200879414,8.855313546],[76.9146122479,8.8578287717],[76.9109708326,8.8551773676],[76.9080147886,8.8587711877],[76.9047139311,8.8587004352],[76.8953874269,8.8650597359],[76.8853599572,8.8638883301],[76.8814653422,8.8667356561],[76.8788625425,8.8721257075],[76.8817363718,8.8735609242],[76.8813249377,8.8753093882],[76.8847631521,8.8816027866],[76.8692978689,8.893588258],[76.8707999381,8.8965733163],[76.8741134616,8.8976213931],[76.8700391471,8.9031368568],[76.8741694411,8.9034711111],[76.8751633246,8.9054833722],[76.8775867788,8.905686457],[76.87965818,8.9096711659],[76.881665722,8.9093218444],[76.8804881592,8.9080633847],[76.8820217898,8.9061696315],[76.8872032471,8.9086576029],[76.894626296,8.9077088911],[76.8953464464,8.9092902181],[76.9004409906,8.907930066],[76.9032741898,8.9090867242],[76.9067531986,8.9070981735],[76.911294391,8.9105402833],[76.9140909252,8.9099150979],[76.9178359717,8.9078965121],[76.9183188361,8.9058728961],[76.9226644968,8.9059958626],[76.9249987375,8.9000585013],[76.9295487747,8.8965475654],[76.9299262375,8.8936745466],[76.9373081377,8.8920887992],[76.9392672939,8.8870040649],[76.9421715859,8.8854530104],[76.942463523,8.8826094691],[76.9459252634,8.8809358401],[76.9508125911,8.8831639027],[76.9528124499,8.8823308097],[76.9511935268,8.8749529383],[76.9572735374,8.8694885566],[76.9546379674,8.8664077245],[76.9577714413,8.8616919025],[76.955949278,8.8607929496],[76.9542075674,8.8561997077],[76.9578785214,8.8527677354],[76.9617078747,8.8431173689],[76.9599564551,8.8436714472],[76.9591825238,8.841811811],[76.9523621221,8.8406281486],[76.9477064156,8.8377487745],[76.9460063207,8.8400994084],[76.9407093075,8.8410967817],[76.938620034,8.8438575462],[76.9368720957,8.8425777894],[76.9380603508,8.8446280261],[76.9352480028,8.8528590843],[76.9301894297,8.8523580766],[76.9264080484,8.8540161357],[76.9239191419,8.8576206966],[76.9204709132,8.8553420663],[76.9200879414,8.855313546]],[[76.9321789648,8.8926440975],[76.9321789648,8.8926440975],[76.9321789648,8.8926440975]]]]}},{"type":"Feature","properties":{"code":"G02059","name":"Kadakkal","type":"Grama Panchayat","leading":"LDF","seats":{"LDF":16,"UDF":2,"NDA":1,"OTHERS":1}},"geometry":{"type":"MultiPolygon","coordinates":[[[[76.9110128076,8.8129665047],[76.9090445106,8.8145178459],[76.903868951,8.81214428],[76.8998645604,8.8124158224],[76.8935593423,8.815860413],[76.8923784519,8.8226998837],[76.8937113031,8.8285639009],[76.8818070563,8.8394771274],[76.8828328966,8.8447672731],[76.8863023047,8.8439854167],[76.8881255326,8.8451128649],[76.8864116665,8.8493416669],[76.8852131166,8.8488773646],[76.8805373433,8.8528773479],[76.8824591109,8.8600578091],[76.885533333,8.8639166669],[76.8953874269,8.8650597359],[76.9047139311,8.8587004352],[76.9080147886,8.8587711877],[76.9109708326,8.8551773676],[76.9146122479,8.8578287717],[76.9200879414,8.855313546],[76.9239191419,8.8576206966],[76.9264080484,8.8540161357],[76.9301894297,8.8523580766],[76.9349328129,8.8529927358],[76.9380603508,8.8446280261],[76.9368720957,8.8425777894],[76.938620034,8.8438575462],[76.9407093075,8.8410967817],[76.9460063207,8.8400994084],[76.9477064156,8.8377487745],[76.9523621221,8.8406281486],[76.9591825238,8.841811811],[76.9599564551,8.8436714472],[76.9614311913,8.8430838818],[76.9582365291,8.8382570985],[76.9585707675,8.831134083],[76.9550584103,8.8281592504],[76.953192221,8.8235704505],[76.9440577892,8.8256149618],[76.9399731971,8.8233373211],[76.9298273025,8.826782246],[76.9278363179,8.8250865352],[76.9265686832,8.814449699],[76.9208801192,8.816756672],[76.91992366,8.8128502376],[76.9157089902,8.8144996751],[76.9112947214,8.813138851],[76.9110128076,8.8129665047]]]]}},{"type":"Feature","properties":{"code":"G02067","name":"Kalluvathukkal","type":"Grama Panchayat","leading":"LDF","seats":{"LDF":9,"UDF":8,"NDA":7,"OTHERS":0}},"geometry":{"type":"MultiPolygon","coordinates":[[[[76.7216350524,8.8033065032],[76.7246066193,8.8132784996],[76.7299095882,8.8119057728],[76.7330390084,8.817806092],[76.7323654981,8.8195128867],[76.7340296769,8.8206251327],[76.732533646,8.8250208732],[76.7341094597,8.8316632777],[76.7378466679,8.8314257158],[76.7399509802,8.8360511722],[76.7382276442,8.8445268706],[76.7462277246,8.8501599663],[76.7448430292,8.8590821765],[76.7494111252,8.8617853643],[76.7501340565,8.8640808566],[76.7439842551,8.8685428162],[76.7451158874,8.8711331055],[76.742762365,8.8739015623],[76.7477283126,8.8761003296],[76.7483385011,8.8720519819],[76.7546021949,8.8653059627],[76.7526251371,8.8618249673],[76.7585215529,8.8581412243],[76.7618195342,8.8608137413],[76.7667265844,8.8548049216],[76.7757707219,8.8616619563],[76.7813684967,8.8592494398],[76.7830824464,8.851976883],[76.7774715919,8.848057835],[76.7757258879,8.8437021441],[76.7817117576,8.8425734636],[76.7812411393,8.8396508776],[76.7846898991,8.8356267892],[76.7883491314,8.8355738682],[76.7942077714,8.828174377],[76.791136572,8.8219903499],[76.7870754758,8.8229179935],[76.7831472863,8.8188472503],[76.7895350424,8.8179984458],[76.7894096776,8.8145317808],[76.7928799017,8.8131427883],[76.7777440484,8.8091445634],[76.7718606528,8.8109991652],[76.7721063679,8.8055264431],[76.7683496915,8.803313566],[76.7703381202,8.8001432708],[76.7690089511,8.7988630703],[76.7615478344,8.80013693],[76.7618069188,8.7940890004],[76.7604168659,8.7917187613],[76.7584538198,8.7952608941],[76.749883327,8.7962450071],[76.7443287687,8.7946440552],[76.7368306881,8.7984811967],[76.7281209302,8.7999210582],[76.7224736454,8.8033008757],[76.7216350524,8.8033065032]],[[76.7298673214,8.8118835274],[76.7299273867,8.8118500738],[76.7298673214,8.8118835274]]]]}},{"type":"Feature","properties":{"code":"G02031","name":"Karavaloor","type":"Grama Panchayat","leading":"LDF","seats":{"LDF":9,"UDF":7,"NDA":0,"OTHERS":1}},"geometry":{"type":"MultiPolygon","coordinates":[[[[76.9133399558,8.9664814461],[76.9133399558,8.9664814461],[76.9133399558,8.9664814461]]]]}},{"type":"Feature","properties":{"code":"G02036","name":"Kareepra","type":"Grama Panchayat","leading":"LDF","seats":{"LDF":10,"UDF":3,"NDA":4,"OTHERS":2}},"geometry":{"type":"MultiPolygon","coordinates":[[[[76.7258906399,8.922057576],[76.7258906399,8.922057576],[76.7258906399,8.922057576]]]]}},{"type":"Feature","properties":{"code":"G02046","name":"East Kallada","type":"Grama Panchayat","leading":"UDF","seats":{"LDF":6,"UDF":7,"NDA":3,"OTHERS":0}},"geometry":{"type":"MultiPolygon","coordinates":[[[[76.6432651285,9.0018573942],[76.6432651285,9.0018573942],[76.6432651285,9.0018573942]]]]}},{"type":"Feature","properties":{"code":"G02056","name":"Kottamkara","type":"Grama Panchayat","leading":"LDF","seats":{"LDF":9,"UDF":8,"NDA":5,"OTHERS":1}},"geometry":{"type":"MultiPolygon","coordinates":[[[[76.6451161003,8.9021044318],[76.6469094604,8.9016089425],[76.6471265503,8.8975615099],[76.6368072647,8.8976676097],[76.6358464853,8.9095220092],[76.6322393008,8.9158989181],[76.6335974636,8.9209000438],[76.6414414574,8.9295379447],[76.6485290755,8.9329521828],[76.6588004709,8.9426495414],[76.6669262509,8.9418561502],[76.6682312189,8.9390878969],[76.6641204599,8.9282164],[76.6554246082,8.9164719214],[76.6548279893,8.9128413978],[76.649463738,8.912396431],[76.6485443402,8.9162838583],[76.6453559864,8.9177725453],[76.6451994675,8.9139450932],[76.6472018319,8.9100234856],[76.6454372193,8.9077954053],[76.6418338877,8.9084439921],[76.6450610528,8.9022877378],[76.6451161003,8.9021044318]]]]}},{"type":"Feature","properties":{"code":"G02018","name":"Kulakkada","type":"Grama Panchayat","leading":"LDF","seats":{"LDF":9,"UDF":8,"NDA":1,"OTHERS":2}},"geometry":{"type":"MultiPolygon","coordinates":[[[[76.7462475426,9.0358332779],[76.7462475426,9.0358332779],[76.7462475426,9.0358332779]]]]}},{"type":"Feature","properties":{"code":"G02002","name":"Kulasekharapuram","type":"Grama Panchayat","leading":"UDF","seats":{"LDF":7,"UDF":10,"NDA":4,"OTHERS":3}},"geometry":{"type":"MultiPolygon","coordinates":[[[[76.5086408793,9.0660686509],[76.5086408793,9.0660686509],[76.5086408793,9.0660686509]]]]}},{"type":"Feature","properties":{"code":"G02026","name":"Kulathupuzha","type":"Grama Panchayat","leading":"UDF","seats":{"LDF":7,"UDF":12,"NDA":0,"OTHERS":2}},"geometry":{"type":"MultiPolygon","coordinates":[[[[77.0310425041,8.8419967078],[77.0282996802,8.8421782343],[77.0162007993,8.8593947157],[77.0056617599,8.8626940922],[76.9810207076,8.8642260489],[77.005219448,8.88251033],[77.0049639741,8.8865642421],[77.0009306027,8.891937283],[76.9940912871,8.9157917737],[76.9874776518,8.9185239129],[76.9892665395,8.9257647624],[76.9883656645,8.9282247356],[76.9862186638,8.9280314993],[76.9852108949,8.9299572033],[76.9895515414,8.9302489513],[76.9902344655,8.9332348039],[76.9992127056,8.9360799022],[77.0002022969,8.9424568785],[77.0023085713,8.9441367387],[77.0018586586,8.9414130232],[77.0052059994,8.9412863399],[77.0067942334,8.9462740763],[77.0098101503,8.9464215687],[77.0131380866,8.949501929],[77.0111762149,8.952350617],[77.005897747,8.9527047434],[77.0044572397,8.9520140058],[77.0047541513,8.9496803988],[77.001344117,8.9496644576],[77.0000068657,8.9689212933],[77.0024883732,8.9776158641],[76.9987547756,8.9830607085],[77.0005631642,8.985015119],[77.0047703747,8.9821496041],[77.0098962603,8.9815960873],[77.0112990951,8.9840347077],[77.0089367152,8.9861205068],[77.0127726929,8.9855898063],[77.014583357,8.9825840867],[77.0136984685,8.9782930915],[77.0152234013,8.9769235128],[77.016670335,8.9837836992],[77.0214387265,8.9868961814],[77.0274199211,8.9804160828],[77.0431201368,8.9727313533],[77.0521639583,8.9651507873],[77.0563583273,8.9644918647],[77.0605334185,8.9591481965],[77.0688063689,8.9546496614],[77.0678657236,8.9535679563],[77.0692539303,8.9527727857],[77.0698877853,8.954254336],[77.0771955579,8.9554553126],[77.0788862505,8.9607735967],[77.0808171111,8.961942776],[77.0869735194,8.9581225842],[77.0892269825,8.9605198981],[77.0908515612,8.9667916062],[77.0941293358,8.9655235225],[77.097498241,8.9688482913],[77.1010877146,8.9609737791],[77.1173918164,8.9491585688],[77.1330207581,8.9464203645],[77.1747743227,8.9306411581],[77.1789449721,8.9308294723],[77.1839976137,8.9261764796],[77.1918865474,8.927705711],[77.195056588,8.9227793402],[77.2016448475,8.9248981518],[77.2121137439,8.917176118],[77.2175971451,8.9189947595],[77.2194492672,8.9084146697],[77.2226171167,8.9028413259],[77.2266741439,8.9043194272],[77.2385870532,8.8980695389],[77.239983761,8.8935646415],[77.2383176543,8.8925483192],[77.2377466833,8.8858059804],[77.2391672563,8.8835548738],[77.2460912041,8.8789335862],[77.2562367837,8.8780341988],[77.2587568741,8.8640378138],[77.2555650406,8.8622339429],[77.2557736764,8.8596016301],[77.2616651151,8.8556034126],[77.2617690067,8.8517111098],[77.2592132226,8.8522514382],[77.2586783962,8.8491494807],[77.2627738351,8.8417561461],[77.2550163372,8.8350752954],[77.2515473331,8.8250621769],[77.2462092099,8.8201272141],[77.2493879901,8.8158965496],[77.2442031937,8.8084713486],[77.2325613559,8.8079635819],[77.2314214512,8.7854002376],[77.224467014,8.7845975025],[77.2199867868,8.778367682],[77.2115693619,8.7792074092],[77.2194893907,8.7706467805],[77.2100689579,8.7656578744],[77.2081998377,8.7707369784],[77.2030606728,8.7688897109],[77.1970671999,8.7722807329],[77.1914445272,8.7726901234],[77.1683177295,8.7881569264],[77.16178092,8.7905312523],[77.1556689116,8.7961327919],[77.1534430228,8.7951204849],[77.1432561587,8.8049007317],[77.1360249513,8.8058190006],[77.1293173165,8.8098406206],[77.1196037688,8.8225117197],[77.1105742242,8.8263083938],[77.1092633772,8.8324635813],[77.1008867898,8.8294282284],[77.0902246335,8.8317260629],[77.0844090206,8.8411580495],[77.0615356349,8.8429964281],[77.0506188583,8.8465219319],[77.0311029172,8.8420530245],[77.0310425041,8.8419967078]]]]}},{"type":"Feature","properties":{"code":"G02065","name":"Kummil","type":"Grama Panchayat","leading":"UDF","seats":{"LDF":7,"UDF":9,"NDA":0,"OTHERS":0}},"geometry":{"type":"MultiPolygon","coordinates":[[[[76.9002160264,8.8123664316],[76.903868951,8.81214428],[76.9100669526,8.8145475285],[76.910312029,8.8126992607],[76.9157089902,8.8144996751],[76.91992366,8.8128502376],[76.9208801192,8.816756672],[76.9265686832,8.814449699],[76.9278363179,8.8250865352],[76.9298273025,8.826782246],[76.9399731971,8.8233373211],[76.9440577892,8.8256149618],[76.9525512265,8.8234854639],[76.9502086045,8.8223158356],[76.9509287001,8.8179714303],[76.9455439943,8.816139963],[76.9421658954,8.8126254439],[76.9451836052,8.8096338946],[76.9404198627,8.7956272576],[76.9431481513,8.7930144607],[76.9434708856,8.7900298882],[76.9436737837,8.7828001435],[76.9414979116,8.7817168656],[76.9405224607,8.7778531686],[76.9422235919,8.770859851],[76.9399031998,8.7650269936],[76.9340983114,8.7614991349],[76.927894454,8.7678295313],[76.9150578682,8.7765984744],[76.916765332,8.7784973635],[76.9147720483,8.782127013],[76.9181290818,8.7825108042],[76.9181095848,8.784232252],[76.9214838451,8.785779929],[76.920939272,8.7878094086],[76.9170247502,8.7938722655],[76.9151336521,8.7939664899],[76.9140908075,8.7984712721],[76.9075090876,8.8020094455],[76.9002851748,8.8122531899],[76.9002160264,8.8123664316]]]]}},{"type":"Feature","properties":{"code":"G02044","name":"Kundara","type":"Grama Panchayat","leading":"UDF","seats":{"LDF":3,"UDF":8,"NDA":1,"OTHERS":2}},"geometry":{"type":"MultiPolygon","coordinates":[[[[76.6782774063,8.9599458231],[76.6681943291,8.9559023622],[76.6679727386,8.9589491374],[76.6649680259,8.9581356243],[76.6625979026,8.9629389183],[76.6638983593,8.9662876573],[76.67159,8.9644433334],[76.670957403,8.9751998011],[76.6798788366,8.9742721892],[76.6802403053,8.976396284],[76.6776187688,8.9788591638],[76.6775439275,8.9925891756],[76.6817150536,8.9982455435],[76.6811274246,9.0003216788],[76.6834639426,9.0006426109],[76.6869641797,8.992970071],[76.6910822795,8.991795676],[76.6947719239,8.9873559424],[76.7049081822,8.9864990478],[76.7078544516,8.9828234908],[76.7074236422,8.9802209698],[76.7034572987,8.9774379451],[76.6967895604,8.9761483885],[76.6934792695,8.97014774],[76.6841704741,8.9622656323],[76.6790139903,8.960256089],[76.6782774063,8.9599458231]]]]}},{"type":"Feature","properties":{"code":"G02011","name":"Kunnathur","type":"Grama Panchayat","leading":"LDF","seats":{"LDF":9,"UDF":5,"NDA":4,"OTHERS":0}},"geometry":{"type":"MultiPolygon","coordinates":[[[[76.6865686903,9.0580531635],[76.6888004953,9.0579674646],[76.6896035781,9.0520877818],[76.686946231,9.0502675567],[76.6845707912,9.0440091203],[76.6778054606,9.0425740543],[76.677425271,9.0371350797],[76.6720666443,9.0376680514],[76.6693951109,9.0413683346],[76.661661397,9.0403107471],[76.6597574839,9.0425531977],[76.6584221032,9.0514136432],[76.6614465243,9.0594726796],[76.6669045777,9.0655326452],[76.6685091766,9.0707285811],[76.667987226,9.0753247009],[76.6713931707,9.078547295],[76.6709522079,9.0799272658],[76.6744097046,9.080239466],[76.6781849339,9.0779538418],[76.6784905105,9.0814498435],[76.6836410407,9.0814204644],[76.6845942674,9.087369551],[76.6858878861,9.0869856958],[76.6894042912,9.0911300973],[76.7046037048,9.0883147278],[76.7067159927,9.085959531],[76.7114784626,9.0863621755],[76.7123740819,9.0829218013],[76.7248277089,9.0655738244],[76.7171199572,9.0652445824],[76.7128323557,9.0578307924],[76.7092963624,9.0593891599],[76.7060010112,9.0583151468],[76.7017914491,9.0641319315],[76.6870330148,9.0625249593],[76.6851360995,9.0595108078],[76.6862809537,9.0579932344],[76.6865686903,9.0580531635]]]]}},{"type":"Feature","properties":{"code":"G02053","name":"Mayyanad","type":"Grama Panchayat","leading":"UDF","seats":{"LDF":9,"UDF":15,"NDA":0,"OTHERS":0}},"geometry":{"type":"MultiPolygon","coordinates":[[[[76.6530931874,8.8214261338],[76.6530931874,8.8214261338],[76.6530931874,8.8214261338]]]]}},{"type":"Feature","properties":{"code":"G02016","name":"Melila","type":"Grama Panchayat","leading":"UDF","seats":{"LDF":5,"UDF":11,"NDA":0,"OTHERS":0}},"geometry":{"type":"MultiPolygon","coordinates":[[[[76.7973139313,8.9903008156],[76.7985369147,8.9872293864],[76.7941423283,8.9843979272],[76.7894801079,8.986252332],[76.7887419142,8.9896871856],[76.7871395126,8.9905016065],[76.7894700425,8.9935780562],[76.7892734626,8.9972926601],[76.7876888105,8.9975928963],[76.7909435563,8.9979516427],[76.7900705445,9.0013600049],[76.7961211514,9.0019464807],[76.7965092094,9.0035135643],[76.8020510129,9.0040201822],[76.8059359884,9.0066341688],[76.7988102155,9.0049358383],[76.7945426059,9.0076897259],[76.7983737179,9.0129787896],[76.8029709597,9.0141328399],[76.8048479103,9.0170947397],[76.8125236337,9.0173064676],[76.8179174234,9.0190312531],[76.8211209275,9.0219606471],[76.8258987009,9.0220344029],[76.8267128598,9.0239184575],[76.8300060356,9.0243009736],[76.836865073,9.0218590629],[76.8396322921,9.0190722777],[76.8529106003,9.0171109245],[76.8561779246,9.0153392363],[76.8679588674,9.017297968],[76.8754252845,9.0136033797],[76.872252836,9.0112088222],[76.8634356371,9.0125039254],[76.8617720814,9.0092038857],[76.8645020059,9.006739208],[76.864048571,9.0053606104],[76.8587733415,9.0036604238],[76.8545906655,9.0041607076],[76.8484106126,8.9955483351],[76.8452440474,8.9999407892],[76.8392962596,9.0014103213],[76.8344114982,9.000340751],[76.8334440374,9.0020254096],[76.8295059544,9.0008200601],[76.8283226899,9.0020899136],[76.8210841213,8.9963501021],[76.8083902411,8.9953150271],[76.8014054564,8.990044858],[76.7979193425,8.9905256817],[76.7973139313,8.9903008156]]],[[[76.8093787609,9.0167785548],[76.8093172539,9.0171457896],[76.8093787609,9.0167785548]]]]}},{"type":"Feature","properties":{"code":"G02047","name":"Mandrothuruthu","type":"Grama Panchayat","leading":"LDF","seats":{"LDF":9,"UDF":5,"NDA":0,"OTHERS":0}},"geometry":{"type":"MultiPolygon","coordinates":[[[[76.6115647235,8.9741569029],[76.6115647235,8.9741569029],[76.6115647235,8.9741569029]]]]}},{"type":"Feature","properties":{"code":"G02017","name":"Mylom","type":"Grama Panchayat","leading":"LDF","seats":{"LDF":11,"UDF":4,"NDA":5,"OTHERS":1}},"geometry":{"type":"MultiPolygon","coordinates":[[[[76.7764301917,9.0118491835],[76.7764301917,9.0118491835],[76.7764301917,9.0118491835]],[[76.7785604132,9.0647629904],[76.7785605319,9.0646184812],[76.7785604132,9.0647629904]]]]}},{"type":"Feature","properties":{"code":"G02013","name":"Mynagappally","type":"Grama Panchayat","leading":"LDF","seats":{"LDF":12,"UDF":7,"NDA":2,"OTHERS":3}},"geometry":{"type":"MultiPolygon","coordinates":[[[[76.5872224092,9.0170138767],[76.5872224092,9.0170138767],[76.5872224092,9.0170138767]]]]}},{"type":"Feature","properties":{"code":"G02057","name":"Nedumpana","type":"Grama Panchayat","leading":"UDF","seats":{"LDF":11,"UDF":12,"NDA":1,"OTHERS":0}},"geometry":{"type":"MultiPolygon","coordinates":[[[[76.6993131454,8.8857344598],[76.6949253116,8.8787510869],[76.6900729088,8.8854770676],[76.686041611,8.887814579],[76.687024791,8.8978685662],[76.6850147131,8.9014510154],[76.6867038497,8.90268255],[76.682176843,8.915018191],[76.6828237453,8.9213390067],[76.6912208113,8.9236393669],[76.695070847,8.9315489315],[76.695183959,8.9403090013],[76.6981069963,8.9517293746],[76.704923253,8.9518877735],[76.7048626881,8.9391228709],[76.7191481604,8.9286604103],[76.7198797468,8.9249661518],[76.7222123002,8.9251344902],[76.7247923998,8.9220489669],[76.7282459168,8.9214733501],[76.7302813621,8.9110307663],[76.726674911,8.9083077092],[76.7276219628,8.9073875688],[76.7261292866,8.9027243372],[76.7309566916,8.8997239142],[76.7389523294,8.8978087173],[76.7481628356,8.9020088684],[76.7446822166,8.8855250377],[76.7396554101,8.8829954337],[76.7366085841,8.8849930902],[76.7316426924,8.8842394878],[76.729341989,8.8860392357],[76.7300751366,8.8871924762],[76.7209252773,8.8902936957],[76.7093640753,8.8864576782],[76.6993177794,8.8872004717],[76.6993131454,8.8857344598]]]]}},{"type":"Feature","properties":{"code":"G02038","name":"Neduvathur","type":"Grama Panchayat","leading":"NDA","seats":{"LDF":7,"UDF":3,"NDA":8,"OTHERS":1}},"geometry":{"type":"MultiPolygon","coordinates":[[[[76.7374161863,8.9881244886],[76.7374161863,8.9881244886],[76.7374161863,8.9881244886]]]]}},{"type":"Feature","properties":{"code":"G02052","name":"Neendakara","type":"Grama Panchayat","leading":"UDF","seats":{"LDF":5,"UDF":7,"NDA":2,"OTHERS":0}},"geometry":{"type":"MultiPolygon","coordinates":[[[[76.5270683483,8.9722909136],[76.5342692534,8.9718615338],[76.5359969314,8.9643024606],[76.5381035484,8.9622966482],[76.5430718244,8.9613003417],[76.5440871806,8.9530316881],[76.5465900532,8.9521975672],[76.5487569022,8.9464242277],[76.5540544401,8.9432971326],[76.5483100248,8.9364114406],[76.5378843279,8.9342725462],[76.5271304671,8.9718913455],[76.5270683483,8.9722909136]]]]}},{"type":"Feature","properties":{"code":"G02064","name":"Nilamel","type":"Grama Panchayat","leading":"UDF","seats":{"LDF":1,"UDF":13,"NDA":0,"OTHERS":0}},"geometry":{"type":"MultiPolygon","coordinates":[[[[76.8408302333,8.8455568499],[76.8426370581,8.8446052625],[76.8455314961,8.8476595014],[76.8521246434,8.8417867744],[76.8558676274,8.8438514247],[76.8568078534,8.8461135597],[76.8634481807,8.8472186349],[76.8678453346,8.8434506159],[76.870637492,8.8455615307],[76.8715065664,8.8497860633],[76.8734725254,8.8501918244],[76.8745538704,8.8531837994],[76.8776879426,8.8535950066],[76.8864116665,8.8493416669],[76.8881255326,8.8451128649],[76.8863023047,8.8439854167],[76.8828328966,8.8447672731],[76.8818070563,8.8394771274],[76.8937113031,8.8285639009],[76.8923784519,8.8226998837],[76.8935593423,8.815860413],[76.8991036513,8.8131317136],[76.897548706,8.8116352968],[76.8866493901,8.8104427161],[76.8863757841,8.8086230653],[76.8835790586,8.8089743893],[76.8835824419,8.8070751173],[76.875902936,8.8105375218],[76.8707960415,8.8091515844],[76.8570978225,8.8183503568],[76.855301057,8.815880224],[76.8515090757,8.8174512403],[76.8489282479,8.8258527011],[76.8450261057,8.8283212906],[76.8477736697,8.8351236085],[76.8405799045,8.8388455263],[76.8393060978,8.8414349118],[76.8404638008,8.8456078024],[76.8408302333,8.8455568499]]]]}},{"type":"Feature","properties":{"code":"G02001","name":"Oachira","type":"Grama Panchayat","leading":"UDF","seats":{"LDF":3,"UDF":11,"NDA":4,"OTHERS":1}},"geometry":{"type":"MultiPolygon","coordinates":[[[[76.523119842,9.0992674155],[76.523119842,9.0992674155],[76.523119842,9.0992674155]]]]}},{"type":"Feature","properties":{"code":"G02042","name":"Panayam","type":"Grama Panchayat","leading":"LDF","seats":{"LDF":10,"UDF":2,"NDA":4,"OTHERS":2}},"geometry":{"type":"MultiPolygon","coordinates":[[[[76.6208206823,8.929492763],[76.6208206823,8.929492763],[76.6208206823,8.929492763]],[[76.613094658,8.9478177067],[76.6132519057,8.9477539317],[76.613094658,8.9478177067]]]]}},{"type":"Feature","properties":{"code":"G02051","name":"Panmana","type":"Grama Panchayat","leading":"UDF","seats":{"LDF":2,"UDF":22,"NDA":0,"OTHERS":0}},"geometry":{"type":"MultiPolygon","coordinates":[[[[76.5423761925,8.9950408741],[76.5423761925,8.9950408741],[76.5423761925,8.9950408741]]]]}},{"type":"Feature","properties":{"code":"G02025","name":"Pathanapuram","type":"Grama Panchayat","leading":"UDF","seats":{"LDF":7,"UDF":10,"NDA":0,"OTHERS":3}},"geometry":{"type":"MultiPolygon","coordinates":[[[[76.8478380953,9.073820714],[76.8478380953,9.073820714],[76.8478380953,9.073820714]]]]}},{"type":"Feature","properties":{"code":"G02023","name":"Pattazhi Vadakkekara","type":"Grama Panchayat","leading":"UDF","seats":{"LDF":4,"UDF":5,"NDA":4,"OTHERS":1}},"geometry":{"type":"MultiPolygon","coordinates":[[[[76.7809181189,9.0863620085],[76.7809181189,9.0863620085],[76.7809181189,9.0863620085]],[[76.7977882399,9.0950114881],[76.7977882399,9.0950114881],[76.7977882399,9.0950114881]]]]}},{"type":"Feature","properties":{"code":"G02024","name":"Pattazhi","type":"Grama Panchayat","leading":"UDF","seats":{"LDF":5,"UDF":7,"NDA":3,"OTHERS":0}},"geometry":{"type":"MultiPolygon","coordinates":[[[[76.7972719397,9.0564421997],[76.7911203765,9.0573033923],[76.7853275214,9.0627305438],[76.7798073814,9.0617509244],[76.7760078006,9.0677549962],[76.7728033776,9.0685703539],[76.7712144654,9.0788965685],[76.7795589089,9.0815196913],[76.7810879895,9.0890098227],[76.7880433258,9.0899579333],[76.7913011861,9.0871383782],[76.7970439257,9.0900014461],[76.8039400586,9.0902478249],[76.8163212207,9.0810416875],[76.8160732002,9.0789844655],[76.8178766859,9.0778009768],[76.8243113397,9.0800025346],[76.8282159988,9.0795991159],[76.8368220599,9.0725265638],[76.8462072802,9.0745844669],[76.8501657237,9.073007395],[76.8486303968,9.068409949],[76.845636486,9.0672981545],[76.8456961441,9.064351495],[76.8429511372,9.0628680556],[76.8379690521,9.0638255202],[76.8380945967,9.0616990205],[76.8348864,9.0608630059],[76.81761052,9.0645028073],[76.8078471543,9.0616355266],[76.8072674643,9.0587149468],[76.8031614314,9.0562932546],[76.7972953294,9.0563593959],[76.7972719397,9.0564421997]]]]}},{"type":"Feature","properties":{"code":"G02019","name":"Pavithreswaram","type":"Grama Panchayat","leading":"UDF","seats":{"LDF":5,"UDF":12,"NDA":3,"OTHERS":0}},"geometry":{"type":"MultiPolygon","coordinates":[[[[76.7027823604,9.0010256656],[76.7027823604,9.0010256656],[76.7027823604,9.0010256656]]]]}},{"type":"Feature","properties":{"code":"G02045","name":"Perayam","type":"Grama Panchayat","leading":"LDF","seats":{"LDF":10,"UDF":5,"NDA":0,"OTHERS":1}},"geometry":{"type":"MultiPolygon","coordinates":[[[[76.6472883229,8.9690750536],[76.6472883229,8.9690750536],[76.6472883229,8.9690750536]]]]}},{"type":"Feature","properties":{"code":"G02043","name":"Perinad","type":"Grama Panchayat","leading":"LDF","seats":{"LDF":10,"UDF":4,"NDA":7,"OTHERS":0}},"geometry":{"type":"MultiPolygon","coordinates":[[[[76.6414414574,8.9295379447],[76.6381863469,8.9306390854],[76.6357020039,8.9367484537],[76.6320215278,8.9407147195],[76.6334009747,8.9452193803],[76.6318633585,8.9465132528],[76.6331971269,8.9473346075],[76.6315736425,8.9474254461],[76.6268174465,8.9565500093],[76.6256059022,8.9689512477],[76.6205670674,8.9723750279],[76.6167543709,8.9774111529],[76.6193129451,8.9799046844],[76.6472883229,8.9690750536],[76.6577789642,8.9686609187],[76.6645535323,8.9584686915],[76.6679727386,8.9589491374],[76.6681943291,8.9559023622],[76.6705504242,8.9558725674],[76.6638307584,8.9505576142],[76.6562415705,8.9399135375],[76.6485290755,8.9329521828],[76.6415802079,8.9296484193],[76.6414414574,8.9295379447]]]]}},{"type":"Feature","properties":{"code":"G02022","name":"Piravanthur","type":"Grama Panchayat","leading":"UDF","seats":{"LDF":7,"UDF":11,"NDA":3,"OTHERS":0}},"geometry":{"type":"MultiPolygon","coordinates":[[[[76.8999023245,9.0424590629],[76.8983066436,9.0444763674],[76.8941126254,9.0445149981],[76.8898495512,9.0483845444],[76.8842078208,9.0490343623],[76.8809298742,9.0510727054],[76.8777002135,9.049438964],[76.8702804701,9.0557426452],[76.8702048589,9.0675357159],[76.8674946448,9.0737406886],[76.8693912156,9.0773250253],[76.8672320317,9.081149126],[76.8754538546,9.0842475083],[76.8734184276,9.0849779206],[76.873217074,9.0884196213],[76.8814747505,9.0929150636],[76.8771562845,9.0949173087],[76.8751165306,9.0991838246],[76.882410598,9.0954331193],[76.8888746937,9.0978899893],[76.8994162283,9.0967777288],[76.9045077327,9.0994418904],[76.9053309317,9.1074392541],[76.9095908575,9.1052475952],[76.9198359164,9.1078673371],[76.9190595346,9.1141319501],[76.9260764388,9.1148803066],[76.9262169759,9.1181737791],[76.9359442926,9.1158254817],[76.9428549448,9.118692329],[76.9485047071,9.1174937098],[76.955922207,9.1244804261],[76.9560564092,9.1265514823],[76.9587548314,9.1271243015],[76.9593379701,9.1301892618],[76.9495651144,9.1311308631],[76.940808137,9.1387298983],[76.936715452,9.1359130474],[76.9263384505,9.139159952],[76.9271648946,9.1496300797],[76.9258954566,9.152308803],[76.9287995298,9.1733424135],[76.9332513198,9.1709873135],[76.9346003504,9.1684357017],[76.9395397934,9.16795069],[76.9414684213,9.1632814621],[76.9521664097,9.1574911731],[76.9564621557,9.1517285533],[76.9608814025,9.1508865699],[76.9616974026,9.1477104211],[76.9669576348,9.1509827018],[76.9766626122,9.1460891156],[76.9798888275,9.1470773296],[76.9804509394,9.1435248499],[76.9837863633,9.1414465653],[76.991391243,9.1386359273],[77.0015998302,9.1380257078],[77.0036409267,9.1361308183],[77.0099498629,9.1400744259],[77.0171773088,9.1358466539],[77.0183306302,9.1311920329],[77.0220077629,9.1308200592],[77.0254922203,9.1283093823],[77.0293940496,9.1298143066],[77.0326957913,9.1264233238],[77.0393746738,9.1245614083],[77.0388838456,9.0982315448],[77.0328825669,9.0640779257],[77.0131519113,9.06924156],[77.0113188204,9.0723886226],[77.0091026396,9.0725269982],[77.0083173588,9.0703219276],[77.003246907,9.0708279312],[77.0000590249,9.0690720248],[76.9947732231,9.0731061212],[76.9894325974,9.0627593171],[76.984755226,9.0597094426],[76.985171653,9.0560473912],[76.9814473835,9.0574914489],[76.9792670535,9.0535944272],[76.9765248907,9.0528155961],[76.976078616,9.0552546791],[76.9736197362,9.0551818301],[76.9730510565,9.0525905957],[76.970204062,9.0528694598],[76.9644676866,9.0472650935],[76.9543994659,9.0551616143],[76.9471860719,9.0569460534],[76.9444206445,9.0518232191],[76.9464129353,9.0528910377],[76.9515360327,9.0479629554],[76.9516441259,9.0456515322],[76.9491847235,9.0440036355],[76.9501215586,9.0425688616],[76.9567977462,9.038889876],[76.9600234683,9.034056657],[76.9621943627,9.0333154375],[76.9606069085,9.0292138103],[76.9502953287,9.0361211409],[76.9487840651,9.0347302574],[76.9419445896,9.0375675037],[76.9360972521,9.0345649243],[76.9299314831,9.0391589064],[76.9306806379,9.0409876307],[76.9278894656,9.0426726799],[76.9283787125,9.0413037105],[76.9243283187,9.0381411031],[76.9206262053,9.0414765158],[76.9158825754,9.0341130122],[76.9068440256,9.0377901649],[76.901874599,9.0381901107],[76.9020483409,9.0410574452],[76.9006637873,9.0419338562],[76.8999023245,9.0424590629]]]]}},{"type":"Feature","properties":{"code":"G02066","name":"Poothakkulam","type":"Grama Panchayat","leading":"LDF","seats":{"LDF":9,"UDF":4,"NDA":6,"OTHERS":0}},"geometry":{"type":"MultiPolygon","coordinates":[[[[76.6767486305,8.788564026],[76.6750455065,8.7995579305],[76.6768277771,8.8107453445],[76.679608977,8.8111566308],[76.6800001979,8.8125239248],[76.6848896956,8.8125715159],[76.6877519001,8.8195018314],[76.6906868865,8.8202386016],[76.6916247702,8.8247767316],[76.6962253021,8.8286649248],[76.7085126363,8.8174867076],[76.7169488594,8.8190896944],[76.723324452,8.8158335448],[76.7245283074,8.8115096987],[76.7220756301,8.8082213328],[76.7216350524,8.8033065032],[76.7146643653,8.7963604597],[76.7090885281,8.7950596448],[76.7098425936,8.7916984597],[76.6951317978,8.7907025027],[76.6934183417,8.7917944399],[76.6906574035,8.7794346481],[76.685064987,8.7795432977],[76.6840188688,8.7766643864],[76.6824657822,8.7765939065],[76.6826041547,8.7796157438],[76.6775594549,8.7887740776],[76.6767486305,8.788564026]]]]}},{"type":"Feature","properties":{"code":"G02035","name":"Pooyappally","type":"Grama Panchayat","leading":"UDF","seats":{"LDF":8,"UDF":9,"NDA":0,"OTHERS":0}},"geometry":{"type":"MultiPolygon","coordinates":[[[[76.7615846689,8.860898881],[76.7615846689,8.860898881],[76.7615846689,8.860898881]]]]}},{"type":"Feature","properties":{"code":"G02010","name":"Poruvazhi","type":"Grama Panchayat","leading":"LDF","seats":{"LDF":8,"UDF":4,"NDA":4,"OTHERS":3}},"geometry":{"type":"MultiPolygon","coordinates":[[[[76.66214491,9.0649862257],[76.6466088055,9.0650618688],[76.6482951824,9.0693162893],[76.6474912593,9.0776704436],[76.6446514471,9.0758473158],[76.631411242,9.0763437011],[76.6310828191,9.0838894422],[76.6338943805,9.08496629],[76.633484929,9.0880381145],[76.6384431618,9.088800208],[76.6374812908,9.093453148],[76.6420868627,9.102793944],[76.6500280201,9.1134437175],[76.6503296637,9.1167137925],[76.656399382,9.1134447266],[76.660907133,9.1159997888],[76.6644011548,9.1142233618],[76.665671298,9.1158537378],[76.6693715188,9.1168681778],[76.6699259792,9.1155706387],[76.6705915004,9.1172856552],[76.6727703643,9.1175223495],[76.6730712488,9.1152221979],[76.6757713643,9.1141969084],[76.6745513533,9.1133994013],[76.6760595256,9.1064279743],[76.6755920922,9.0960248357],[76.6771932741,9.0919268808],[76.6743809537,9.0850528937],[76.6718999748,9.0837537124],[76.6713931707,9.078547295],[76.6682003324,9.075975572],[76.6669045777,9.0655326452],[76.6627812382,9.064962539],[76.66214491,9.0649862257]]]]}},{"type":"Feature","properties":{"code":"G02007","name":"Sasthamcotta","type":"Grama Panchayat","leading":"LDF","seats":{"LDF":11,"UDF":9,"NDA":0,"OTHERS":1}},"geometry":{"type":"MultiPolygon","coordinates":[[[[76.6213197758,9.0325665299],[76.6183930227,9.0317241153],[76.6177714501,9.0298590799],[76.6124372381,9.03047513],[76.6125697395,9.040314174],[76.611112195,9.043141212],[76.5999139879,9.0442815949],[76.5985165429,9.0490130282],[76.6009539508,9.0510507537],[76.6000964261,9.0537818929],[76.6019370705,9.0586994844],[76.6111926437,9.0606552409],[76.6133914493,9.0583902248],[76.6305030623,9.0558955468],[76.6318608399,9.0589910146],[76.6338419133,9.0590187915],[76.6351734683,9.0668770258],[76.6299299925,9.0680729134],[76.6299364025,9.0760567244],[76.6446514471,9.0758473158],[76.6472058057,9.0777253831],[76.6482951824,9.0693162893],[76.6466088055,9.0650618688],[76.6665785822,9.0649587155],[76.6614465243,9.0594726796],[76.658504828,9.0517053387],[76.6597574839,9.0425531977],[76.6618826898,9.0402214222],[76.6693951109,9.0413683346],[76.6720666443,9.0376680514],[76.6776372523,9.0372142538],[76.6775691462,9.0275655265],[76.6762094838,9.0269854965],[76.6739657771,9.028991078],[76.6641800588,9.0253905302],[76.6613656966,9.0291291561],[76.6576571449,9.0270282086],[76.6490727707,9.0286361953],[76.6454750843,9.0276762927],[76.6506163516,9.0341328128],[76.6496188179,9.0404171918],[76.6480315526,9.0386884971],[76.6461073793,9.0396415261],[76.6436716356,9.0350297445],[76.639004821,9.0338049776],[76.6366784547,9.031023013],[76.636951124,9.0339443335],[76.6319983946,9.0353299774],[76.6306642427,9.0339855945],[76.6281184076,9.0363072361],[76.6240012051,9.0339871649],[76.62492996,9.0317276516],[76.6215496269,9.0325851899],[76.6213197758,9.0325665299]]]]}},{"type":"Feature","properties":{"code":"G02012","name":"Sooranad North","type":"Grama Panchayat","leading":"UDF","seats":{"LDF":7,"UDF":8,"NDA":2,"OTHERS":2}},"geometry":{"type":"MultiPolygon","coordinates":[[[[76.6215935476,9.0885573155],[76.6125921422,9.0892168454],[76.6096746446,9.09054468],[76.6100387423,9.093438051],[76.5983992942,9.0897947457],[76.6021832328,9.0992019177],[76.6021319047,9.1027260034],[76.5991621208,9.1069920323],[76.6004607658,9.1100890872],[76.5995065524,9.1120825708],[76.6007153211,9.1119609731],[76.6002731202,9.114012441],[76.6025099277,9.1160878109],[76.6013242295,9.1247081885],[76.6038057211,9.1313064718],[76.6082793992,9.1293947354],[76.6099063904,9.1311729496],[76.6149061196,9.1305565687],[76.6232912683,9.1385536744],[76.632640198,9.1382859352],[76.6347340536,9.1411000904],[76.6376251234,9.1417493569],[76.6378803798,9.1319407861],[76.6349526004,9.122245154],[76.6371246417,9.1208548603],[76.6396114899,9.1225546558],[76.640676927,9.1214697782],[76.6451872617,9.1222512502],[76.6448105639,9.1202535382],[76.6477090492,9.1186593313],[76.6473308041,9.1167656089],[76.6503296637,9.1167137925],[76.6500280201,9.1134437175],[76.6420868627,9.102793944],[76.6374812908,9.093453148],[76.6384431618,9.088800208],[76.6220383953,9.0885651372],[76.6215935476,9.0885573155]]]]}},{"type":"Feature","properties":{"code":"G02009","name":"Sooranad South","type":"Grama Panchayat","leading":"UDF","seats":{"LDF":7,"UDF":8,"NDA":2,"OTHERS":0}},"geometry":{"type":"MultiPolygon","coordinates":[[[[76.6004303702,9.0551559111],[76.6000964261,9.0537818929],[76.5966337153,9.0544233629],[76.5861014648,9.05853818],[76.5856579107,9.0672436764],[76.5771359253,9.0661288726],[76.5763894435,9.0682145808],[76.5813401807,9.0701409715],[76.5835504468,9.0728580989],[76.5871848167,9.0724989365],[76.5857066289,9.0757811586],[76.5915556661,9.0809529732],[76.5967520412,9.0825357686],[76.5968395533,9.0886113083],[76.5994024098,9.0907604648],[76.6100387423,9.093438051],[76.6096746446,9.09054468],[76.6145892321,9.0885171687],[76.633484929,9.0880381145],[76.6338943805,9.08496629],[76.6310828191,9.0838894422],[76.6320056136,9.0789376426],[76.631411242,9.0763437011],[76.6299364025,9.0760567244],[76.6298074017,9.0684579304],[76.6351734683,9.0668770258],[76.6338419133,9.0590187915],[76.6318608399,9.0589910146],[76.6305030623,9.0558955468],[76.6271916977,9.0558352932],[76.6194559619,9.0584689909],[76.6133914493,9.0583902248],[76.6121379355,9.0604652294],[76.606085395,9.0605854744],[76.6047183245,9.0588280441],[76.6022306315,9.0590070613],[76.6010120779,9.0564414147],[76.6004303702,9.0551559111]]]]}},{"type":"Feature","properties":{"code":"G02021","name":"Thalavoor","type":"Grama Panchayat","leading":"UDF","seats":{"LDF":8,"UDF":9,"NDA":4,"OTHERS":0}},"geometry":{"type":"MultiPolygon","coordinates":[[[[76.8097476496,9.0167884521],[76.8097476496,9.0167884521],[76.8097476496,9.0167884521]]]]}},{"type":"Feature","properties":{"code":"G02003","name":"Thazhava","type":"Grama Panchayat","leading":"LDF","seats":{"LDF":10,"UDF":9,"NDA":5,"OTHERS":0}},"geometry":{"type":"MultiPolygon","coordinates":[[[[76.5699848409,9.0844240748],[76.5647813642,9.082284581],[76.5582455217,9.0821623386],[76.5573106316,9.0877283286],[76.5456776422,9.0876544638],[76.5457658608,9.0862296193],[76.5364931792,9.078162355],[76.533504323,9.0868688379],[76.533099154,9.0953437995],[76.5358024156,9.1014965132],[76.537836876,9.1025697411],[76.5390781873,9.1073724179],[76.5379680821,9.1134272993],[76.5409984553,9.1141629419],[76.5406015624,9.1162553918],[76.5487201041,9.1180650298],[76.5517169239,9.1106420568],[76.5679207118,9.1110068957],[76.5752413535,9.1176226686],[76.5794134001,9.1149998265],[76.5807268487,9.1169344339],[76.5842754709,9.1166790251],[76.5833207204,9.1188280479],[76.5850065976,9.1224376489],[76.5892103304,9.1233572644],[76.5894199752,9.1279896862],[76.5879979715,9.1293589587],[76.5915960307,9.1320169348],[76.5980690631,9.1331570329],[76.6031564924,9.1303111618],[76.6010074893,9.1228183186],[76.6025099277,9.1160878109],[76.6002731202,9.114012441],[76.6007153211,9.1119609731],[76.5995065524,9.1120825708],[76.6004607658,9.1100890872],[76.5991621208,9.1069920323],[76.6021319047,9.1027260034],[76.6009488033,9.0945581584],[76.5989354507,9.09183525],[76.5845248218,9.0936478576],[76.5781620144,9.093447455],[76.5746069024,9.0916730797],[76.5721685141,9.0945840181],[76.5699979884,9.0845217981],[76.5699848409,9.0844240748]]]]}},{"type":"Feature","properties":{"code":"G02048","name":"Thekkumbhagam","type":"Grama Panchayat","leading":"LDF","seats":{"LDF":6,"UDF":5,"NDA":3,"OTHERS":0}},"geometry":{"type":"MultiPolygon","coordinates":[[[[76.5682405648,8.9484034583],[76.5682405648,8.9484034583],[76.5682405648,8.9484034583]]]]}},{"type":"Feature","properties":{"code":"G02032","name":"Thenmala","type":"Grama Panchayat","leading":"LDF","seats":{"LDF":12,"UDF":4,"NDA":0,"OTHERS":1}},"geometry":{"type":"MultiPolygon","coordinates":[[[[77.00236282,8.9838722352],[77.00236282,8.9838722352],[77.00236282,8.9838722352]]]]}},{"type":"Feature","properties":{"code":"G02050","name":"Thevalakkara","type":"Grama Panchayat","leading":"UDF","seats":{"LDF":9,"UDF":14,"NDA":0,"OTHERS":1}},"geometry":{"type":"MultiPolygon","coordinates":[[[[76.5718515953,8.982855211],[76.5718515953,8.982855211],[76.5718515953,8.982855211]],[[76.5719139702,8.9827830999],[76.5719082184,8.9828477536],[76.5719139702,8.9827830999]]]]}},{"type":"Feature","properties":{"code":"G02006","name":"Thodiyoor","type":"Grama Panchayat","leading":"LDF","seats":{"LDF":13,"UDF":9,"NDA":2,"OTHERS":0}},"geometry":{"type":"MultiPolygon","coordinates":[[[[76.5541416668,9.0361550093],[76.5497496273,9.0376487385],[76.5526570584,9.0385872009],[76.55336378,9.040619435],[76.5517553209,9.0413316346],[76.550319163,9.0490230766],[76.5434657498,9.0529779925],[76.5446767439,9.0594483837],[76.5364931792,9.078162355],[76.5453553325,9.0858732897],[76.5456776422,9.0876544638],[76.5573106316,9.0877283286],[76.5582455217,9.0821623386],[76.568455812,9.083090025],[76.5706684705,9.0855307919],[76.5701607466,9.0891963998],[76.5719805713,9.0911474676],[76.5721685141,9.0945840181],[76.5746069024,9.0916730797],[76.5781620144,9.093447455],[76.5845248218,9.0936478576],[76.5989354507,9.09183525],[76.5968395533,9.0886113083],[76.5967520412,9.0825357686],[76.5915556661,9.0809529732],[76.5857066289,9.0757811586],[76.5871848167,9.0724989365],[76.5835504468,9.0728580989],[76.5813401807,9.0701409715],[76.5769572147,9.0693999175],[76.5769448446,9.0664589548],[76.5744595278,9.0652220408],[76.5700511472,9.0639137088],[76.5677503005,9.064883962],[76.5668778051,9.0606892265],[76.568918733,9.0565366431],[76.5675478996,9.0524940627],[76.5700507447,9.0470074866],[76.5680245665,9.0458474236],[76.5632806234,9.0465157895],[76.560158652,9.0416245354],[76.5638042176,9.0370329666],[76.5636909048,9.0317760416],[76.5625142621,9.0310305113],[76.5579146358,9.0333808012],[76.5554998945,9.0309422158],[76.5544913075,9.035896856],[76.5541416668,9.0361550093]]]]}},{"type":"Feature","properties":{"code":"G02041","name":"Thrikkaruva","type":"Grama Panchayat","leading":"UDF","seats":{"LDF":7,"UDF":9,"NDA":2,"OTHERS":0}},"geometry":{"type":"MultiPolygon","coordinates":[[[[76.5575613359,8.9360611845],[76.5603549581,8.9412349621],[76.5779815103,8.9576938266],[76.5824526537,8.9763918486],[76.605347985,8.9742127127],[76.6062876423,8.9714159743],[76.6077723007,8.9719433568],[76.6068565158,8.9647056156],[76.609288044,8.9632894824],[76.6134140823,8.9648449168],[76.614438857,8.963799568],[76.6147215578,8.9622585673],[76.6097596576,8.9612978608],[76.6066951556,8.9565303068],[76.6090075563,8.9538654073],[76.6156718652,8.9522900821],[76.6106392124,8.9433192169],[76.6106599138,8.9370078479],[76.6053376987,8.9343199798],[76.6021754295,8.9350711306],[76.600957171,8.9371021594],[76.5919363822,8.9351126528],[76.5902578328,8.9324369824],[76.5913855443,8.9290879039],[76.5856701692,8.9295085507],[76.582549695,8.9278539494],[76.5820866597,8.9249772385],[76.5787394501,8.9262549449],[76.5720629312,8.9237183357],[76.5688659725,8.9241507162],[76.5676378289,8.9315343751],[76.5579183335,8.9364735878],[76.5575613359,8.9360611845]]]]}},{"type":"Feature","properties":{"code":"G02055","name":"Thrikkovilvattom","type":"Grama Panchayat","leading":"UDF","seats":{"LDF":8,"UDF":10,"NDA":4,"OTHERS":2}},"geometry":{"type":"MultiPolygon","coordinates":[[[[76.6530728017,8.8757653556],[76.6530728017,8.8757653556],[76.6530728017,8.8757653556]],[[76.6419194645,8.8793928869],[76.6419194645,8.8793928869],[76.6419194645,8.8793928869]]]]}},{"type":"Feature","properties":{"code":"G02014","name":"Ummannoor","type":"Grama Panchayat","leading":"TIE","seats":{"LDF":9,"UDF":9,"NDA":3,"OTHERS":0}},"geometry":{"type":"MultiPolygon","coordinates":[[[[76.8139603255,8.9346098709],[76.8139603255,8.9346098709],[76.8139603255,8.9346098709]]]]}},{"type":"Feature","properties":{"code":"G02062","name":"Velinalloor","type":"Grama Panchayat","leading":"LDF","seats":{"LDF":10,"UDF":6,"NDA":2,"OTHERS":1}},"geometry":{"type":"MultiPolygon","coordinates":[[[[76.7804533281,8.8600693193],[76.7757707219,8.8616619563],[76.7667265844,8.8548049216],[76.7615846689,8.860898881],[76.7636874054,8.8592350939],[76.7668638811,8.8615560778],[76.7673105213,8.8675617179],[76.7706637635,8.8721063967],[76.7738985953,8.8840054141],[76.7767851991,8.8845765899],[76.7787586455,8.8898133124],[76.7875750708,8.8973094218],[76.7879747489,8.9029414144],[76.7962294508,8.9036016152],[76.7982520703,8.901935719],[76.8042272241,8.9038808991],[76.8157693374,8.8992674317],[76.8193590084,8.9014185074],[76.8221020912,8.9006257304],[76.8246715151,8.8973655144],[76.8238955859,8.8939980747],[76.825799322,8.8907522351],[76.8227147458,8.8872260452],[76.8234644093,8.8846125121],[76.8202274097,8.8782121511],[76.8144623119,8.8747635014],[76.815859335,8.869651259],[76.8118366992,8.8669813329],[76.8114447299,8.8615426991],[76.8142163303,8.8622206975],[76.8150977318,8.8610639222],[76.8208298224,8.8642446445],[76.8239436558,8.8637125878],[76.8258542534,8.8699917392],[76.8331350478,8.8621501908],[76.8364874952,8.8618746706],[76.8312313317,8.8572006209],[76.8278581939,8.8580996702],[76.8260988428,8.8524151008],[76.8228788488,8.855801366],[76.8197162296,8.8536533998],[76.8165098601,8.8597175544],[76.8140462695,8.8557939513],[76.8107437536,8.8540918408],[76.8060913149,8.85677191],[76.8069637973,8.8547767442],[76.8013942864,8.8483029775],[76.7943100463,8.856246344],[76.7938755676,8.8541090395],[76.7902171121,8.8525841945],[76.7845590357,8.8589915346],[76.7835567235,8.8625153449],[76.7803968625,8.86044434],[76.7804533281,8.8600693193]]]]}},{"type":"Feature","properties":{"code":"G02034","name":"Veliyam","type":"Grama Panchayat","leading":"LDF","seats":{"LDF":16,"UDF":3,"NDA":1,"OTHERS":0}},"geometry":{"type":"MultiPolygon","coordinates":[[[[76.753843515,8.9168304223],[76.753843515,8.9168304223],[76.753843515,8.9168304223]]]]}},{"type":"Feature","properties":{"code":"G02015","name":"Vettikavala","type":"Grama Panchayat","leading":"LDF","seats":{"LDF":11,"UDF":9,"NDA":2,"OTHERS":0}},"geometry":{"type":"MultiPolygon","coordinates":[[[[76.8152670318,8.961968011],[76.8152670318,8.961968011],[76.8152670318,8.961968011]],[[76.8478230761,8.9956668959],[76.8478230761,8.9956668959],[76.8478230761,8.9956668959]]]]}},{"type":"Feature","properties":{"code":"G02020","name":"Vilakkudy","type":"Grama Panchayat","leading":"LDF","seats":{"LDF":11,"UDF":9,"NDA":0,"OTHERS":1}},"geometry":{"type":"MultiPolygon","coordinates":[[[[76.8698505269,9.0163731201],[76.8698505269,9.0163731201],[76.8698505269,9.0163731201]]]]}},{"type":"Feature","properties":{"code":"G02008","name":"West Kallada","type":"Grama Panchayat","leading":"LDF","seats":{"LDF":7,"UDF":5,"NDA":2,"OTHERS":1}},"geometry":{"type":"MultiPolygon","coordinates":[[[[76.6120625854,9.0011706398],[76.605539208,9.0013738671],[76.6059850908,9.0062709683],[76.6039033745,9.0085478121],[76.6023689992,9.0157825357],[76.6044186436,9.0258330735],[76.6136936831,9.0276099735],[76.6130308936,9.0302836981],[76.6177714501,9.0298590799],[76.6183930227,9.0317241153],[76.6220213337,9.0326954231],[76.62492996,9.0317276516],[76.6240012051,9.0339871649],[76.6277972368,9.0362653512],[76.6306642427,9.0339855945],[76.6319983946,9.0353299774],[76.636951124,9.0339443335],[76.6366784547,9.031023013],[76.639004821,9.0338049776],[76.6436716356,9.0350297445],[76.6461073793,9.0396415261],[76.6480315526,9.0386884971],[76.6496188179,9.0404171918],[76.6506163516,9.0341328128],[76.6451376821,9.0278371384],[76.6469636593,9.0272083943],[76.6453906651,9.0232374595],[76.6465457557,9.0165706322],[76.6438737456,9.0157931473],[76.6392381375,9.0188101834],[76.636972212,9.0159850323],[76.6326042373,9.0150324672],[76.6345193998,9.0092279086],[76.6313314312,9.0057601854],[76.6179404462,9.0000355393],[76.6128365541,9.0008417737],[76.6120625854,9.0011706398]]]]}},{"type":"Feature","properties":{"code":"G02027","name":"Yeroor","type":"Grama Panchayat","leading":"LDF","seats":{"LDF":16,"UDF":4,"NDA":1,"OTHERS":0}},"geometry":{"type":"MultiPolygon","coordinates":[[[[76.9513212003,8.9078715859],[76.9498955688,8.9050182445],[76.9467252568,8.9056721683],[76.9416955344,8.9121745934],[76.9400349576,8.911345149],[76.9388604453,8.9140805129],[76.9359044253,8.9138775623],[76.9330040836,8.9189351908],[76.933032512,8.9246779639],[76.929087154,8.924883793],[76.9279433678,8.9323547821],[76.9299924801,8.9339640387],[76.9296931444,8.9395257021],[76.9269599894,8.9401526677],[76.9297001845,8.9448231139],[76.9269015353,8.9475809479],[76.9339685554,8.9525151447],[76.9350550552,8.9559167504],[76.9411541062,8.9605974438],[76.9384587504,8.9675904987],[76.9345517868,8.9699240355],[76.9395699256,8.9702964109],[76.9408478217,8.968832542],[76.9485591985,8.9686702232],[76.9498105908,8.9673895658],[76.9517188326,8.9696748053],[76.9617676134,8.9728763302],[76.9649933982,8.9818023133],[76.9614692378,8.987705914],[76.9640617355,8.9928015672],[76.9704399343,8.9926953023],[76.9708213522,8.9972803135],[76.9726851749,8.9975648251],[76.9919658563,8.9873186185],[76.9948445477,8.9835146292],[77.0000234292,8.982200067],[77.0024883732,8.9776158641],[77.0000068657,8.9689212933],[77.001344117,8.9496644576],[77.0047541513,8.9496803988],[77.0044572397,8.9520140058],[77.005897747,8.9527047434],[77.0111762149,8.952350617],[77.0131380866,8.949501929],[77.0098101503,8.9464215687],[77.0067942334,8.9462740763],[77.0052059994,8.9412863399],[77.0018586586,8.9414130232],[77.0023085713,8.9441367387],[77.0002022969,8.9424568785],[76.9992127056,8.9360799022],[76.9902344655,8.9332348039],[76.9895515414,8.9302489513],[76.9852091419,8.9300122742],[76.9862186638,8.9280314993],[76.9883656645,8.9282247356],[76.9892665395,8.9257647624],[76.9874776518,8.9185239129],[76.9940912871,8.9157917737],[76.9837880954,8.9070269497],[76.9733098221,8.893319396],[76.9582367831,8.9085313873],[76.9542832146,8.9109407138],[76.9513982521,8.9081966527],[76.9513212003,8.9078715859]]]]}},{"type":"Feature","properties":{"code":"M02007","name":"Karunagappally","type":"Municipality","leading":"UDF","seats":{"LDF":12,"UDF":19,"NDA":6,"OTHERS":0}},"geometry":{"type":"MultiPolygon","coordinates":[[[[76.5212384803,9.0201205277],[76.5160537901,9.0350319293],[76.5092827954,9.0386237136],[76.5076815499,9.0485119219],[76.5007247469,9.0624757937],[76.5055163407,9.0658489328],[76.512362596,9.0657727248],[76.5328714901,9.0702379787],[76.5322500564,9.0749926254],[76.5364931792,9.078162355],[76.5446767439,9.0594483837],[76.5448809353,9.0559786964],[76.5372409217,9.0402631462],[76.5388221095,9.0368402247],[76.5372975027,9.0276240076],[76.5218273142,9.0202769475],[76.5212384803,9.0201205277]]]]}},{"type":"Feature","properties":{"code":"M02087","name":"Kottarakkara","type":"Municipality","leading":"LDF","seats":{"LDF":17,"UDF":7,"NDA":5,"OTHERS":1}},"geometry":{"type":"MultiPolygon","coordinates":[[[[76.7573095179,8.9727484283],[76.7566745571,8.9689616961],[76.7546384335,8.9675705797],[76.7483287281,8.9676484076],[76.7473305954,8.9692613495],[76.7542536685,8.987074717],[76.7534527064,8.9884400517],[76.7577442485,8.9923163452],[76.7566360938,8.9976175628],[76.7577156016,9.0026911543],[76.7641972993,9.0095310723],[76.7647260485,9.0151993684],[76.7750034731,9.0112587659],[76.7846741025,9.0137100564],[76.7851567278,9.0084447178],[76.7947527107,9.008263035],[76.7988102155,9.0049358383],[76.8059359884,9.0066341688],[76.8020510129,9.0040201822],[76.7965092094,9.0035135643],[76.7961211514,9.0019464807],[76.7900705445,9.0013600049],[76.7909435563,8.9979516427],[76.7876888105,8.9975928963],[76.7892734626,8.9972926601],[76.7894700425,8.9935780562],[76.7872134351,8.9901882899],[76.7887419142,8.9896871856],[76.789377102,8.986361268],[76.7928995488,8.9840139485],[76.790697534,8.9803574582],[76.79170772,8.9777544619],[76.7873495101,8.974882207],[76.7785220621,8.9738034437],[76.7781078769,8.9724373506],[76.7756367128,8.9747591811],[76.7732132109,8.973583303],[76.7747646201,8.970353858],[76.7685942851,8.9683039438],[76.7619676595,8.969923492],[76.7589926635,8.9742759808],[76.7573126192,8.9729589963],[76.7573095179,8.9727484283]]]]}},{"type":"Feature","properties":{"code":"M02005","name":"Paravoor","type":"Municipality","leading":"LDF","seats":{"LDF":20,"UDF":5,"NDA":6,"OTHERS":1}},"geometry":{"type":"MultiPolygon","coordinates":[[[[76.6756991341,8.7920549358],[76.6763868179,8.7854748587],[76.6731667699,8.7814652025],[76.648603686,8.810710701],[76.6449737457,8.8192559078],[76.6525135376,8.821034753],[76.6577455899,8.8246659587],[76.6624839993,8.840648128],[76.6666169343,8.8433252499],[76.669654044,8.8408069542],[76.6707496141,8.8333437305],[76.6743757055,8.8331441575],[76.6767609407,8.8311974751],[76.6778425399,8.8348859784],[76.6932238342,8.8333206167],[76.6962165312,8.828012021],[76.6916247702,8.8247767316],[76.6906868865,8.8202386016],[76.6877519001,8.8195018314],[76.6865433249,8.8145181524],[76.6848896956,8.8125715159],[76.6800001979,8.8125239248],[76.679608977,8.8111566308],[76.6768277771,8.8107453445],[76.675066853,8.801801038],[76.6757884053,8.7922302815],[76.6756991341,8.7920549358]]]]}},{"type":"Feature","properties":{"code":"M02006","name":"Punalur","type":"Municipality","leading":"LDF","seats":{"LDF":21,"UDF":14,"NDA":1,"OTHERS":0}},"geometry":{"type":"MultiPolygon","coordinates":[[[[76.9281414168,8.9938525441],[76.9275313601,8.9969042605],[76.9240812146,8.9979917834],[76.9280301683,9.001378487],[76.9227871967,9.0039547462],[76.9232773567,9.0052613318],[76.9177451012,9.0048753625],[76.9133519509,9.0082918396],[76.9138120226,9.0116755369],[76.9121717546,9.0117841809],[76.9099644355,9.0194007946],[76.8932135019,9.0227744196],[76.8910702348,9.02660065],[76.8800706762,9.0303222456],[76.878389548,9.029578716],[76.8726008921,9.0317609244],[76.873371618,9.0327867886],[76.8820226103,9.0322629157],[76.8843379578,9.0302326739],[76.8844335425,9.0332755421],[76.8867794925,9.0341038252],[76.8894944402,9.0327631743],[76.8899938717,9.0342447934],[76.8951886917,9.03284653],[76.8953488459,9.0302420691],[76.8991040588,9.0292870521],[76.9081166332,9.0323392933],[76.9086332359,9.0348373783],[76.9068440256,9.0377901649],[76.9164305216,9.0342240748],[76.9206262053,9.0414765158],[76.9243283187,9.0381411031],[76.9283787125,9.0413037105],[76.9278894656,9.0426726799],[76.9306806379,9.0409876307],[76.9299314831,9.0391589064],[76.9363586416,9.0344834105],[76.9381890388,9.0366722046],[76.9419445896,9.0375675037],[76.9487840651,9.0347302574],[76.9502953287,9.0361211409],[76.9578268264,9.0304264495],[76.9563999943,9.0276131665],[76.9612733153,9.0245939564],[76.9641094506,9.0188186817],[76.9649985879,9.0085832116],[76.9698543683,9.0057899327],[76.9717105118,9.0026021104],[76.9700004461,8.9985321441],[76.9704399343,8.9926953023],[76.9651144604,8.9934015071],[76.9614692378,8.987705914],[76.9649933982,8.9818023133],[76.9644377544,8.9775256799],[76.9607270273,8.97175769],[76.9559864948,8.9707229992],[76.9455030442,8.9785411543],[76.9389408312,8.9860983576],[76.9284942649,8.9919611576],[76.9281822377,8.9937489454],[76.9281414168,8.9938525441]]]]}}]}
