{"type":"FeatureCollection","features":[{"type":"Feature","properties":{"code":"G05019","name":"Aymanam","type":"Grama Panchayat","leading":"NDA","seats":{"LDF":7,"UDF":5,"NDA":9,"OTHERS":0}},"geometry":{"type":"MultiPolygon","coordinates":[[[[76.5027839322,9.6022745474],[76.5009084825,9.6031802664],[76.4961585417,9.6000748677],[76.4884338243,9.6052043441],[76.4867492343,9.6030280188],[76.4847547525,9.6046330567],[76.4821150899,9.6029213409],[76.47573065,9.6033521851],[76.4748360061,9.6083869973],[76.4683518577,9.6088109606],[76.4582982885,9.6134659754],[76.4590649863,9.6171162366],[76.4568288558,9.6177052699],[76.4546955358,9.613614277],[76.4502671702,9.617069233],[76.4410899534,9.6178201641],[76.440045405,9.619683136],[76.4417985733,9.6217017061],[76.4404470921,9.625808985],[76.4294382787,9.6286626724],[76.4223586254,9.6332188234],[76.399617403,9.6276657691],[76.399570546,9.6394478422],[76.4190437737,9.6414075735],[76.435995894,9.6377413712],[76.46219876,9.6458938997],[76.4716967122,9.6461494013],[76.4785114901,9.6444999901],[76.4795959695,9.6397723314],[76.4877588123,9.6343084339],[76.4888418257,9.6317348774],[76.4850711023,9.6309213075],[76.4878543059,9.6255183911],[76.4908513291,9.6267030584],[76.4970137459,9.6234259663],[76.512765982,9.6259451803],[76.5152033826,9.6242749404],[76.5178473275,9.6247093727],[76.5184491655,9.6191526801],[76.5090151366,9.6121214756],[76.5103267694,9.6102978459],[76.5138140554,9.6107660842],[76.5139089283,9.6059626016],[76.5086168335,9.6037532587],[76.5118865125,9.5993175518],[76.5053537086,9.5995177673],[76.5033032114,9.6022113311],[76.5027839322,9.6022745474]]]]}},{"type":"Feature","properties":{"code":"G05043","name":"Akalakkunnam","type":"Grama Panchayat","leading":"UDF","seats":{"LDF":5,"UDF":8,"NDA":0,"OTHERS":2}},"geometry":{"type":"MultiPolygon","coordinates":[[[[76.6713380162,9.6138150305],[76.6713380162,9.6138150305],[76.6713380162,9.6138150305]]]]}},{"type":"Feature","properties":{"code":"G05016","name":"Arpookkara","type":"Grama Panchayat","leading":"UDF","seats":{"LDF":1,"UDF":13,"NDA":2,"OTHERS":1}},"geometry":{"type":"MultiPolygon","coordinates":[[[[76.5005492202,9.6241750605],[76.4960901781,9.6235114116],[76.4905619413,9.6267419027],[76.4878543059,9.6255183911],[76.4850711023,9.6309213075],[76.4888418257,9.6317348774],[76.4877588123,9.6343084339],[76.4795959695,9.6397723314],[76.4785114901,9.6444999901],[76.4716967122,9.6461494013],[76.46219876,9.6458938997],[76.435995894,9.6377413712],[76.4190437737,9.6414075735],[76.399570546,9.6394478422],[76.398044187,9.6487926824],[76.4239493262,9.6456978883],[76.4283976694,9.6464675882],[76.4402814688,9.6557144285],[76.4437228913,9.6547152955],[76.4468514764,9.6580824467],[76.4542960568,9.6559599996],[76.4567316339,9.6757613678],[76.4661126829,9.6767986686],[76.4763111988,9.6704299498],[76.4797661616,9.6604620671],[76.4812981934,9.6627306892],[76.4927970387,9.6598635416],[76.4955970236,9.6575456643],[76.4967731977,9.6499196035],[76.5147194027,9.6455432314],[76.5164225519,9.6411758669],[76.519006581,9.6399143228],[76.5230836837,9.6410826502],[76.5233127891,9.6386121163],[76.5277118813,9.6364757466],[76.5201089019,9.6305585406],[76.5198708618,9.6253686706],[76.5158763331,9.6241978426],[76.512765982,9.6259451803],[76.5009095758,9.6241059409],[76.5005492202,9.6241750605]]]]}},{"type":"Feature","properties":{"code":"G05017","name":"Athirampuzha","type":"Grama Panchayat","leading":"UDF","seats":{"LDF":4,"UDF":18,"NDA":0,"OTHERS":2}},"geometry":{"type":"MultiPolygon","coordinates":[[[[76.5319047032,9.6404003991],[76.5319047032,9.6404003991],[76.5319047032,9.6404003991]]]]}},{"type":"Feature","properties":{"code":"G05073","name":"Ayarkunnam","type":"Grama Panchayat","leading":"UDF","seats":{"LDF":4,"UDF":14,"NDA":3,"OTHERS":0}},"geometry":{"type":"MultiPolygon","coordinates":[[[[76.5852774985,9.6188696982],[76.5852774985,9.6188696982],[76.5852774985,9.6188696982]],[[76.5894986973,9.6354765734],[76.5894986973,9.6354765734],[76.5894986973,9.6354765734]]]]}},{"type":"Feature","properties":{"code":"G05028","name":"Bharananganam","type":"Grama Panchayat","leading":"UDF","seats":{"LDF":3,"UDF":6,"NDA":2,"OTHERS":3}},"geometry":{"type":"MultiPolygon","coordinates":[[[[76.724967877,9.7167366355],[76.724967877,9.7167366355],[76.724967877,9.7167366355]]]]}},{"type":"Feature","properties":{"code":"G05002","name":"Chempu","type":"Grama Panchayat","leading":"UDF","seats":{"LDF":7,"UDF":9,"NDA":0,"OTHERS":0}},"geometry":{"type":"MultiPolygon","coordinates":[[[[76.3961165237,9.8067789136],[76.3961165237,9.8067789136],[76.3961165237,9.8067789136]]]]}},{"type":"Feature","properties":{"code":"G05056","name":"Chirakkadavu","type":"Grama Panchayat","leading":"LDF","seats":{"LDF":10,"UDF":3,"NDA":8,"OTHERS":1}},"geometry":{"type":"MultiPolygon","coordinates":[[[[76.7515982674,9.5040042474],[76.7515982674,9.5040042474],[76.7515982674,9.5040042474]]]]}},{"type":"Feature","properties":{"code":"G05044","name":"Elikkulam","type":"Grama Panchayat","leading":"UDF","seats":{"LDF":4,"UDF":8,"NDA":2,"OTHERS":3}},"geometry":{"type":"MultiPolygon","coordinates":[[[[76.7264762472,9.5752525637],[76.7264762472,9.5752525637],[76.7264762472,9.5752525637]]]]}},{"type":"Feature","properties":{"code":"G05063","name":"Erumely","type":"Grama Panchayat","leading":"UDF","seats":{"LDF":6,"UDF":12,"NDA":2,"OTHERS":4}},"geometry":{"type":"MultiPolygon","coordinates":[[[[76.8277965687,9.4506245744],[76.8241998823,9.4583507481],[76.8261401436,9.4643801297],[76.8028032088,9.4689503815],[76.798791065,9.4668194693],[76.7968105475,9.4677140175],[76.7954740017,9.47486097],[76.7974301569,9.4788088745],[76.7951526276,9.4829452518],[76.7940742998,9.4935344523],[76.7786998835,9.5001923179],[76.7762232139,9.5041970067],[76.7811765396,9.5066715083],[76.7919964858,9.5169924542],[76.8016490219,9.5129764039],[76.7984098748,9.5074974179],[76.7992557626,9.5055624364],[76.8011324358,9.5051899379],[76.8083839117,9.5090441115],[76.8177769379,9.4992623365],[76.8236519567,9.5012947552],[76.8206320794,9.4960230148],[76.8226003421,9.4929571741],[76.8228669603,9.4866393743],[76.8270515384,9.4882634324],[76.8294463715,9.492815839],[76.8319949395,9.4941948479],[76.8340991425,9.4924072861],[76.8328784497,9.4868892293],[76.8353291274,9.4858482957],[76.8376678787,9.4886820377],[76.8377604986,9.4931898395],[76.8429410649,9.492547319],[76.850286544,9.4956833883],[76.8537332352,9.4950693426],[76.8578742656,9.4901473156],[76.8601785647,9.4901908751],[76.8611521121,9.4855783083],[76.8651987691,9.4880046809],[76.8653526101,9.4907053985],[76.8694622139,9.4911343681],[76.8701227738,9.4882590607],[76.867839772,9.4864089683],[76.8715113115,9.4841786821],[76.8776382475,9.4903633053],[76.878895711,9.4871825563],[76.8838521422,9.4906359461],[76.884410359,9.4877735626],[76.886965111,9.4861940864],[76.8955641308,9.4915390736],[76.9010255481,9.4906466501],[76.9025669098,9.4866154178],[76.9052285462,9.4877909597],[76.907245502,9.4845264246],[76.9198595788,9.4789091399],[76.9433290007,9.4640172927],[76.9465891935,9.4537264797],[76.9420720906,9.4487652408],[76.940686689,9.4445879805],[76.9453302253,9.4355312717],[76.9523570819,9.439272518],[76.9573200699,9.4398113051],[76.9832107309,9.4348190761],[77.000474572,9.4334214437],[77.004334843,9.4301895186],[77.0033752024,9.4219611505],[77.0011293882,9.4205477651],[76.9976711411,9.4237713041],[76.9916305772,9.4216125206],[76.9761039189,9.4245557417],[76.9737734393,9.4219387023],[76.9688940144,9.4249931842],[76.9603554243,9.4223707184],[76.9593231747,9.4201339511],[76.9555371423,9.420872763],[76.943649817,9.4187318405],[76.935332852,9.4207881717],[76.9324323681,9.4175822794],[76.9253064282,9.4152326944],[76.922310341,9.4164823723],[76.9236511385,9.4221765476],[76.9216145365,9.4246084824],[76.9154007019,9.4250676693],[76.9113349216,9.4234611058],[76.9079729865,9.4282203744],[76.8867589692,9.4424907831],[76.8714932472,9.4479998915],[76.8589652282,9.4545389105],[76.8573460463,9.4536535923],[76.8546934165,9.4578295915],[76.852233178,9.454948219],[76.8540622764,9.4544225311],[76.8542993013,9.4528172599],[76.8523415624,9.4523425054],[76.853534341,9.4495848504],[76.8490877037,9.4459338396],[76.8455615691,9.4489341429],[76.8397805555,9.4505771518],[76.8353923769,9.4497302573],[76.8331570496,9.452774409],[76.8279784857,9.4508555901],[76.8277965687,9.4506245744]]]]}},{"type":"Feature","properties":{"code":"G05031","name":"Kadanadu","type":"Grama Panchayat","leading":"UDF","seats":{"LDF":5,"UDF":8,"NDA":0,"OTHERS":2}},"geometry":{"type":"MultiPolygon","coordinates":[[[[76.7134684622,9.7631318271],[76.7134684622,9.7631318271],[76.7134684622,9.7631318271]]]]}},{"type":"Feature","properties":{"code":"G05020","name":"Kadaplamattom","type":"Grama Panchayat","leading":"LDF","seats":{"LDF":9,"UDF":3,"NDA":0,"OTHERS":2}},"geometry":{"type":"MultiPolygon","coordinates":[[[[76.5876751164,9.7104875938],[76.5876751164,9.7104875938],[76.5876751164,9.7104875938]]]]}},{"type":"Feature","properties":{"code":"G05007","name":"Kaduthuruthy","type":"Grama Panchayat","leading":"UDF","seats":{"LDF":7,"UDF":9,"NDA":1,"OTHERS":3}},"geometry":{"type":"MultiPolygon","coordinates":[[[[76.4896795424,9.7337067281],[76.4896795424,9.7337067281],[76.4896795424,9.7337067281]]]]}},{"type":"Feature","properties":{"code":"G05008","name":"Kallara","type":"Grama Panchayat","leading":"UDF","seats":{"LDF":4,"UDF":6,"NDA":3,"OTHERS":1}},"geometry":{"type":"MultiPolygon","coordinates":[[[[76.473046466,9.6757012629],[76.4719002938,9.6727455776],[76.4661126829,9.6767986686],[76.4536305642,9.694736243],[76.429155269,9.743721197],[76.4512007291,9.7500869699],[76.4533209338,9.7487495852],[76.4541390448,9.7448250606],[76.4588423442,9.7429538132],[76.4665344832,9.7254326549],[76.4679319851,9.7265849901],[76.4710565197,9.7243200219],[76.478059271,9.7260015663],[76.4802584411,9.7249262896],[76.4831637903,9.7159930777],[76.4870406999,9.7103386469],[76.4862598528,9.7088699797],[76.4880823567,9.7076796153],[76.4891949777,9.7036779584],[76.4920556205,9.7036259685],[76.492568934,9.69570415],[76.4897719638,9.6905645579],[76.4817706156,9.6888224027],[76.4793030415,9.6866515548],[76.4787415558,9.6755802162],[76.4731250012,9.6759373876],[76.473046466,9.6757012629]]]]}},{"type":"Feature","properties":{"code":"G05022","name":"Kanakkary","type":"Grama Panchayat","leading":"UDF","seats":{"LDF":4,"UDF":10,"NDA":3,"OTHERS":0}},"geometry":{"type":"MultiPolygon","coordinates":[[[[76.5439678028,9.6924685605],[76.5439678028,9.6924685605],[76.5439678028,9.6924685605]]]]}},{"type":"Feature","properties":{"code":"G05057","name":"Kangazha","type":"Grama Panchayat","leading":"UDF","seats":{"LDF":6,"UDF":7,"NDA":2,"OTHERS":1}},"geometry":{"type":"MultiPolygon","coordinates":[[[[76.6898488159,9.4905260716],[76.6898488159,9.4905260716],[76.6898488159,9.4905260716]],[[76.7066591129,9.5042782692],[76.7066591129,9.5042782692],[76.7066591129,9.5042782692]]]]}},{"type":"Feature","properties":{"code":"G05064","name":"Kanjirappally","type":"Grama Panchayat","leading":"UDF","seats":{"LDF":7,"UDF":12,"NDA":1,"OTHERS":4}},"geometry":{"type":"MultiPolygon","coordinates":[[[[76.792864721,9.5383510933],[76.792864721,9.5383510933],[76.792864721,9.5383510933]]]]}},{"type":"Feature","properties":{"code":"G05029","name":"Karoor","type":"Grama Panchayat","leading":"TIE","seats":{"LDF":5,"UDF":6,"NDA":0,"OTHERS":6}},"geometry":{"type":"MultiPolygon","coordinates":[[[[76.6580902463,9.7222645653],[76.6559473376,9.7201851411],[76.6594332052,9.714187028],[76.6571651801,9.7149839717],[76.6545513557,9.7120607076],[76.647079374,9.7120438807],[76.6471223206,9.7153697953],[76.6448542641,9.718897501],[76.6439058533,9.7165677842],[76.6417102944,9.7170830502],[76.6429070579,9.7199181499],[76.633917872,9.7344587373],[76.6378348015,9.7370841419],[76.6335738028,9.743365287],[76.6343082421,9.7447776163],[76.6309478916,9.7487356871],[76.6243717153,9.752214718],[76.621991284,9.757364044],[76.6201744099,9.7572903915],[76.6147045061,9.7619805432],[76.6145985912,9.7703859148],[76.6182497595,9.7745045703],[76.6184964144,9.778248639],[76.6217001894,9.7776590245],[76.6237818662,9.7748471857],[76.6328173881,9.7746389019],[76.6408517332,9.7647200811],[76.6470658004,9.7685960602],[76.6497612152,9.7684582186],[76.6519859756,9.7654305964],[76.6547396246,9.7667184526],[76.6567290094,9.7654205721],[76.6614880277,9.7705030761],[76.6645587119,9.7697952807],[76.6701763463,9.7640995129],[76.6704138132,9.7618415746],[76.6753825262,9.7646655227],[76.6775461878,9.7589024751],[76.6824350297,9.761106487],[76.6848227347,9.7586973597],[76.6908626878,9.7607566988],[76.6934409559,9.7591224187],[76.6989195392,9.7625060813],[76.6990463724,9.7643002242],[76.7066796511,9.761014968],[76.7053645193,9.7601865577],[76.7077995493,9.7547638324],[76.7058724375,9.7517544936],[76.7113831841,9.7467479577],[76.7111013808,9.744616203],[76.7088762763,9.746240757],[76.7046561609,9.745155046],[76.7027820488,9.7468242694],[76.6988426722,9.7463988167],[76.6978425212,9.7421735359],[76.6956481768,9.7423543743],[76.6946176052,9.7408498541],[76.6959345139,9.7369526098],[76.6934776575,9.7367932839],[76.6924338906,9.7346841924],[76.6856649556,9.7399762392],[76.6853927589,9.7377477417],[76.6810600208,9.7349415052],[76.67703846,9.7343895713],[76.674615524,9.7309454328],[76.6706156701,9.729022188],[76.6749914186,9.7209898922],[76.6741538196,9.7198135562],[76.6714090226,9.7206338818],[76.6705002779,9.7230650978],[76.6679258285,9.719941278],[76.6639696183,9.7200662284],[76.660684968,9.7230328307],[76.6584608058,9.7225731247],[76.6580902463,9.7222645653]]]]}},{"type":"Feature","properties":{"code":"G05061","name":"Karukachal","type":"Grama Panchayat","leading":"TIE","seats":{"LDF":8,"UDF":8,"NDA":1,"OTHERS":0}},"geometry":{"type":"MultiPolygon","coordinates":[[[[76.6158123445,9.4618454735],[76.6152716234,9.4660801879],[76.6121341746,9.4682966174],[76.6155791275,9.4714918843],[76.613911132,9.475271587],[76.6174293264,9.4807961163],[76.6142766664,9.4856197206],[76.616544555,9.4871145678],[76.617199876,9.4899417534],[76.6199443046,9.4910324432],[76.6178401628,9.4966378376],[76.6184246148,9.5010783773],[76.6141529343,9.5040664515],[76.6159253211,9.5105703694],[76.6117936403,9.5130601583],[76.6131038242,9.5143672664],[76.6109063959,9.5161388265],[76.6118645434,9.522444204],[76.6162711168,9.5224539573],[76.6175570695,9.5265046962],[76.6206438721,9.5295758352],[76.6196224993,9.53268239],[76.6223693903,9.532853571],[76.6217650011,9.5378802597],[76.6307318728,9.5345830468],[76.6336210264,9.529433911],[76.6385176118,9.5299340155],[76.6418573325,9.5271283172],[76.6447684237,9.5272811455],[76.6385813221,9.5112035631],[76.6421828765,9.4969686775],[76.6451453272,9.4911402238],[76.6509832528,9.4888316899],[76.6547359972,9.4822556252],[76.6481286403,9.4789719059],[76.6423168396,9.4789198478],[76.6412849906,9.4673152366],[76.639398127,9.4674551025],[76.6357771798,9.4624475552],[76.6343927798,9.4673922494],[76.630365406,9.4721025351],[76.6263955873,9.469222831],[76.6261947428,9.4616050761],[76.6238099386,9.463089774],[76.6202595297,9.460722484],[76.6159702548,9.4616661909],[76.6158123445,9.4618454735]]]]}},{"type":"Feature","properties":{"code":"G05049","name":"Kidangoor","type":"Grama Panchayat","leading":"NDA","seats":{"LDF":4,"UDF":5,"NDA":7,"OTHERS":0}},"geometry":{"type":"MultiPolygon","coordinates":[[[[76.610943446,9.6617065534],[76.610943446,9.6617065534],[76.610943446,9.6617065534]]]]}},{"type":"Feature","properties":{"code":"G05045","name":"Kooroppada","type":"Grama Panchayat","leading":"UDF","seats":{"LDF":6,"UDF":7,"NDA":3,"OTHERS":3}},"geometry":{"type":"MultiPolygon","coordinates":[[[[76.6394497559,9.5743605727],[76.6378538844,9.5732351112],[76.6369586548,9.5742995258],[76.6344172409,9.5708078803],[76.6326047353,9.5726240875],[76.6310108366,9.5707635224],[76.6292074309,9.5719797706],[76.6290016655,9.5754620979],[76.6320452134,9.5819368709],[76.6250192569,9.5914635051],[76.6312380016,9.5919072277],[76.629388949,9.5976900157],[76.6294325927,9.6025830122],[76.6313544619,9.603288086],[76.631165,9.6056816663],[76.6228256204,9.6138281521],[76.6255568528,9.6240707363],[76.6224036278,9.6305293893],[76.6276285025,9.6341648964],[76.6337786906,9.6326499852],[76.6385360174,9.6352416735],[76.640253801,9.6245408783],[76.6493669742,9.6189055632],[76.653761644,9.620957645],[76.6564002942,9.6177502487],[76.6567996996,9.6144818665],[76.6588334351,9.6150884801],[76.6611313534,9.6070444693],[76.6653478388,9.6017097014],[76.6694795079,9.6009124009],[76.6683563047,9.5996968437],[76.6699113433,9.5961764699],[76.6662328814,9.595242436],[76.6676262017,9.590299537],[76.6665569451,9.588201989],[76.6698124307,9.5872483284],[76.6725261235,9.5716174508],[76.6775901558,9.5712423803],[76.6747858931,9.5773218357],[76.6769010716,9.5796099141],[76.6794895303,9.5770780286],[76.680607233,9.5705216487],[76.6785184676,9.5680063498],[76.6783367214,9.5643424239],[76.6760709708,9.5627540954],[76.6772619994,9.5605983647],[76.6741843192,9.5579580971],[76.6724560531,9.5534291215],[76.6677193004,9.5576677896],[76.6628235153,9.5585113263],[76.6629691798,9.5603573298],[76.6575655304,9.5620354701],[76.6568072356,9.5639601569],[76.6535398868,9.5635717976],[76.6548403967,9.5674946216],[76.6540820901,9.5720117881],[76.6503169975,9.5737337235],[76.6515686031,9.5755974081],[76.6431158461,9.5765806242],[76.6398832541,9.5743620316],[76.6394497559,9.5743605727]]]]}},{"type":"Feature","properties":{"code":"G05065","name":"Koottickal","type":"Grama Panchayat","leading":"UDF","seats":{"LDF":2,"UDF":9,"NDA":1,"OTHERS":2}},"geometry":{"type":"MultiPolygon","coordinates":[[[[76.8855887016,9.5759947038],[76.8824538786,9.576182609],[76.8754927652,9.5697736946],[76.8694199814,9.5681445145],[76.8663481015,9.5769526425],[76.8617988353,9.5836079203],[76.8520280791,9.5932207152],[76.8513725039,9.5968510706],[76.8541777189,9.6024578809],[76.8559275499,9.6022783011],[76.8572684804,9.6055873609],[76.860785753,9.6038799077],[76.8622183216,9.6049978876],[76.8624962549,9.6115028296],[76.860870059,9.6134739945],[76.8556926153,9.6141383601],[76.8587375628,9.6141050986],[76.8581911248,9.6200666971],[76.8613870736,9.6218267727],[76.8657546277,9.6302361141],[76.8588829371,9.6407030115],[76.8606223064,9.642838956],[76.8629560208,9.6447233041],[76.8685102278,9.6449680818],[76.8722822977,9.6418773539],[76.8720851085,9.6435749929],[76.8761243563,9.6480065543],[76.8823841235,9.6507255478],[76.8834343915,9.6526197838],[76.8807800199,9.6529710328],[76.8839040038,9.6559461207],[76.8815860566,9.6603064464],[76.883511882,9.6615177774],[76.8830236692,9.6638836056],[76.8987475859,9.6679341954],[76.9054363966,9.6681588895],[76.9091436054,9.6718542733],[76.9168813914,9.6621077914],[76.9280776994,9.6531647472],[76.9235003338,9.6495808242],[76.9193064043,9.6423008607],[76.9199559375,9.6388177906],[76.9321803385,9.6266684678],[76.9334299912,9.622432878],[76.9301501253,9.621034576],[76.9300283443,9.6158992434],[76.9283279035,9.6145889943],[76.923834809,9.6190139977],[76.9151265325,9.6222958709],[76.9027774112,9.633829186],[76.897120727,9.6326608043],[76.8956721757,9.6336952195],[76.8914890169,9.6293254432],[76.8933614312,9.621712777],[76.8872653235,9.6200976118],[76.8917104723,9.6157396741],[76.8881996828,9.6100578632],[76.8920999558,9.6104104398],[76.8897794771,9.6066967677],[76.892710811,9.6050368222],[76.8921651258,9.5992354803],[76.8947684381,9.5947387242],[76.8959853661,9.5876220136],[76.8947779468,9.5849749354],[76.8905620337,9.5856837589],[76.883533605,9.5827369335],[76.8866931605,9.5777765554],[76.8857537814,9.5761928125],[76.8855887016,9.5759947038]]]]}},{"type":"Feature","properties":{"code":"G05067","name":"Koruthode","type":"Grama Panchayat","leading":"LDF","seats":{"LDF":7,"UDF":4,"NDA":2,"OTHERS":1}},"geometry":{"type":"MultiPolygon","coordinates":[[[[76.9437961911,9.4632802445],[76.9437961911,9.4632802445],[76.9437961911,9.4632802445]]]]}},{"type":"Feature","properties":{"code":"G05030","name":"Kozhuvanal","type":"Grama Panchayat","leading":"UDF","seats":{"LDF":3,"UDF":7,"NDA":0,"OTHERS":4}},"geometry":{"type":"MultiPolygon","coordinates":[[[[76.6751499165,9.6411217949],[76.670678227,9.6399617156],[76.6677360881,9.6466664128],[76.6648004683,9.6472951222],[76.6523968426,9.6625674882],[76.6479847599,9.6612000121],[76.6459767144,9.6628178019],[76.6459616137,9.6667127151],[76.6431680364,9.6667032742],[76.6419002126,9.6684622279],[76.6383153364,9.6665451883],[76.6368161667,9.6676805549],[76.6381300526,9.6697180595],[76.6363795765,9.6733583277],[76.6397642013,9.6743909186],[76.6378499731,9.6780465497],[76.6412067159,9.6800132371],[76.6421037197,9.6846565265],[76.640127683,9.6874485471],[76.6420071122,9.6892671538],[76.6526048843,9.6835386132],[76.6542096042,9.6789384946],[76.6554165034,9.6789009093],[76.6543134405,9.674734268],[76.6558510481,9.6687568318],[76.6596651924,9.6697580191],[76.6583084668,9.6757174488],[76.6632552735,9.6806145029],[76.6635887686,9.6828935045],[76.6650568439,9.6814912534],[76.6663249399,9.6822866906],[76.6670251901,9.6796090238],[76.6697094047,9.6786892759],[76.6824283903,9.6793316264],[76.6841220883,9.6755995962],[76.6930139328,9.6767883184],[76.6917510425,9.6733073913],[76.696039306,9.6717102843],[76.692586111,9.6631628244],[76.6956306641,9.6610151385],[76.696416681,9.662054224],[76.7058974179,9.6523322276],[76.7042975588,9.6501462332],[76.7016596371,9.6499185718],[76.7010952876,9.6465009608],[76.6990421925,9.6473295822],[76.6928479035,9.6446148673],[76.6871912525,9.6458220533],[76.6890550906,9.6427376274],[76.6890311981,9.6371380911],[76.6863128835,9.635903149],[76.6797451342,9.6373368707],[76.6776224547,9.6429080142],[76.6764909826,9.6420906178],[76.6751499165,9.6411217949]],[[76.6585436808,9.6758347885],[76.6586458704,9.6758857671],[76.6585436808,9.6758347885]]]]}},{"type":"Feature","properties":{"code":"G05014","name":"Kumarakom","type":"Grama Panchayat","leading":"LDF","seats":{"LDF":8,"UDF":4,"NDA":3,"OTHERS":1}},"geometry":{"type":"MultiPolygon","coordinates":[[[[76.399617403,9.6276657691],[76.4223586254,9.6332188234],[76.4294382787,9.6286626724],[76.4404470921,9.625808985],[76.4417985733,9.6217017061],[76.440045405,9.619683136],[76.4410899534,9.6178201641],[76.4502671702,9.617069233],[76.4546955358,9.613614277],[76.4568288558,9.6177052699],[76.4590649863,9.6171162366],[76.4557822619,9.6050730234],[76.4557958454,9.5952932222],[76.4544919219,9.5944598814],[76.4547769483,9.5909042497],[76.4564201269,9.5906447106],[76.4566618312,9.5883562505],[76.4593072763,9.5881726462],[76.4593539635,9.5842760568],[76.4613192537,9.5839969733],[76.4614778701,9.5786995242],[76.4611913327,9.5770818065],[76.4569631728,9.5756661975],[76.4546234343,9.5670451154],[76.4507803876,9.5681243276],[76.4488621593,9.5574430141],[76.4267915113,9.5496629036],[76.4228478856,9.5560260902],[76.4158619194,9.5583137318],[76.4143444107,9.5633652732],[76.4046932805,9.5594832034],[76.4047266888,9.5540901835],[76.3933037916,9.5482573927],[76.3995751786,9.6271733278],[76.399617403,9.6276657691]]]]}},{"type":"Feature","properties":{"code":"G05024","name":"Kuravilangadu","type":"Grama Panchayat","leading":"LDF","seats":{"LDF":8,"UDF":5,"NDA":0,"OTHERS":2}},"geometry":{"type":"MultiPolygon","coordinates":[[[[76.5581661421,9.7231326016],[76.5581661421,9.7231326016],[76.5581661421,9.7231326016]]]]}},{"type":"Feature","properties":{"code":"G05069","name":"Kurichy","type":"Grama Panchayat","leading":"LDF","seats":{"LDF":15,"UDF":7,"NDA":0,"OTHERS":0}},"geometry":{"type":"MultiPolygon","coordinates":[[[[76.5345548887,9.4733950145],[76.53169224,9.4724789106],[76.5274012582,9.4854770968],[76.5281514979,9.4867068685],[76.524914823,9.4906500435],[76.5247823395,9.4886874522],[76.5221016059,9.4891559826],[76.5192721023,9.4845774213],[76.5181159687,9.4848356704],[76.512267073,9.4983477079],[76.5079094758,9.5037416307],[76.5033401142,9.5024632528],[76.4983897179,9.5035131189],[76.4953156021,9.5068763854],[76.4905069267,9.5075868962],[76.4910952019,9.5108170911],[76.4933927789,9.5110746931],[76.4931615607,9.5165228606],[76.4958734047,9.5193872752],[76.5086770601,9.5179669985],[76.5098986854,9.5142235613],[76.5157672902,9.5152568213],[76.5186870134,9.5098913363],[76.527023779,9.5106402192],[76.5309568225,9.509066772],[76.5372510051,9.5107205162],[76.5400948664,9.509518442],[76.5405377466,9.5061975868],[76.5448692891,9.5062797941],[76.5469344189,9.5042856636],[76.5466828125,9.5020366505],[76.5491236672,9.5037302236],[76.5466259572,9.4983575743],[76.5492922881,9.4969765745],[76.5499634743,9.4939797342],[76.5527467039,9.4963452567],[76.5580792848,9.4907980566],[76.5568966339,9.4897409215],[76.5578870975,9.4866334255],[76.5551229239,9.4827943867],[76.5518699293,9.4836415966],[76.5479690221,9.4824367896],[76.5471359012,9.4806495759],[76.5443650108,9.4812355111],[76.5443778397,9.4795909467],[76.5355017795,9.4738602891],[76.5345548887,9.4733950145]],[[76.5419761138,9.506036987],[76.5421811129,9.5059719765],[76.5419761138,9.506036987]]]]}},{"type":"Feature","properties":{"code":"G05051","name":"Madappally","type":"Grama Panchayat","leading":"UDF","seats":{"LDF":4,"UDF":14,"NDA":4,"OTHERS":0}},"geometry":{"type":"MultiPolygon","coordinates":[[[[76.5864303021,9.4574961494],[76.5864303021,9.4574961494],[76.5864303021,9.4574961494]]]]}},{"type":"Feature","properties":{"code":"G05048","name":"Manarcadu","type":"Grama Panchayat","leading":"UDF","seats":{"LDF":4,"UDF":12,"NDA":2,"OTHERS":1}},"geometry":{"type":"MultiPolygon","coordinates":[[[[76.5954194251,9.5828712913],[76.5955236809,9.5784019169],[76.593265654,9.5772431506],[76.5811114321,9.5787689162],[76.5768485155,9.5814051716],[76.5670357496,9.5776977888],[76.5675614626,9.5806557081],[76.5734044789,9.5882393719],[76.5724085069,9.5969698408],[76.5687547774,9.6016700312],[76.5716214318,9.604741773],[76.5685494872,9.6080121367],[76.5658465284,9.6080550398],[76.5652871789,9.6099846345],[76.5660502636,9.6174329726],[76.5707315463,9.6187099815],[76.5748177247,9.6179297973],[76.5774221051,9.6154937637],[76.5800864795,9.6182674844],[76.5898973589,9.6186738145],[76.5901267302,9.6158608955],[76.5972064563,9.6144879282],[76.598667408,9.6098510341],[76.6007527921,9.6085073312],[76.6049578662,9.6111469664],[76.6129001312,9.6083959802],[76.6194340014,9.6098298568],[76.6190555789,9.6123191548],[76.6250133334,9.6128333334],[76.6262199684,9.6091331835],[76.6296854909,9.6083647146],[76.6313544619,9.603288086],[76.6294325927,9.6025830122],[76.6312380016,9.5919072277],[76.6255104844,9.5920496547],[76.6248751402,9.590919258],[76.6205721291,9.5965081043],[76.6162448788,9.5953636506],[76.6171884162,9.5971738283],[76.6135780197,9.5988069196],[76.6127032304,9.6019349258],[76.609645349,9.600492426],[76.6078036787,9.6027398747],[76.603298067,9.6033588972],[76.6027539296,9.6015001684],[76.5982955764,9.6004107958],[76.59597635,9.5972072305],[76.5952657656,9.5851729538],[76.5954194251,9.5828712913]],[[76.6085924354,9.60970452],[76.6086979075,9.6096851885],[76.6085924354,9.60970452]]]]}},{"type":"Feature","properties":{"code":"G05062","name":"Manimala","type":"Grama Panchayat","leading":"UDF","seats":{"LDF":4,"UDF":11,"NDA":0,"OTHERS":1}},"geometry":{"type":"MultiPolygon","coordinates":[[[[76.7456397125,9.4751619283],[76.7467256113,9.4816754431],[76.7423131333,9.4869852226],[76.7414669931,9.4909153815],[76.7513243441,9.494114842],[76.7509536966,9.5022511124],[76.7524014709,9.5052555386],[76.7563967128,9.5037827085],[76.7610803419,9.5072863598],[76.7690272584,9.5083184616],[76.7761540274,9.5048181141],[76.7786998835,9.5001923179],[76.7940742998,9.4935344523],[76.7951526276,9.4829452518],[76.7974301569,9.4788088745],[76.7954740017,9.47486097],[76.7962458207,9.4684466631],[76.798791065,9.4668194693],[76.8028032088,9.4689503815],[76.8261401436,9.4643801297],[76.8241998823,9.4583507481],[76.8277965687,9.4506245744],[76.8254916651,9.445304614],[76.8232238655,9.445900792],[76.8188358666,9.4555564509],[76.804399092,9.454931009],[76.8000936195,9.4593862863],[76.798675928,9.4514908683],[76.7947663988,9.4538360681],[76.7923376812,9.4515940385],[76.7930682514,9.4465503736],[76.7866027412,9.4495789682],[76.7819402801,9.4485049283],[76.7678890507,9.442245354],[76.7656304301,9.4354530166],[76.7570833806,9.4520858907],[76.7535581354,9.4530339944],[76.7494372433,9.4519046988],[76.749292222,9.4546069276],[76.7517005307,9.4573447504],[76.7501705264,9.4601685144],[76.7531052811,9.4621012745],[76.7494182799,9.4627576653],[76.748485455,9.4663313897],[76.745708633,9.4680099642],[76.7445367673,9.4725934959],[76.7470573654,9.473764784],[76.746026616,9.4748943275],[76.7456397125,9.4751619283]]]]}},{"type":"Feature","properties":{"code":"G05027","name":"Manjoor","type":"Grama Panchayat","leading":"UDF","seats":{"LDF":1,"UDF":16,"NDA":0,"OTHERS":2}},"geometry":{"type":"MultiPolygon","coordinates":[[[[76.5025660862,9.7036605945],[76.5025660862,9.7036605945],[76.5025660862,9.7036605945]]]]}},{"type":"Feature","properties":{"code":"G05021","name":"Marangattupally","type":"Grama Panchayat","leading":"UDF","seats":{"LDF":4,"UDF":5,"NDA":3,"OTHERS":3}},"geometry":{"type":"MultiPolygon","coordinates":[[[[76.5950024945,9.7424882682],[76.5950024945,9.7424882682],[76.5950024945,9.7424882682]]]]}},{"type":"Feature","properties":{"code":"G05003","name":"Maravanthuruthu","type":"Grama Panchayat","leading":"LDF","seats":{"LDF":8,"UDF":7,"NDA":0,"OTHERS":1}},"geometry":{"type":"MultiPolygon","coordinates":[[[[76.4000726162,9.7840219823],[76.3915144491,9.7917244417],[76.366973567,9.7852344985],[76.3657047218,9.7921601733],[76.3667252376,9.7977697911],[76.3748488258,9.8083450657],[76.3869640213,9.80466024],[76.3997789605,9.8073749992],[76.4074334565,9.8072688148],[76.4099952523,9.8045665855],[76.4091084013,9.798166985],[76.4151637084,9.7999223166],[76.4215340474,9.796300137],[76.4246073682,9.7984819061],[76.4296492894,9.7944075964],[76.4367325701,9.7945764931],[76.4458624519,9.7982733122],[76.4468543968,9.800905119],[76.4506784998,9.8025068008],[76.451248047,9.7988038669],[76.4482417837,9.7940488848],[76.4374763122,9.7877367459],[76.4319603249,9.7762305926],[76.4269190936,9.7758455068],[76.4245007606,9.7775178873],[76.4221302251,9.7801451907],[76.4215199043,9.78496538],[76.4191712078,9.7870868342],[76.4149006664,9.7838217583],[76.4034464,9.7825896853],[76.4003376569,9.7838653108],[76.4000726162,9.7840219823]]]]}},{"type":"Feature","properties":{"code":"G05032","name":"Meenachil","type":"Grama Panchayat","leading":"UDF","seats":{"LDF":3,"UDF":6,"NDA":3,"OTHERS":2}},"geometry":{"type":"MultiPolygon","coordinates":[[[[76.7058909437,9.6537116333],[76.6983640938,9.6587088757],[76.696416681,9.662054224],[76.6956306641,9.6610151385],[76.692586111,9.6631628244],[76.696039306,9.6717102843],[76.6917140876,9.6735223488],[76.6933808892,9.6776755052],[76.6956662689,9.6786705258],[76.6924832872,9.6796626114],[76.6941131931,9.6827254837],[76.6929320451,9.6870644154],[76.6907088926,9.6871365824],[76.6919416668,9.6882991078],[76.6907067995,9.691014655],[76.687230809,9.6926298538],[76.6876059248,9.694057672],[76.6896472501,9.6941177497],[76.693574548,9.6913665696],[76.696175778,9.6925392299],[76.6952805628,9.6954277443],[76.6981030793,9.6936779257],[76.700161178,9.6962312994],[76.7043030358,9.6943211241],[76.6932507449,9.704652964],[76.694055921,9.7072346956],[76.6985027739,9.7090432709],[76.7063661094,9.7091932641],[76.7099838523,9.7046827863],[76.7157415745,9.7058022955],[76.7168553678,9.7009192037],[76.7215210592,9.6989278579],[76.7200773148,9.6923798253],[76.7280349293,9.6952178331],[76.7329797956,9.6940356251],[76.7357715484,9.690988145],[76.7350391852,9.6887748929],[76.7364074479,9.6863241647],[76.7433789449,9.6804281975],[76.7467553303,9.6697472801],[76.7519033308,9.664660585],[76.7501293279,9.6627764324],[76.7546481592,9.6618564765],[76.7568559729,9.657078009],[76.7501708274,9.6549898935],[76.7504934465,9.6605060572],[76.7455419462,9.6614954955],[76.7441025082,9.6610728045],[76.7443331938,9.6591706626],[76.7470375073,9.6569672745],[76.7453862825,9.6541826452],[76.7410483979,9.6520715233],[76.7383856234,9.6571589259],[76.7294251719,9.6564762903],[76.7265784395,9.6526836221],[76.7247827423,9.6539925561],[76.720829908,9.6520003478],[76.720253451,9.6529415894],[76.7146679745,9.646430683],[76.7122671479,9.647000117],[76.7094118294,9.6450966247],[76.7043549908,9.6499556122],[76.7059690972,9.6534824201],[76.7058909437,9.6537116333]]]]}},{"type":"Feature","properties":{"code":"G05050","name":"Meenadom","type":"Grama Panchayat","leading":"UDF","seats":{"LDF":2,"UDF":12,"NDA":0,"OTHERS":0}},"geometry":{"type":"MultiPolygon","coordinates":[[[[76.6138381152,9.5413460376],[76.6055274097,9.542708725],[76.6053523577,9.544094516],[76.6009838936,9.5437269221],[76.6003601637,9.5451001746],[76.5962033337,9.5428266663],[76.5902532364,9.5438623725],[76.5934109987,9.5508972581],[76.5915550416,9.5556999759],[76.5856865347,9.5573329566],[76.5867904124,9.560916803],[76.5910143816,9.5620180741],[76.5974812285,9.5612246003],[76.6004240348,9.5627980841],[76.6036396801,9.5601069137],[76.6099965157,9.5644278267],[76.6088315544,9.5691731944],[76.6168372863,9.5662330413],[76.618630514,9.5674019887],[76.6226895229,9.5644222016],[76.6267717218,9.5646647918],[76.6312333466,9.5627121486],[76.6337559003,9.5585782102],[76.6332179487,9.5537603113],[76.6348688824,9.5523375085],[76.6311729088,9.5486519963],[76.6318513803,9.54411029],[76.6301117901,9.5428845004],[76.6298399832,9.5368281267],[76.6255119756,9.5356371012],[76.6217650011,9.5378802597],[76.6195140071,9.5371176457],[76.6179527199,9.5416456777],[76.614391481,9.541419189],[76.6138381152,9.5413460376]]]]}},{"type":"Feature","properties":{"code":"G05034","name":"Melukavu","type":"Grama Panchayat","leading":"UDF","seats":{"LDF":4,"UDF":7,"NDA":1,"OTHERS":2}},"geometry":{"type":"MultiPolygon","coordinates":[[[[76.7497669313,9.7543874122],[76.7332272393,9.7688456519],[76.7352896831,9.7683876238],[76.738081524,9.7730490521],[76.7446360994,9.7754316936],[76.7480983062,9.7755271215],[76.7514097614,9.7719454263],[76.7459825905,9.7918706957],[76.7479137797,9.7967715686],[76.7460294628,9.8048111753],[76.7468036057,9.8072506242],[76.7480070338,9.8061299606],[76.7519712273,9.8071739979],[76.7489835959,9.8143143851],[76.755190897,9.8173463574],[76.7683157729,9.8104312554],[76.7792289283,9.8093064289],[76.7954031309,9.797981318],[76.7890617895,9.7958532137],[76.7857627643,9.7967637805],[76.7841701906,9.7960067778],[76.7846218222,9.7946941647],[76.7804740634,9.7940259389],[76.7794394323,9.7902903002],[76.7816115281,9.7843538667],[76.7798642663,9.7803831449],[76.7769742225,9.7782940238],[76.7728724521,9.7783738508],[76.7693000273,9.7748529046],[76.7681541022,9.770300328],[76.7695407246,9.7636634471],[76.7759289204,9.764823139],[76.7804827986,9.759448707],[76.7847561832,9.7595970485],[76.7869786197,9.7578709037],[76.7853513009,9.7561055868],[76.7867700911,9.7526205585],[76.7847351222,9.7489280545],[76.7814567817,9.7523304516],[76.7786982162,9.7527912047],[76.7710857416,9.7499531268],[76.7687651534,9.7448332643],[76.7720547875,9.74015802],[76.7720230339,9.7298290021],[76.7684911573,9.7303701073],[76.7644194005,9.7271596706],[76.7629373464,9.7312461662],[76.7639728686,9.7350832041],[76.7578721903,9.7367703297],[76.7546904977,9.7402126125],[76.756293606,9.7444405522],[76.7499585546,9.7535502809],[76.7497669313,9.7543874122]]]]}},{"type":"Feature","properties":{"code":"G05035","name":"Moonnilavu","type":"Grama Panchayat","leading":"UDF","seats":{"LDF":3,"UDF":6,"NDA":0,"OTHERS":5}},"geometry":{"type":"MultiPolygon","coordinates":[[[[76.7856346457,9.7112510394],[76.7815392551,9.7123116219],[76.7762001748,9.725078127],[76.7736007576,9.7349848543],[76.7759242546,9.7381041978],[76.7716440356,9.7404687125],[76.7687651534,9.7448332643],[76.7733711751,9.7515466672],[76.7807348129,9.7525934673],[76.7847351222,9.7489280545],[76.7867700911,9.7526205585],[76.7853513009,9.7561055868],[76.7869786197,9.7578709037],[76.7847561832,9.7595970485],[76.7804827986,9.759448707],[76.7759289204,9.764823139],[76.7695407246,9.7636634471],[76.7681541022,9.770300328],[76.7704065712,9.7768298811],[76.7798642663,9.7803831449],[76.7816115281,9.7843538667],[76.7794394323,9.7902903002],[76.7804740634,9.7940259389],[76.7846218222,9.7946941647],[76.7841701906,9.7960067778],[76.7857627643,9.7967637805],[76.7890617895,9.7958532137],[76.7954031309,9.797981318],[76.802297425,9.7938113228],[76.8192190484,9.7763553378],[76.8281859606,9.769890967],[76.8279294933,9.7635990616],[76.8217469956,9.7574909821],[76.8231473479,9.7537867589],[76.8175364032,9.7450898185],[76.8180154972,9.7402882556],[76.8090757249,9.7381918177],[76.8028185511,9.7413188322],[76.8012195203,9.7346406282],[76.7973757999,9.7351972153],[76.794547845,9.733365255],[76.7935678575,9.7294707814],[76.7892881263,9.7297651307],[76.7951428108,9.7231222077],[76.7945131772,9.7214383273],[76.7918476035,9.721813159],[76.7933591277,9.7203884501],[76.7895598811,9.721034929],[76.7872595561,9.718331712],[76.7887521932,9.7144530905],[76.7860045225,9.7136728095],[76.7861126339,9.7113403238],[76.7856346457,9.7112510394]],[[76.7759849079,9.7379487239],[76.7759889584,9.7380487072],[76.7759849079,9.7379487239]]]]}},{"type":"Feature","properties":{"code":"G05009","name":"Mulakkulam","type":"Grama Panchayat","leading":"UDF","seats":{"LDF":6,"UDF":10,"NDA":1,"OTHERS":1}},"geometry":{"type":"MultiPolygon","coordinates":[[[[76.4759664946,9.7724437475],[76.4759664946,9.7724437475],[76.4759664946,9.7724437475]]]]}},{"type":"Feature","properties":{"code":"G05066","name":"Mundakayam","type":"Grama Panchayat","leading":"UDF","seats":{"LDF":7,"UDF":12,"NDA":0,"OTHERS":4}},"geometry":{"type":"MultiPolygon","coordinates":[[[[76.888328954,9.4869215765],[76.888328954,9.4869215765],[76.888328954,9.4869215765]]]]}},{"type":"Feature","properties":{"code":"G05033","name":"Mutholy","type":"Grama Panchayat","leading":"LDF","seats":{"LDF":9,"UDF":1,"NDA":2,"OTHERS":2}},"geometry":{"type":"MultiPolygon","coordinates":[[[[76.6542096042,9.6789384946],[76.6511990784,9.6853726897],[76.6488969092,9.6845205365],[76.6444514595,9.6889848117],[76.6420071122,9.6892671538],[76.6444324565,9.6922350942],[76.6429732943,9.6920985361],[76.6434320226,9.6940386101],[76.6371048943,9.7043667477],[76.639777367,9.7078676694],[76.6339193317,9.7107865845],[76.6335727347,9.7123367347],[76.6311346136,9.7119208115],[76.629115959,9.720895714],[76.6255812555,9.723315253],[76.6277350427,9.7229597409],[76.6370352209,9.728263874],[76.6429070579,9.7199181499],[76.6417102944,9.7170830502],[76.6439058533,9.7165677842],[76.6453598215,9.71863033],[76.6473797975,9.7119030575],[76.6545513557,9.7120607076],[76.6571651801,9.7149839717],[76.6594332052,9.714187028],[76.6559473376,9.7201851411],[76.6592534433,9.72323314],[76.6633809379,9.7210781462],[76.6670356824,9.7156493535],[76.6627490908,9.7129745342],[76.662022669,9.7101578779],[76.6636844328,9.7083059358],[76.6583909501,9.7060952967],[76.6601939767,9.7053511911],[76.6640976183,9.6972244072],[76.6678909828,9.6972723231],[76.6713535436,9.7067276599],[76.6767636465,9.706833438],[76.679086485,9.6978184512],[76.6858971216,9.6957591376],[76.6855937138,9.6927445108],[76.6903897302,9.6914116351],[76.6919416668,9.6882991078],[76.6907088926,9.6871365824],[76.6929320451,9.6870644154],[76.6941131931,9.6827254837],[76.6924832872,9.6796626114],[76.6956662689,9.6786705258],[76.6912941612,9.675674131],[76.6880460723,9.6767773848],[76.6863860279,9.6751322334],[76.6841220883,9.6755995962],[76.6815296645,9.6795916542],[76.6697094047,9.6786892759],[76.6670251901,9.6796090238],[76.6663249399,9.6822866906],[76.6650568439,9.6814912534],[76.6635887686,9.6828935045],[76.6632552735,9.6806145029],[76.6583084668,9.6757174488],[76.6596651924,9.6697580191],[76.6558510481,9.6687568318],[76.6548266345,9.6789192795],[76.6542096042,9.6789384946]],[[76.656383652,9.6922365658],[76.656383652,9.6922365658],[76.656383652,9.6922365658]]]]}},{"type":"Feature","properties":{"code":"G05058","name":"Nedumkunnam","type":"Grama Panchayat","leading":"UDF","seats":{"LDF":6,"UDF":8,"NDA":0,"OTHERS":2}},"geometry":{"type":"MultiPolygon","coordinates":[[[[76.6547359972,9.4822556252],[76.6534319668,9.48616684],[76.6509832528,9.4888316899],[76.6451453272,9.4911402238],[76.6429587712,9.495318092],[76.6385813221,9.5112035631],[76.6390777114,9.5150742993],[76.647433179,9.5302942286],[76.663071877,9.5322676781],[76.6650439845,9.535689342],[76.6741548257,9.5371638197],[76.6763001355,9.5327774828],[76.6783232386,9.5068825252],[76.6885085529,9.4946869236],[76.6903532747,9.4889317592],[76.6893620144,9.4838561399],[76.6903558754,9.482540265],[76.6926559793,9.4844206639],[76.6944077157,9.4832691549],[76.6956973335,9.4778238236],[76.6899861279,9.477159799],[76.680025726,9.4833948329],[76.6778711578,9.48191576],[76.6740685515,9.482521006],[76.6728523278,9.4797510157],[76.6676975099,9.4820303199],[76.6549174102,9.4821970801],[76.6547359972,9.4822556252]]]]}},{"type":"Feature","properties":{"code":"G05013","name":"Neendoor","type":"Grama Panchayat","leading":"UDF","seats":{"LDF":5,"UDF":8,"NDA":1,"OTHERS":1}},"geometry":{"type":"MultiPolygon","coordinates":[[[[76.515027011,9.650488812],[76.5140838896,9.6453851569],[76.4973290707,9.6496134393],[76.4955970236,9.6575456643],[76.4869173765,9.6622988359],[76.4812981934,9.6627306892],[76.4797661616,9.6604620671],[76.4763111988,9.6704299498],[76.4719002938,9.6727455776],[76.4731250012,9.6759373876],[76.4787415558,9.6755802162],[76.4793030415,9.6866515548],[76.4817706156,9.6888224027],[76.4897719638,9.6905645579],[76.4924373443,9.6950454202],[76.4990003899,9.6945893957],[76.5004809977,9.700967924],[76.5032044974,9.7042511136],[76.5067752494,9.7020959949],[76.5113437495,9.705552639],[76.5171631122,9.7065344748],[76.5191950556,9.704348192],[76.5228271536,9.7063350003],[76.5238369615,9.7029852177],[76.5202173285,9.7003962075],[76.5178601393,9.7009973402],[76.5164743002,9.695895866],[76.5132489396,9.6945929191],[76.5149578758,9.6906854991],[76.5214067698,9.6888679972],[76.5260461685,9.6817816626],[76.5220099508,9.6773739763],[76.5224597175,9.6737070109],[76.5150823679,9.6743962442],[76.5149245312,9.6650626555],[76.5171543887,9.6566214114],[76.5149791497,9.6537745645],[76.5152654158,9.6515733799],[76.515027011,9.650488812]]]]}},{"type":"Feature","properties":{"code":"G05010","name":"Njeezhoor","type":"Grama Panchayat","leading":"UDF","seats":{"LDF":2,"UDF":11,"NDA":0,"OTHERS":2}},"geometry":{"type":"MultiPolygon","coordinates":[[[[76.5326155006,9.7598436041],[76.5325923519,9.7582275818],[76.5201993164,9.7630664021],[76.5152237097,9.7674695206],[76.5117054885,9.7736654464],[76.5093128014,9.7715681925],[76.5012992686,9.7717001527],[76.5018443357,9.7757190892],[76.5044555658,9.7756678603],[76.5065028856,9.7785493881],[76.5075405521,9.7862218805],[76.5119951053,9.7908741595],[76.5099638339,9.7962789971],[76.5075365968,9.7983503035],[76.5123978479,9.8014114406],[76.5142899334,9.8048457493],[76.5123790722,9.8161627689],[76.5152260435,9.82042826],[76.5181840529,9.8202874419],[76.523433555,9.8261611875],[76.5389433484,9.8225206545],[76.538837561,9.813453768],[76.5436422865,9.8128347726],[76.541572428,9.8068773262],[76.5424609076,9.8048263998],[76.5454753564,9.8041022084],[76.5448459356,9.8005128731],[76.5471079977,9.7993869472],[76.5486335221,9.8018613608],[76.5548415661,9.8020755875],[76.5577690256,9.7998592208],[76.5595903302,9.8005809844],[76.5612251957,9.797597109],[76.5595057673,9.7976520055],[76.5606069347,9.7949568974],[76.5642809149,9.7940495213],[76.5648567745,9.7844315826],[76.5672676156,9.780785634],[76.5623979302,9.7804877214],[76.5616198427,9.7787013153],[76.5641245901,9.7772782526],[76.5643908085,9.7747661132],[76.5599588236,9.7736390775],[76.5615182828,9.7712956864],[76.560484065,9.7706638006],[76.5567021837,9.7755792808],[76.5471854648,9.7776182022],[76.5452710929,9.7699466347],[76.5409634511,9.7698620987],[76.5394998062,9.7656563139],[76.5334436826,9.7644388315],[76.5310899016,9.7620387841],[76.5327573993,9.7602059886],[76.5326155006,9.7598436041]]]]}},{"type":"Feature","properties":{"code":"G05052","name":"Paippadu","type":"Grama Panchayat","leading":"TIE","seats":{"LDF":6,"UDF":4,"NDA":1,"OTHERS":6}},"geometry":{"type":"MultiPolygon","coordinates":[[[[76.506745861,9.4312029198],[76.5139717268,9.439317079],[76.5260975773,9.4416103246],[76.526189324,9.4342478352],[76.5300908304,9.4324318896],[76.5314434929,9.4238685841],[76.5384680471,9.4244296634],[76.5488016696,9.4315630594],[76.5510896841,9.4306544661],[76.5605574268,9.4323240383],[76.5700775467,9.4302186152],[76.5710087745,9.4338751122],[76.5752076851,9.4321971458],[76.5754039347,9.4340729637],[76.5787804431,9.4344031905],[76.5839587457,9.4398520548],[76.591383617,9.4413368385],[76.593649258,9.4397166722],[76.5942376833,9.4355217216],[76.5923835695,9.433128661],[76.5932829529,9.4311444351],[76.5919265812,9.4282495679],[76.5938902437,9.4238508611],[76.5927789684,9.4233189959],[76.5967430891,9.4205224792],[76.5963777568,9.4189746144],[76.594875038,9.4191020648],[76.5937060549,9.4145132103],[76.5905216116,9.4196883068],[76.5834571075,9.4202243223],[76.5796079757,9.4226446847],[76.564647335,9.4104411459],[76.5597889513,9.4111492478],[76.5553772953,9.4131826586],[76.5537844503,9.4239231885],[76.5486609719,9.4220094456],[76.5440763956,9.4229224145],[76.5436615527,9.4208792827],[76.5404261732,9.4206028451],[76.5416574499,9.4179396753],[76.5391707273,9.4142312979],[76.5374219464,9.4138409903],[76.5368013992,9.4165956584],[76.5306301663,9.416445864],[76.5311470569,9.4133124268],[76.5263080579,9.4135621179],[76.5252743046,9.409307364],[76.520240647,9.4085941819],[76.5190136947,9.4097227986],[76.517001764,9.4084348119],[76.5159900337,9.4001665895],[76.5119309306,9.4000377762],[76.5054742984,9.4047361397],[76.5071775015,9.4216725835],[76.5046444357,9.4298111835],[76.506745861,9.4312029198]],[[76.5615740619,9.4307102269],[76.5615740619,9.4307102269],[76.5615740619,9.4307102269]]]]}},{"type":"Feature","properties":{"code":"G05047","name":"Pallickathodu","type":"Grama Panchayat","leading":"UDF","seats":{"LDF":5,"UDF":6,"NDA":4,"OTHERS":0}},"geometry":{"type":"MultiPolygon","coordinates":[[[[76.6702662686,9.585832667],[76.6692477461,9.5877429156],[76.6666191301,9.587927389],[76.6676262017,9.590299537],[76.6662328814,9.595242436],[76.6699113433,9.5961764699],[76.6683563047,9.5996968437],[76.669592559,9.6007051305],[76.6653478388,9.6017097014],[76.6611313534,9.6070444693],[76.6588334351,9.6150884801],[76.6716055129,9.6138518481],[76.6766871334,9.6087545177],[76.6783884823,9.608982957],[76.679934986,9.6131514977],[76.6828399265,9.6141094669],[76.6850211941,9.6127539364],[76.6896430972,9.6156316592],[76.6994684709,9.6140343083],[76.7005211931,9.6117478537],[76.7101372962,9.6155041671],[76.7098219975,9.6083667278],[76.7082863158,9.6057297184],[76.7105412138,9.6018981875],[76.7149990998,9.5987470144],[76.7167910888,9.5931785817],[76.7186110864,9.5929759151],[76.7207624697,9.5862129581],[76.7233909268,9.5835780855],[76.7226466429,9.58197529],[76.7254899437,9.5806459955],[76.7244958043,9.5782759555],[76.7264341494,9.5769631419],[76.7260794541,9.5756949045],[76.7148880681,9.576645359],[76.7083583427,9.5790527757],[76.7083326365,9.575732225],[76.6996738052,9.5769502509],[76.6954227212,9.5737953994],[76.6910808778,9.5749531969],[76.6800397125,9.5723014872],[76.6794895303,9.5770780286],[76.6764091236,9.5795592736],[76.6747858931,9.5773218357],[76.677660652,9.5713904133],[76.6752695757,9.5705448384],[76.6725261235,9.5716174508],[76.6713388489,9.5748706695],[76.6703353364,9.5854716048],[76.6702662686,9.585832667]],[[76.6702033308,9.584961143],[76.6703166703,9.5849939255],[76.6702033308,9.584961143]]]]}},{"type":"Feature","properties":{"code":"G05046","name":"Pampady","type":"Grama Panchayat","leading":"UDF","seats":{"LDF":4,"UDF":16,"NDA":0,"OTHERS":1}},"geometry":{"type":"MultiPolygon","coordinates":[[[[76.6327607458,9.5303216132],[76.6307318728,9.5345830468],[76.6283425779,9.5356062806],[76.6301939374,9.5371922305],[76.6301650601,9.5430469999],[76.6318513803,9.54411029],[76.6311729088,9.5486519963],[76.6348688824,9.5523375085],[76.6332179487,9.5537603113],[76.6337559003,9.5585782102],[76.6312333466,9.5627121486],[76.6267717218,9.5646647918],[76.6226895229,9.5644222016],[76.618630514,9.5674019887],[76.6168372863,9.5662330413],[76.6088315544,9.5691731944],[76.6107997533,9.5727776297],[76.6059619751,9.5776619727],[76.6018553097,9.5774411176],[76.6005543713,9.5744987029],[76.5966965573,9.5743975815],[76.5952126742,9.5786121896],[76.59597635,9.5972072305],[76.5982955764,9.6004107958],[76.6027539296,9.6015001684],[76.6041195224,9.6035063644],[76.6078036787,9.6027398747],[76.609645349,9.600492426],[76.6127032304,9.6019349258],[76.6135780197,9.5988069196],[76.6171884162,9.5971738283],[76.6162448788,9.5953636506],[76.6205721291,9.5965081043],[76.6320452134,9.5819368709],[76.6290016655,9.5754620979],[76.6305110867,9.5708971426],[76.6323260636,9.5726471734],[76.6344172409,9.5708078803],[76.6369586548,9.5742995258],[76.6378538844,9.5732351112],[76.6411043906,9.5743649583],[76.6431158461,9.5765806242],[76.6515686031,9.5755974081],[76.6503169975,9.5737337235],[76.6540820901,9.5720117881],[76.6548403967,9.5674946216],[76.6535398868,9.5635717976],[76.6568072356,9.5639601569],[76.6575655304,9.5620354701],[76.6631046278,9.5602363667],[76.6628235153,9.5585113263],[76.6677193004,9.5576677896],[76.6730208041,9.5537185618],[76.675336961,9.5474038433],[76.6741363195,9.5434146911],[76.6726390669,9.5429832986],[76.6741548257,9.5371638197],[76.6650439845,9.535689342],[76.663071877,9.5322676781],[76.647433179,9.5302942286],[76.6442039826,9.5270885152],[76.6418573325,9.5271283172],[76.6385176118,9.5299340155],[76.6360106636,9.5289657387],[76.6329740193,9.5301653401],[76.6327607458,9.5303216132]]]]}},{"type":"Feature","properties":{"code":"G05070","name":"Panachikadu","type":"Grama Panchayat","leading":"LDF","seats":{"LDF":10,"UDF":9,"NDA":3,"OTHERS":2}},"geometry":{"type":"MultiPolygon","coordinates":[[[[76.5337018656,9.5161403433],[76.5337018656,9.5161403433],[76.5337018656,9.5161403433]]]]}},{"type":"Feature","properties":{"code":"G05068","name":"Parathodu","type":"Grama Panchayat","leading":"LDF","seats":{"LDF":10,"UDF":8,"NDA":1,"OTHERS":2}},"geometry":{"type":"MultiPolygon","coordinates":[[[[76.8272017358,9.5256569669],[76.8225842174,9.5307892857],[76.8123129909,9.5597966519],[76.8079278783,9.5610439525],[76.7995122694,9.5711675718],[76.7950847797,9.5728460148],[76.7940054197,9.5715506528],[76.7873847067,9.5710186307],[76.7880448894,9.5748822744],[76.7851037387,9.583458563],[76.7878115251,9.5852002994],[76.7975261437,9.5854690369],[76.7973921366,9.5885122639],[76.799625829,9.5921196188],[76.7988988943,9.5956031699],[76.809009087,9.596509084],[76.8132015424,9.6005803563],[76.8124220383,9.6053331067],[76.8161619027,9.6094490006],[76.8066661532,9.6218658355],[76.8106978658,9.6223605448],[76.8132861152,9.6251192653],[76.8177416081,9.6217773501],[76.8279676295,9.6204792603],[76.8265004192,9.6269446146],[76.8308602335,9.6275667829],[76.838694468,9.6216558182],[76.8434022213,9.6089923704],[76.8470357629,9.6069604396],[76.8484767514,9.6014635026],[76.8468922472,9.6000161488],[76.8485893651,9.5973160901],[76.8513725039,9.5968510706],[76.8540343495,9.5899978636],[76.8617988353,9.5836079203],[76.8663481015,9.5769526425],[76.8699113562,9.5664334172],[76.8687116481,9.5646309904],[76.8677668495,9.5653633662],[76.8631439133,9.5565747862],[76.8648540685,9.554917727],[76.8638761723,9.552973665],[76.8649914864,9.5507485322],[76.8578351188,9.5449179937],[76.8492555314,9.5415282462],[76.8507762885,9.5382989274],[76.849451489,9.536472738],[76.850979447,9.5347937665],[76.8479977517,9.5312501821],[76.8483685807,9.5274357552],[76.8503287208,9.5263095991],[76.8513792736,9.522921179],[76.8514760033,9.5185339149],[76.8482235064,9.5069289735],[76.8443053498,9.5055772323],[76.8418458461,9.5107995782],[76.8317586745,9.5169805417],[76.8275625711,9.5252991453],[76.8272017358,9.5256569669]]]]}},{"type":"Feature","properties":{"code":"G05037","name":"Poonjar Thekkekkara","type":"Grama Panchayat","leading":"NDA","seats":{"LDF":5,"UDF":2,"NDA":7,"OTHERS":1}},"geometry":{"type":"MultiPolygon","coordinates":[[[[76.8337924028,9.6253472392],[76.8337924028,9.6253472392],[76.8337924028,9.6253472392]],[[76.8401118308,9.6194981051],[76.8401118308,9.6194981051],[76.8401118308,9.6194981051]]]]}},{"type":"Feature","properties":{"code":"G05036","name":"Poonjar","type":"Grama Panchayat","leading":"UDF","seats":{"LDF":3,"UDF":5,"NDA":4,"OTHERS":2}},"geometry":{"type":"MultiPolygon","coordinates":[[[[76.7814604423,9.6746212076],[76.7822152212,9.6791646478],[76.788618709,9.6794686545],[76.7930549267,9.6831438712],[76.7936064393,9.6859411546],[76.7953450611,9.6861016469],[76.8068439118,9.6762653803],[76.8088525205,9.6713506864],[76.8124554161,9.6702691737],[76.8157557402,9.6617707309],[76.8238905376,9.6486551661],[76.8220604007,9.6465425722],[76.8215081893,9.6415456241],[76.8228911897,9.6331151866],[76.8256413765,9.6293528552],[76.8282886649,9.6206796386],[76.8177416081,9.6217773501],[76.8132861152,9.6251192653],[76.8094469124,9.6219357784],[76.8031026927,9.6232535157],[76.7935878747,9.6319937552],[76.7959312541,9.640347256],[76.7904990463,9.6565478882],[76.7920851172,9.6645013275],[76.7859648817,9.6719804168],[76.7817125967,9.6744418743],[76.7814604423,9.6746212076]]]]}},{"type":"Feature","properties":{"code":"G05071","name":"Puthuppally","type":"Grama Panchayat","leading":"UDF","seats":{"LDF":2,"UDF":14,"NDA":3,"OTHERS":0}},"geometry":{"type":"MultiPolygon","coordinates":[[[[76.5766091423,9.5426379127],[76.5766091423,9.5426379127],[76.5766091423,9.5426379127]]]]}},{"type":"Feature","properties":{"code":"G05026","name":"Ramapuram","type":"Grama Panchayat","leading":"UDF","seats":{"LDF":5,"UDF":11,"NDA":2,"OTHERS":1}},"geometry":{"type":"MultiPolygon","coordinates":[[[[76.6560628484,9.765378578],[76.6560628484,9.765378578],[76.6560628484,9.765378578]]]]}},{"type":"Feature","properties":{"code":"G05039","name":"Teekoy","type":"Grama Panchayat","leading":"TIE","seats":{"LDF":5,"UDF":5,"NDA":1,"OTHERS":3}},"geometry":{"type":"MultiPolygon","coordinates":[[[[76.8135781045,9.6899391995],[76.811227959,9.6921982284],[76.8105599394,9.6899782704],[76.8070497877,9.6886989053],[76.8073120248,9.6865010822],[76.8039640415,9.6857137751],[76.8040152868,9.6814805288],[76.8017780236,9.6806592183],[76.7990972702,9.6819361337],[76.7954582623,9.6859679403],[76.7992549551,9.6860656723],[76.7996095488,9.6875299764],[76.798113058,9.692176602],[76.7959574804,9.693722789],[76.7962374431,9.6980452938],[76.7938407846,9.7009347508],[76.7951386525,9.7016097306],[76.7945798474,9.7050190139],[76.7921192693,9.7039358086],[76.7919588428,9.7056381866],[76.7900332833,9.7061513877],[76.7882742302,9.7046039281],[76.7858002286,9.7093368829],[76.7860045225,9.7136728095],[76.7887521932,9.7144530905],[76.7875460415,9.7185440747],[76.7903263147,9.7184205625],[76.7927082471,9.7137008212],[76.7965190667,9.7116897706],[76.8003503131,9.7134803094],[76.8081183301,9.7087211073],[76.8116501447,9.7105009658],[76.814455551,9.7058635054],[76.8169547881,9.7061975474],[76.8253183477,9.6983692217],[76.8277869648,9.7023941297],[76.8252291774,9.7105538587],[76.8272943341,9.7115804319],[76.8277134764,9.7151562255],[76.82251166136733,9.717968026255662],[76.8269375197,9.7169837965],[76.8280063604,9.7195931361],[76.8301976298,9.7195750195],[76.8339003723,9.7233273282],[76.8463553502,9.7172997169],[76.8491846579,9.7099596939],[76.8585552838,9.7086579624],[76.8604717074,9.7035946373],[76.8666352498,9.7038731728],[76.8675786893,9.7021529782],[76.8739632648,9.7015413636],[76.8769022919,9.7026837408],[76.8770804647,9.700927543],[76.8782088924,9.7020832353],[76.8815890354,9.7009584592],[76.8839252885,9.7028397137],[76.8848627137,9.7101216942],[76.8879528895,9.717669725],[76.8976349487,9.6938538255],[76.9013233145,9.6901893759],[76.9008328532,9.6876620052],[76.9035674543,9.682604513],[76.9021953505,9.6773384682],[76.9091436054,9.6718542733],[76.9054363966,9.6681588895],[76.8906100567,9.6658492068],[76.8909589624,9.6696597343],[76.8869214304,9.6718264627],[76.8842812809,9.6765048634],[76.8812886316,9.6776854754],[76.8793192173,9.6824832262],[76.8747834392,9.6847671421],[76.8726558864,9.6848617706],[76.8706107495,9.6816496881],[76.8679628232,9.6817773971],[76.8656935621,9.6774875378],[76.8625025656,9.6801941215],[76.8603799598,9.6791073488],[76.8571023523,9.6840380438],[76.851530841,9.6827823118],[76.8446482214,9.6864622022],[76.8299096641,9.682078729],[76.82399068,9.685991974],[76.820614211,9.6903431037],[76.8139699254,9.6898409277],[76.8135781045,9.6899391995]]]]}},{"type":"Feature","properties":{"code":"G05040","name":"Thalanadu","type":"Grama Panchayat","leading":"LDF","seats":{"LDF":6,"UDF":2,"NDA":1,"OTHERS":5}},"geometry":{"type":"MultiPolygon","coordinates":[[[[76.7880824183,9.7187071927],[76.7895598811,9.721034929],[76.7933591277,9.7203884501],[76.7918476035,9.721813159],[76.7945131772,9.7214383273],[76.7951428108,9.7231222077],[76.7892881263,9.7297651307],[76.7935678575,9.7294707814],[76.794547845,9.733365255],[76.7973757999,9.7351972153],[76.8012195203,9.7346406282],[76.8028185511,9.7413188322],[76.8090757249,9.7381918177],[76.8180154972,9.7402882556],[76.8175364032,9.7450898185],[76.8231473479,9.7537867589],[76.8217469956,9.7574909821],[76.8279482663,9.7634087017],[76.8403421597,9.7551610759],[76.8492396735,9.7410974196],[76.8613430139,9.7298983443],[76.8676784229,9.7352033501],[76.8687979106,9.7283572153],[76.8879528895,9.717669725],[76.8848627137,9.7101216942],[76.8839252885,9.7028397137],[76.8815890354,9.7009584592],[76.8782088924,9.7020832353],[76.8773482453,9.7009052115],[76.8769022919,9.7026837408],[76.8739632648,9.7015413636],[76.8675786893,9.7021529782],[76.8666352498,9.7038731728],[76.8604717074,9.7035946373],[76.8585552838,9.7086579624],[76.8491846579,9.7099596939],[76.8463553502,9.7172997169],[76.8340179447,9.7233380709],[76.8301976298,9.7195750195],[76.8280063604,9.7195931361],[76.8268464189,9.7167942821],[76.8272943341,9.7115804319],[76.8252291774,9.7105538587],[76.827826241,9.7027759894],[76.8253183477,9.6983692217],[76.8169547881,9.7061975474],[76.814455551,9.7058635054],[76.8116501447,9.7105009658],[76.8081183301,9.7087211073],[76.8003503131,9.7134803094],[76.7965190667,9.7116897706],[76.7927082471,9.7137008212],[76.7899450346,9.7184023069],[76.7880824183,9.7187071927]]]]}},{"type":"Feature","properties":{"code":"G05041","name":"Thalappalam","type":"Grama Panchayat","leading":"UDF","seats":{"LDF":1,"UDF":7,"NDA":4,"OTHERS":2}},"geometry":{"type":"MultiPolygon","coordinates":[[[[76.7538577702,9.6993169303],[76.7538577702,9.6993169303],[76.7538577702,9.6993169303]]]]}},{"type":"Feature","properties":{"code":"G05001","name":"Thalayazham","type":"Grama Panchayat","leading":"LDF","seats":{"LDF":10,"UDF":5,"NDA":0,"OTHERS":1}},"geometry":{"type":"MultiPolygon","coordinates":[[[[76.4248996755,9.6928467984],[76.4248996755,9.6928467984],[76.4248996755,9.6928467984]]]]}},{"type":"Feature","properties":{"code":"G05011","name":"Thalayolaparambu","type":"Grama Panchayat","leading":"UDF","seats":{"LDF":2,"UDF":12,"NDA":0,"OTHERS":3}},"geometry":{"type":"MultiPolygon","coordinates":[[[[76.4314441089,9.7444486549],[76.4314441089,9.7444486549],[76.4314441089,9.7444486549]]]]}},{"type":"Feature","properties":{"code":"G05042","name":"Thidanadu","type":"Grama Panchayat","leading":"UDF","seats":{"LDF":4,"UDF":6,"NDA":4,"OTHERS":2}},"geometry":{"type":"MultiPolygon","coordinates":[[[[76.7604441379,9.6314074986],[76.7580131288,9.6356139205],[76.7622492405,9.6389894866],[76.7574323159,9.646002616],[76.7587099726,9.6484455878],[76.7566232042,9.6520457356],[76.7594319136,9.6539785106],[76.7546481592,9.6618564765],[76.7501293279,9.6627764324],[76.7519033308,9.664660585],[76.7467553303,9.6697472801],[76.7433789449,9.6804281975],[76.7351740726,9.688007979],[76.7357715484,9.690988145],[76.7309817152,9.6953848417],[76.7306841563,9.6992446561],[76.7321799393,9.701044263],[76.7406131013,9.7036337836],[76.7432656655,9.70283113],[76.7431803903,9.6991583542],[76.7449077967,9.6966232349],[76.7489613177,9.6966382137],[76.753090043,9.699396228],[76.7603760115,9.698314138],[76.7678173274,9.6924700756],[76.7678111308,9.6879843431],[76.7654564803,9.6833974451],[76.7699337466,9.6804610602],[76.7723881263,9.675456543],[76.7773362328,9.6733265952],[76.7829575701,9.6740638991],[76.7920851172,9.6645013275],[76.7904990463,9.6565478882],[76.7959312541,9.640347256],[76.7937178618,9.6315922821],[76.8031026927,9.6232535157],[76.8076979321,9.6213346027],[76.8131633191,9.6118899419],[76.8161619027,9.6094490006],[76.8124220383,9.6053331067],[76.8132015424,9.6005803563],[76.809009087,9.596509084],[76.7988988943,9.5956031699],[76.7970421665,9.599667982],[76.7926304988,9.6004893676],[76.7895673353,9.5991891208],[76.7831682717,9.6060395547],[76.7741334028,9.6203691789],[76.7692441926,9.6223636766],[76.7657396661,9.6209650209],[76.7620475049,9.6219495259],[76.7604950212,9.6255705552],[76.7627066653,9.6287841637],[76.7604877619,9.6311266172],[76.7604441379,9.6314074986]]]]}},{"type":"Feature","properties":{"code":"G05015","name":"Thiruvarppu","type":"Grama Panchayat","leading":"LDF","seats":{"LDF":13,"UDF":5,"NDA":0,"OTHERS":1}},"geometry":{"type":"MultiPolygon","coordinates":[[[[76.4488621593,9.5574430141],[76.4507803876,9.5681243276],[76.4546234343,9.5670451154],[76.4569631728,9.5756661975],[76.4613355608,9.5777928956],[76.4613192537,9.5839969733],[76.4593539635,9.5842760568],[76.4593072763,9.5881726462],[76.4566618312,9.5883562505],[76.4546818482,9.5918757692],[76.4557822619,9.6050730234],[76.4582982885,9.6134659754],[76.4683518577,9.6088109606],[76.4748360061,9.6083869973],[76.47573065,9.6033521851],[76.4821150899,9.6029213409],[76.4847547525,9.6046330567],[76.4867492343,9.6030280188],[76.4884338243,9.6052043441],[76.4936859244,9.6028821545],[76.4928723588,9.6011494859],[76.4959959304,9.6000994734],[76.501092285,9.6032028631],[76.5055037246,9.6003375793],[76.4989717301,9.5908542866],[76.4946113831,9.5924145452],[76.4909180739,9.589680302],[76.4910838634,9.5873181731],[76.4885282022,9.5874753057],[76.4875270065,9.5818017156],[76.4903956775,9.5797129393],[76.4887629293,9.578770453],[76.490510696,9.5777450512],[76.4885481206,9.5744696158],[76.4890412759,9.566399817],[76.4907424236,9.563266861],[76.493523994,9.5589501552],[76.5012973551,9.5566481539],[76.5020119308,9.5532015926],[76.5061674942,9.5516824192],[76.5076246353,9.5488052091],[76.5055645324,9.5439515631],[76.504824017,9.5347774411],[76.5019728568,9.5308564815],[76.4992531992,9.529370022],[76.4800759771,9.5291711419],[76.4798250345,9.5375275803],[76.465590114,9.5422965554],[76.466467009,9.5604560078],[76.4491196632,9.5575084224],[76.4488621593,9.5574430141]]]]}},{"type":"Feature","properties":{"code":"G05053","name":"Thrikkodithanam","type":"Grama Panchayat","leading":"UDF","seats":{"LDF":9,"UDF":12,"NDA":0,"OTHERS":1}},"geometry":{"type":"MultiPolygon","coordinates":[[[[76.5707421742,9.4329633924],[76.5707421742,9.4329633924],[76.5707421742,9.4329633924]],[[76.5621269624,9.4327541485],[76.5621269624,9.4327541485],[76.5621269624,9.4327541485]]]]}},{"type":"Feature","properties":{"code":"G05004","name":"T V Puram","type":"Grama Panchayat","leading":"LDF","seats":{"LDF":11,"UDF":4,"NDA":0,"OTHERS":0}},"geometry":{"type":"MultiPolygon","coordinates":[[[[76.4031023947,9.7043780223],[76.40225427,9.6986623543],[76.4001492487,9.6971827011],[76.3996459236,9.6871085331],[76.3758172636,9.6968305048],[76.3807301139,9.7341366425],[76.4026972635,9.7340899235],[76.4118946321,9.7256993902],[76.4120733511,9.7198264957],[76.4041871265,9.7085626384],[76.4031289794,9.7046137965],[76.4031023947,9.7043780223]]]]}},{"type":"Feature","properties":{"code":"G05006","name":"Udayanapuram","type":"Grama Panchayat","leading":"LDF","seats":{"LDF":11,"UDF":5,"NDA":1,"OTHERS":1}},"geometry":{"type":"MultiPolygon","coordinates":[[[[76.392236709,9.7693427347],[76.392236709,9.7693427347],[76.392236709,9.7693427347]]]]}},{"type":"Feature","properties":{"code":"G05025","name":"Uzhavoor","type":"Grama Panchayat","leading":"UDF","seats":{"LDF":2,"UDF":8,"NDA":2,"OTHERS":2}},"geometry":{"type":"MultiPolygon","coordinates":[[[[76.5976360684,9.7822785451],[76.5946692025,9.7896168834],[76.5855266104,9.7927960885],[76.5837030276,9.7964048324],[76.5765616089,9.7909103717],[76.5731633468,9.7909618239],[76.5703556795,9.7938476028],[76.5687758879,9.7930863107],[76.5669954315,9.7964954733],[76.564954275,9.7955874827],[76.5634765095,9.7967974089],[76.5624666297,9.794515612],[76.5607860759,9.7947279837],[76.5597467089,9.8004542424],[76.55502518,9.8008262641],[76.5580165717,9.815964185],[76.5607139969,9.8206196122],[76.5635391086,9.8206376737],[76.5633610454,9.8229080839],[76.5677619414,9.8243039258],[76.5760278632,9.8191632429],[76.580049008,9.8217443259],[76.581731681,9.8269742779],[76.5854405661,9.8231296235],[76.5868278075,9.8161876792],[76.5906653053,9.8137735394],[76.5998659878,9.8151116786],[76.6073886642,9.8105365022],[76.6063109005,9.8133692315],[76.6085454706,9.8147128471],[76.6120347086,9.8111380099],[76.6101276311,9.8068619186],[76.6133612032,9.8063844165],[76.6131108364,9.8009182803],[76.6145913714,9.7993491887],[76.6171346304,9.8026901354],[76.6217430525,9.7985214715],[76.6237663918,9.7942929823],[76.6262954754,9.7940214827],[76.6305066787,9.789862011],[76.6342357794,9.7895669358],[76.6407800395,9.7811890477],[76.6390357053,9.7782884644],[76.6334453375,9.7770985928],[76.6342953225,9.7756923832],[76.6319352003,9.7739309347],[76.6292698788,9.7755451308],[76.6271871531,9.774178148],[76.6263479532,9.7755941145],[76.6237818662,9.7748471857],[76.6217001894,9.7776590245],[76.6128437898,9.7806735771],[76.6094233456,9.7740606799],[76.6053159589,9.7748157505],[76.5989322655,9.7790949724],[76.5978463469,9.7824088395],[76.5976360684,9.7822785451]],[[76.6206277716,9.7904489959],[76.6206277716,9.7904489959],[76.6206277716,9.7904489959]]]]}},{"type":"Feature","properties":{"code":"G05054","name":"Vakathanam","type":"Grama Panchayat","leading":"UDF","seats":{"LDF":6,"UDF":14,"NDA":0,"OTHERS":1}},"geometry":{"type":"MultiPolygon","coordinates":[[[[76.5773036775,9.4938021687],[76.5765244267,9.4883946492],[76.5782861631,9.4864726057],[76.5692569231,9.4819058948],[76.5543048748,9.4940095937],[76.5552161744,9.5041926211],[76.5600150132,9.5141884968],[76.5569487802,9.5158455704],[76.5627050893,9.5239922625],[76.5601091791,9.5312631262],[76.5614283857,9.5348339751],[76.564365344,9.536739208],[76.5660648927,9.5438676418],[76.5736591486,9.544641719],[76.5804708973,9.537546682],[76.590629325,9.5385992123],[76.5954434038,9.5372708061],[76.600485051,9.5303413647],[76.606294279,9.5337703168],[76.615410316,9.5338690769],[76.6172514563,9.5365700134],[76.621730062,9.5376977462],[76.6223011282,9.5366227077],[76.6223693903,9.532853571],[76.6196224993,9.53268239],[76.6206438721,9.5295758352],[76.6175570695,9.5265046962],[76.6162711168,9.5224539573],[76.6123790347,9.5227563267],[76.6106261134,9.519125924],[76.6110432883,9.5157681601],[76.6131038242,9.5143672664],[76.6116810176,9.5132210179],[76.6159253211,9.5105703694],[76.6150330506,9.5084205125],[76.6071469464,9.5107288629],[76.6051481464,9.5057705648],[76.6029930476,9.5086183645],[76.5953493493,9.5099585132],[76.5900611137,9.5040079154],[76.5847575528,9.5035765759],[76.5804010012,9.5012480262],[76.5772630135,9.4939597768],[76.5773036775,9.4938021687]],[[76.6002299466,9.5146326808],[76.6002299466,9.5146326808],[76.6002299466,9.5146326808]]]]}},{"type":"Feature","properties":{"code":"G05055","name":"Vazhappally","type":"Grama Panchayat","leading":"UDF","seats":{"LDF":5,"UDF":12,"NDA":0,"OTHERS":5}},"geometry":{"type":"MultiPolygon","coordinates":[[[[76.5230693277,9.4489286711],[76.5230693277,9.4489286711],[76.5230693277,9.4489286711]]]]}},{"type":"Feature","properties":{"code":"G05060","name":"Vazhoor","type":"Grama Panchayat","leading":"LDF","seats":{"LDF":11,"UDF":5,"NDA":2,"OTHERS":0}},"geometry":{"type":"MultiPolygon","coordinates":[[[[76.6804503234,9.5556348517],[76.6804503234,9.5556348517],[76.6804503234,9.5556348517]]]]}},{"type":"Feature","properties":{"code":"G05005","name":"Vechoor","type":"Grama Panchayat","leading":"LDF","seats":{"LDF":9,"UDF":4,"NDA":0,"OTHERS":1}},"geometry":{"type":"MultiPolygon","coordinates":[[[[76.3973488667,9.64833127],[76.3963522156,9.653703159],[76.4023149,9.6864778996],[76.4145594377,9.692221895],[76.4353738475,9.6937956019],[76.4351584782,9.6953840306],[76.4418515658,9.697438873],[76.4537818566,9.6947353124],[76.4661126829,9.6767986686],[76.4567316339,9.6757613678],[76.4542960568,9.6559599996],[76.4468514764,9.6580824467],[76.4437228913,9.6547152955],[76.4402814688,9.6557144285],[76.4283976694,9.6464675882],[76.4239493262,9.6456978883],[76.3977666022,9.6483522412],[76.3973488667,9.64833127]]]]}},{"type":"Feature","properties":{"code":"G05023","name":"Veliyannoor","type":"Grama Panchayat","leading":"TIE","seats":{"LDF":6,"UDF":6,"NDA":0,"OTHERS":2}},"geometry":{"type":"MultiPolygon","coordinates":[[[[76.6027368625,9.8139683786],[76.6027368625,9.8139683786],[76.6027368625,9.8139683786]]]]}},{"type":"Feature","properties":{"code":"G05059","name":"Vellavoor","type":"Grama Panchayat","leading":"LDF","seats":{"LDF":7,"UDF":6,"NDA":1,"OTHERS":0}},"geometry":{"type":"MultiPolygon","coordinates":[[[[76.6953598086,9.4770091529],[76.6944077157,9.4832691549],[76.6969516898,9.482946416],[76.7022929835,9.4857134637],[76.7047447105,9.4823164351],[76.7091998198,9.4824568026],[76.7142201159,9.4867500625],[76.7132839078,9.4893097954],[76.7176613111,9.4954447547],[76.7174732685,9.4986064746],[76.7141181005,9.4995723229],[76.7181374379,9.506222365],[76.7155507696,9.5110321189],[76.7132818857,9.5107084635],[76.7152784516,9.5202400638],[76.721110663,9.5173580339],[76.7249051989,9.5212291344],[76.7356791828,9.5189138205],[76.7379771406,9.5165471712],[76.7395289318,9.5178149873],[76.7509536966,9.5022511124],[76.7513243441,9.494114842],[76.7414669931,9.4909153815],[76.7423131333,9.4869852226],[76.7467256113,9.4816754431],[76.7456397125,9.4751619283],[76.7445964945,9.4742793559],[76.7371277979,9.476334519],[76.7326017774,9.4749933403],[76.7301667402,9.4709604843],[76.731500786,9.4666843924],[76.7228016346,9.4645824872],[76.7175761104,9.4614791576],[76.7144598681,9.4572827132],[76.7083325036,9.4543820224],[76.7056568266,9.4602259708],[76.6993688514,9.467067377],[76.7012050878,9.4750343543],[76.6995678237,9.4769895135],[76.6958750849,9.4769296951],[76.6953598086,9.4770091529]]]]}},{"type":"Feature","properties":{"code":"G05012","name":"Velloor","type":"Grama Panchayat","leading":"LDF","seats":{"LDF":8,"UDF":6,"NDA":1,"OTHERS":2}},"geometry":{"type":"MultiPolygon","coordinates":[[[[76.4280823068,9.7946798401],[76.4280823068,9.7946798401],[76.4280823068,9.7946798401]]]]}},{"type":"Feature","properties":{"code":"G05072","name":"Vijayapuram","type":"Grama Panchayat","leading":"UDF","seats":{"LDF":3,"UDF":13,"NDA":2,"OTHERS":2}},"geometry":{"type":"MultiPolygon","coordinates":[[[[76.5512594621,9.5706987412],[76.5462988079,9.5689268977],[76.5437475538,9.5696115144],[76.5473984679,9.5783938598],[76.5527572456,9.5805115101],[76.5487851128,9.5856105011],[76.5472664336,9.5943829381],[76.5330287714,9.5978324216],[76.5333570131,9.6013670474],[76.5346950385,9.6050296771],[76.5400750038,9.6042293287],[76.5451429932,9.6098442655],[76.5522142939,9.6095908612],[76.5552169829,9.6113064581],[76.55744422,9.6163135937],[76.5611830414,9.6178569033],[76.5613209966,9.6204155222],[76.5573522361,9.6241873908],[76.5572359438,9.6266806262],[76.5630613495,9.6280207169],[76.5654677762,9.6257102269],[76.5672752396,9.6233116346],[76.5652996413,9.622065609],[76.566427504,9.6152567809],[76.5652871789,9.6099846345],[76.5658465284,9.6080550398],[76.5685494872,9.6080121367],[76.5716214318,9.604741773],[76.5687547774,9.6016700312],[76.5724085069,9.5969698408],[76.5734181333,9.5876461526],[76.5659056726,9.5774789765],[76.5668613983,9.5708522116],[76.5630006234,9.5624122516],[76.5593787563,9.5604115175],[76.554351616,9.5612455388],[76.5562273091,9.5650403275],[76.5515460947,9.5703255272],[76.5512594621,9.5706987412]]]]}},{"type":"Feature","properties":{"code":"M05016","name":"Changanassery","type":"Municipality","leading":"UDF","seats":{"LDF":9,"UDF":13,"NDA":8,"OTHERS":7}},"geometry":{"type":"MultiPolygon","coordinates":[[[[76.5414850255,9.4266904726],[76.5384680471,9.4244296634],[76.5314434929,9.4238685841],[76.5300908304,9.4324318896],[76.5262995617,9.4339002554],[76.5262155692,9.443619281],[76.5229944702,9.449108025],[76.5231826682,9.4524272378],[76.5206000629,9.4555556543],[76.5203033314,9.4683448732],[76.5246434384,9.4661976515],[76.5307222562,9.4677306342],[76.5393029467,9.462016486],[76.5480585967,9.4598796188],[76.5566455853,9.4602999697],[76.5591894031,9.4579935483],[76.5557731882,9.4525176086],[76.5609693026,9.4472957111],[76.5594745715,9.4426047208],[76.5575183687,9.4422374062],[76.5548755224,9.4315660635],[76.5488016696,9.4315630594],[76.5415970894,9.426784238],[76.5414850255,9.4266904726]]]]}},{"type":"Feature","properties":{"code":"M05064","name":"Erattupetta","type":"Municipality","leading":"OTHERS","seats":{"LDF":7,"UDF":8,"NDA":0,"OTHERS":14}},"geometry":{"type":"MultiPolygon","coordinates":[[[[76.7814604423,9.6746212076],[76.7790034647,9.673225668],[76.7736277879,9.6743747495],[76.7699337466,9.6804610602],[76.7654564803,9.6833974451],[76.7678111308,9.6879843431],[76.7678173274,9.6924700756],[76.7706896807,9.693084922],[76.7726202177,9.6971380056],[76.7750057074,9.6982857354],[76.784688196,9.7000148064],[76.7897683001,9.7060663388],[76.7919588428,9.7056381866],[76.7921192693,9.7039358086],[76.7945798474,9.7050190139],[76.7951601376,9.70361845],[76.7938407846,9.7009347508],[76.7964150768,9.6975835921],[76.7959574804,9.693722789],[76.798113058,9.692176602],[76.7992549551,9.6860656723],[76.7938710201,9.6861293138],[76.7930549267,9.6831438712],[76.788618709,9.6794686545],[76.7825106564,9.6793866982],[76.7813639201,9.6749131548],[76.7814604423,9.6746212076]]]]}},{"type":"Feature","properties":{"code":"M05063","name":"Ettumanoor","type":"Municipality","leading":"UDF","seats":{"LDF":5,"UDF":20,"NDA":6,"OTHERS":5}},"geometry":{"type":"MultiPolygon","coordinates":[[[[76.5424498098,9.6312635551],[76.5445462343,9.635179465],[76.5443812254,9.6412962351],[76.5508857656,9.6522209114],[76.5498491852,9.6597678557],[76.5523809458,9.6666412061],[76.5498400386,9.6719743375],[76.5505443779,9.6753667823],[76.5522982523,9.6749095878],[76.5530610307,9.6777417792],[76.5578312708,9.677686902],[76.5549475835,9.6895025411],[76.5593264186,9.6906808405],[76.5599695594,9.6928562926],[76.5631368942,9.6909859233],[76.5658814639,9.6925845068],[76.5710062349,9.6878086581],[76.5716165342,9.6897157243],[76.5769018161,9.6890472865],[76.5809838515,9.6780529052],[76.5837834215,9.6832467488],[76.5897349111,9.6869200743],[76.5981671371,9.6851347147],[76.5999730518,9.6805025895],[76.5970706759,9.6778989787],[76.5991883572,9.6704456019],[76.5913005229,9.6610020373],[76.5938724705,9.6496322628],[76.5913935452,9.6502709819],[76.5893393048,9.6479884126],[76.586741023,9.6503249621],[76.5813454603,9.6505379674],[76.5777935809,9.6382800184],[76.5735545299,9.6370087047],[76.5719392117,9.6339625874],[76.5679626331,9.634950768],[76.5665339956,9.6308027635],[76.5618548339,9.627314732],[76.5573795323,9.6267787092],[76.5564889407,9.6240782486],[76.5553978847,9.6271937954],[76.5462576542,9.6255480849],[76.5450455143,9.6296857625],[76.5426326916,9.6312783305],[76.5424498098,9.6312635551]]]]}},{"type":"Feature","properties":{"code":"M05017","name":"Kottayam","type":"Municipality","leading":"UDF","seats":{"LDF":15,"UDF":31,"NDA":6,"OTHERS":1}},"geometry":{"type":"MultiPolygon","coordinates":[[[[76.5086770601,9.5179669985],[76.4958734047,9.5193872752],[76.4931615607,9.5165228606],[76.4933927789,9.5110746931],[76.4910952019,9.5108170911],[76.4905069267,9.5075868962],[76.4804719868,9.5082850276],[76.4800759771,9.5291711419],[76.4992531992,9.529370022],[76.5019728568,9.5308564815],[76.504824017,9.5347774411],[76.5055645324,9.5439515631],[76.5076246353,9.5488052091],[76.5061674942,9.5516824192],[76.5020119308,9.5532015926],[76.5020025416,9.5557543299],[76.4992587373,9.5582083083],[76.4933095877,9.5591271633],[76.4890412759,9.566399817],[76.4885481206,9.5744696158],[76.4905099343,9.5780320836],[76.4887188984,9.5786080441],[76.490165168,9.5803540758],[76.4875640827,9.5815903562],[76.4884059469,9.5873017713],[76.4910838634,9.5873181731],[76.4909180739,9.589680302],[76.4946113831,9.5924145452],[76.4989717301,9.5908542866],[76.5047903059,9.599292915],[76.5118865125,9.5993175518],[76.5086168335,9.6037532587],[76.5139089283,9.6059626016],[76.5138140554,9.6107660842],[76.5103267694,9.6102978459],[76.5090151366,9.6121214756],[76.5186071154,9.6193781657],[76.5178473275,9.6247093727],[76.5200081073,9.6254941947],[76.5201089019,9.6305585406],[76.5292826017,9.6368603761],[76.5320323852,9.6405569819],[76.5359055839,9.6383877152],[76.5359771437,9.6357393717],[76.5408516252,9.6341317617],[76.540280285,9.6316329884],[76.5450455143,9.6296857625],[76.5462576542,9.6255480849],[76.5553978847,9.6271937954],[76.5561413637,9.624374644],[76.5613209966,9.6204155222],[76.5610492823,9.6175019537],[76.55744422,9.6163135937],[76.5535832878,9.6099923526],[76.5451429932,9.6098442655],[76.5395810633,9.6040210887],[76.5346950385,9.6050296771],[76.5330287714,9.5978324216],[76.5472664336,9.5943829381],[76.5487851128,9.5856105011],[76.5525923625,9.5800835928],[76.5473984679,9.5783938598],[76.5437475538,9.5696115144],[76.5379602187,9.5701199424],[76.5357907999,9.5818730184],[76.5291285182,9.5829976239],[76.5294733931,9.5775702345],[76.5324453587,9.5753247042],[76.5311788276,9.57011339],[76.5327689373,9.5686212847],[76.5325326112,9.5655244075],[76.5239777464,9.5487445501],[76.5232590654,9.5436593532],[76.5216473359,9.5439842184],[76.5202800094,9.5421677662],[76.5222541919,9.5401486398],[76.5217062493,9.5359888665],[76.52328786,9.5315041303],[76.5265857012,9.5312901767],[76.5266375932,9.5265889966],[76.5331190171,9.52625331],[76.5323088822,9.5214554514],[76.5352933928,9.5106531135],[76.5309568225,9.509066772],[76.527023779,9.5106402192],[76.5186870134,9.5098913363],[76.5157672902,9.5152568213],[76.5098986854,9.5142235613],[76.5088955951,9.5178098258],[76.5086770601,9.5179669985]]]]}},{"type":"Feature","properties":{"code":"M05019","name":"Palai","type":"Municipality","leading":"LDF","seats":{"LDF":11,"UDF":10,"NDA":0,"OTHERS":5}},"geometry":{"type":"MultiPolygon","coordinates":[[[[76.6779596104,9.7009364969],[76.6767636465,9.706833438],[76.6729254803,9.7075935688],[76.670210847,9.705025569],[76.6678909828,9.6972723231],[76.6634097343,9.6980675228],[76.6615609359,9.7031993336],[76.6583909501,9.7060952967],[76.6636844328,9.7083059358],[76.662022669,9.7101578779],[76.6627490908,9.7129745342],[76.6670356824,9.7156493535],[76.6644940368,9.720023545],[76.6679258285,9.719941278],[76.6705002779,9.7230650978],[76.6714090226,9.7206338818],[76.6741538196,9.7198135562],[76.6749914186,9.7209898922],[76.6706156701,9.729022188],[76.674615524,9.7309454328],[76.67703846,9.7343895713],[76.6853927589,9.7377477417],[76.6854424591,9.7399646462],[76.6924338906,9.7346841924],[76.6934776575,9.7367932839],[76.6959345139,9.7369526098],[76.7006410104,9.7278007469],[76.7061006069,9.7267957406],[76.7050015775,9.7237476112],[76.7072005194,9.7223726823],[76.7061097024,9.721013478],[76.7105862607,9.712574941],[76.7067731486,9.7089646678],[76.6985027739,9.7090432709],[76.694055921,9.7072346956],[76.6940508042,9.7031230269],[76.7043030358,9.6943211241],[76.700161178,9.6962312994],[76.6981030793,9.6936779257],[76.6952805628,9.6954277443],[76.695696587,9.6920798495],[76.693574548,9.6913665696],[76.6876059248,9.694057672],[76.6871190028,9.6913289697],[76.6855937138,9.6927445108],[76.6858971216,9.6957591376],[76.679086485,9.6978184512],[76.6782438131,9.700834442],[76.6779596104,9.7009364969]]]]}},{"type":"Feature","properties":{"code":"M05018","name":"Vaikom","type":"Municipality","leading":"UDF","seats":{"LDF":7,"UDF":13,"NDA":3,"OTHERS":4}},"geometry":{"type":"MultiPolygon","coordinates":[[[[76.3807301139,9.7341366425],[76.3808839001,9.7518742183],[76.3789770013,9.7557824771],[76.3846577999,9.7603954004],[76.3868180011,9.7682921318],[76.3923234512,9.7674879188],[76.3922587267,9.775356873],[76.3939221865,9.7753875919],[76.3977990781,9.7740509003],[76.3987661828,9.762522795],[76.4055497082,9.7647905528],[76.4147365442,9.7575146042],[76.4120229565,9.7435975428],[76.4128016512,9.7393719883],[76.4044083439,9.740154467],[76.4021568361,9.7374092477],[76.4026972635,9.7340899235],[76.3810232638,9.7341249395],[76.3807301139,9.7341366425]]]]}}]}
