{"type":"FeatureCollection","features":[{"type":"Feature","properties":{"code":"G03001","name":"Anikkadu","type":"Grama Panchayat","leading":"UDF","seats":{"LDF":2,"UDF":9,"NDA":2,"OTHERS":1}},"geometry":{"type":"MultiPolygon","coordinates":[[[[76.6726480771,9.4564016419],[76.6726480771,9.4564016419],[76.6726480771,9.4564016419]]]]}},{"type":"Feature","properties":{"code":"G03046","name":"Aranmula","type":"Grama Panchayat","leading":"UDF","seats":{"LDF":6,"UDF":8,"NDA":5,"OTHERS":0}},"geometry":{"type":"MultiPolygon","coordinates":[[[[76.642059192,9.3319318548],[76.6465262969,9.3297287974],[76.650887934,9.3297884328],[76.672250838,9.3352780949],[76.6769948064,9.3298047086],[76.6830547044,9.3284020967],[76.6878596982,9.3297387854],[76.6895610493,9.322566375],[76.6883566122,9.3213248065],[76.6909595285,9.3201482235],[76.6912235408,9.3170157337],[76.6927460535,9.3175925952],[76.6969234421,9.3090943965],[76.6952026257,9.3060433036],[76.699798589,9.302839788],[76.7009133474,9.298823612],[76.7025087844,9.2983432415],[76.7015024794,9.2979841575],[76.7028407986,9.2944078194],[76.6985705501,9.2917893525],[76.6980509899,9.2952821853],[76.696259492,9.2955422797],[76.6934571221,9.2953766173],[76.69196469,9.2924587397],[76.6854199485,9.2904897083],[76.673784049,9.2914093641],[76.6694668936,9.289913064],[76.6634469074,9.2922020039],[76.6593432307,9.2904894194],[76.6547738342,9.2913810261],[76.6524003888,9.2929659508],[76.6506696654,9.2977324542],[76.6508013413,9.3083081002],[76.6446342227,9.3099028261],[76.6440158606,9.3152319066],[76.6418675195,9.3162357783],[76.6411659002,9.3186818213],[76.641406093,9.3231192531],[76.6394284979,9.3256537001],[76.6348484918,9.3270469625],[76.6412246607,9.3322939746],[76.642059192,9.3319318548]]]]}},{"type":"Feature","properties":{"code":"G03036","name":"Aruvappulam","type":"Grama Panchayat","leading":"UDF","seats":{"LDF":4,"UDF":8,"NDA":2,"OTHERS":1}},"geometry":{"type":"MultiPolygon","coordinates":[[[[76.8828750279,9.1768478912],[76.8828750279,9.1768478912],[76.8828750279,9.1768478912]]]]}},{"type":"Feature","properties":{"code":"G03013","name":"Ayiroor","type":"Grama Panchayat","leading":"NDA","seats":{"LDF":2,"UDF":5,"NDA":6,"OTHERS":3}},"geometry":{"type":"MultiPolygon","coordinates":[[[[76.740916205,9.3499559178],[76.740916205,9.3499559178],[76.740916205,9.3499559178]]]]}},{"type":"Feature","properties":{"code":"G03020","name":"Chenneerkara","type":"Grama Panchayat","leading":"UDF","seats":{"LDF":4,"UDF":10,"NDA":1,"OTHERS":0}},"geometry":{"type":"MultiPolygon","coordinates":[[[[76.7261103693,9.2311862718],[76.7159473263,9.2230555827],[76.7136286383,9.2281936439],[76.7108650775,9.2289723242],[76.7110847306,9.2333865959],[76.7155877142,9.2354348577],[76.7118330462,9.2429666156],[76.7131398601,9.2634333823],[76.7163757263,9.2681858152],[76.715703562,9.2700253388],[76.7187346371,9.2740379838],[76.7192515403,9.2776740425],[76.7259775273,9.2787997605],[76.7254140884,9.2816401122],[76.7271423546,9.2791685617],[76.7315526981,9.2825929393],[76.7346645065,9.282466079],[76.7367176274,9.2802272105],[76.7432448486,9.2781129133],[76.7476452803,9.2776922798],[76.7476637311,9.2792852903],[76.7501448813,9.2773688669],[76.7523506952,9.2779840961],[76.7531923934,9.275717385],[76.7667560202,9.2683958585],[76.7647865718,9.2674621155],[76.7604959459,9.2694868764],[76.7598436182,9.2677429395],[76.7557186576,9.2696681889],[76.7511151522,9.2667681741],[76.7504141017,9.2627492687],[76.7454795485,9.2644873417],[76.7438373766,9.2621675663],[76.7403872941,9.2625651546],[76.7355338022,9.2600299935],[76.7385660145,9.2573898384],[76.7368661529,9.2568889891],[76.7372205246,9.2555196802],[76.7390507503,9.2564779101],[76.7413738284,9.2539027444],[76.7414422663,9.2513236641],[76.7463893271,9.2482987543],[76.7427927617,9.2318958744],[76.7373349229,9.2314098213],[76.7344827022,9.2334627163],[76.7295977333,9.2306095499],[76.7277684241,9.2329415638],[76.7263382723,9.2322146315],[76.7261103693,9.2311862718]]]]}},{"type":"Feature","properties":{"code":"G03022","name":"Cherukol","type":"Grama Panchayat","leading":"LDF","seats":{"LDF":6,"UDF":2,"NDA":5,"OTHERS":1}},"geometry":{"type":"MultiPolygon","coordinates":[[[[76.7387579953,9.3317617364],[76.7375759739,9.3314918527],[76.7369765068,9.3339010896],[76.7363839471,9.3289853975],[76.7350228326,9.3313390103],[76.7315233995,9.3309748433],[76.7253919532,9.3339619124],[76.7239462109,9.3405545181],[76.7272508635,9.3495228356],[76.7382727659,9.3512985749],[76.7550015758,9.3437687937],[76.7614217923,9.3496718196],[76.7673364114,9.3520138036],[76.7708533311,9.3593726622],[76.7736234663,9.3612393984],[76.7765263768,9.3582185448],[76.7759911901,9.3555869148],[76.7808612909,9.3519767216],[76.7824153706,9.3462247508],[76.7880687593,9.3421894185],[76.7870144437,9.3389740863],[76.7918575374,9.3275467916],[76.7873624388,9.3226076815],[76.7800358386,9.3248303766],[76.7805272107,9.3221211139],[76.7792494936,9.3209881546],[76.7774893294,9.3262975599],[76.7696717083,9.3253704308],[76.770558215,9.3289894625],[76.7680857681,9.3307359758],[76.7690372914,9.3341241467],[76.7643756629,9.3335085986],[76.763018547,9.3277656603],[76.7594403601,9.3284483809],[76.757431517,9.3255939493],[76.7555494927,9.3264531382],[76.7559404524,9.3310367791],[76.7515678147,9.3311539214],[76.7508451408,9.3325387471],[76.7496153064,9.3307135759],[76.7472044844,9.3330757797],[76.7388139615,9.3318738879],[76.7387579953,9.3317617364]]]]}},{"type":"Feature","properties":{"code":"G03031","name":"Chittar","type":"Grama Panchayat","leading":"LDF","seats":{"LDF":7,"UDF":6,"NDA":0,"OTHERS":1}},"geometry":{"type":"MultiPolygon","coordinates":[[[[76.8924168095,9.2672102921],[76.8879482387,9.2671060389],[76.8864721317,9.2685800542],[76.8892285654,9.2722650556],[76.8872237587,9.2749791491],[76.8783605822,9.2759728902],[76.8776731331,9.2728745257],[76.8755009701,9.2722498795],[76.8742262489,9.2770139873],[76.8669415493,9.2852952472],[76.867438956,9.2915112543],[76.8694823884,9.2940459901],[76.8734426491,9.2918176251],[76.8838044363,9.2911349652],[76.885988888,9.2890779953],[76.8874203839,9.2944521159],[76.8849455329,9.297454346],[76.8846894671,9.3042952989],[76.8876403905,9.3106411836],[76.8918894061,9.3125620649],[76.8973086594,9.3105185055],[76.9038401056,9.3113762154],[76.9042212851,9.3155690287],[76.8984101186,9.3176992016],[76.8980774667,9.3205109601],[76.8952455877,9.3237342991],[76.890415829,9.326731154],[76.8918290778,9.3300768434],[76.8898012501,9.331023491],[76.8925757519,9.33244133],[76.8971908147,9.3309676203],[76.9000760203,9.3376985717],[76.8985634232,9.3476860542],[76.9046680583,9.3495416883],[76.9235216965,9.3422772607],[76.9255715167,9.3399565058],[76.9383814042,9.3411385665],[76.9436670838,9.337950908],[76.9469976493,9.3378425596],[76.9493699617,9.3354942309],[76.9580269354,9.3353529511],[76.959025268,9.3316477967],[76.9546633331,9.3307416669],[76.9512377439,9.3325818666],[76.9500548284,9.3311084643],[76.9443292091,9.3303448728],[76.9438345775,9.3284181548],[76.9560846245,9.3259532183],[76.9660702592,9.3167739206],[76.9731465692,9.3132552781],[76.9798501743,9.3062229565],[76.9880221051,9.3015103594],[76.9856173355,9.2971479527],[76.9702475249,9.2854101402],[76.9617282145,9.289226282],[76.9507565652,9.290072186],[76.9375075346,9.2947932801],[76.9361063822,9.2935998147],[76.9237647689,9.2936903017],[76.9174387834,9.2877524247],[76.9114039909,9.288695927],[76.9089791247,9.287090979],[76.9073773949,9.2806308444],[76.9045970165,9.278050824],[76.901770212,9.2701995996],[76.9028898641,9.2645794177],[76.8997085685,9.2641603629],[76.8940642917,9.2668281955],[76.8924168095,9.2672102921]]]]}},{"type":"Feature","properties":{"code":"G03021","name":"Elanthoor","type":"Grama Panchayat","leading":"UDF","seats":{"LDF":1,"UDF":9,"NDA":4,"OTHERS":0}},"geometry":{"type":"MultiPolygon","coordinates":[[[[76.7266135594,9.2800386124],[76.7254140884,9.2816401122],[76.7259775273,9.2787997605],[76.7192515403,9.2776740425],[76.7151398574,9.2815200191],[76.714019522,9.2839921328],[76.7170323976,9.2847936472],[76.7131869407,9.2895422617],[76.7118730231,9.2892388782],[76.7137105597,9.2924215255],[76.7120411102,9.3011031827],[76.7132610568,9.3053867972],[76.7174122667,9.3057756413],[76.7207398659,9.3022696994],[76.7259922179,9.3002724353],[76.7278714926,9.3058239449],[76.7266457341,9.3078101131],[76.7274648622,9.3104787966],[76.731620456,9.3138690206],[76.7333353485,9.3118802351],[76.7387368057,9.3114964836],[76.7475724104,9.3053275724],[76.7498293429,9.2992194599],[76.7553458358,9.2966168013],[76.7572389664,9.2917137626],[76.763986282,9.2871935562],[76.7647210238,9.2882486651],[76.7657155378,9.2856973407],[76.7621972395,9.2878551405],[76.7615523014,9.2859684025],[76.7631152089,9.2766255213],[76.7612705679,9.2754496572],[76.7615165402,9.2718266174],[76.7531923934,9.275717385],[76.7523506952,9.2779840961],[76.7501448813,9.2773688669],[76.7476637311,9.2792852903],[76.7476452803,9.2776922798],[76.7432448486,9.2781129133],[76.7367176274,9.2802272105],[76.7346645065,9.282466079],[76.7315526981,9.2825929393],[76.7266810925,9.2799274984],[76.7266135594,9.2800386124]]]]}},{"type":"Feature","properties":{"code":"G03048","name":"Enadimangalam","type":"Grama Panchayat","leading":"UDF","seats":{"LDF":6,"UDF":7,"NDA":3,"OTHERS":0}},"geometry":{"type":"MultiPolygon","coordinates":[[[[76.7891037433,9.1142938109],[76.7911703644,9.1149366598],[76.7936675172,9.1190699687],[76.7968546559,9.1186180135],[76.7970540112,9.1200747734],[76.8022807437,9.120522849],[76.8029348188,9.1221600736],[76.8000632302,9.1271363899],[76.7988806668,9.1253807711],[76.7923082881,9.1264577544],[76.7932860162,9.1307806588],[76.7916881208,9.1332942393],[76.7888232684,9.1350133216],[76.7853761151,9.1336682077],[76.7828920055,9.1362020624],[76.7832285682,9.1396623953],[76.7796396017,9.1394071873],[76.7801110188,9.1413930506],[76.7838558145,9.1432696547],[76.7834331118,9.1458805403],[76.7852623386,9.1476886264],[76.7939411654,9.1483592444],[76.8005567451,9.1565792734],[76.8063693793,9.1533964953],[76.8025138007,9.1575665379],[76.8078737002,9.1574639922],[76.8054608838,9.1594652504],[76.8088833895,9.1582178056],[76.8150697557,9.1618718843],[76.8165592002,9.160862878],[76.826007853,9.1618659122],[76.8339555008,9.155628826],[76.8361151453,9.1512599498],[76.8406822033,9.1498146677],[76.8310964278,9.1451739652],[76.8326209225,9.1437180626],[76.8313859536,9.1419271218],[76.8322514803,9.1367929514],[76.8293547202,9.134062852],[76.8295360877,9.1311338766],[76.8342505622,9.1244548488],[76.8304166881,9.1211454307],[76.833916709,9.1189094334],[76.8334030076,9.1171183452],[76.8368601559,9.1173594633],[76.8385129496,9.1156042186],[76.8371372855,9.1126597069],[76.8389853628,9.1051785512],[76.8452575685,9.1022066977],[76.8497668632,9.1024733618],[76.8522531235,9.1004405513],[76.8518540436,9.0992052676],[76.846396299,9.0990168117],[76.8459774192,9.0953314224],[76.8422903705,9.0922179922],[76.8295206695,9.094137727],[76.8273773913,9.0914438726],[76.8222222583,9.0935036775],[76.8220885959,9.095894026],[76.8197394613,9.0965484391],[76.8167999003,9.1028515104],[76.8096356464,9.1091157837],[76.8003949428,9.1093079739],[76.7977745476,9.1107198897],[76.7953290581,9.1096488545],[76.7894565224,9.1140736606],[76.7891037433,9.1142938109]]]]}},{"type":"Feature","properties":{"code":"G03049","name":"Earathu","type":"Grama Panchayat","leading":"UDF","seats":{"LDF":5,"UDF":8,"NDA":3,"OTHERS":1}},"geometry":{"type":"MultiPolygon","coordinates":[[[[76.7264850255,9.1075716454],[76.7264850255,9.1075716454],[76.7264850255,9.1075716454]]]]}},{"type":"Feature","properties":{"code":"G03014","name":"Eraviperoor","type":"Grama Panchayat","leading":"UDF","seats":{"LDF":6,"UDF":8,"NDA":3,"OTHERS":1}},"geometry":{"type":"MultiPolygon","coordinates":[[[[76.6132161399,9.3432596588],[76.6134685117,9.3445473502],[76.6161958044,9.3448890426],[76.6155572829,9.3487462872],[76.6169779201,9.3521688866],[76.6235300649,9.3535994599],[76.6249493111,9.3582270784],[76.6269029844,9.3596366477],[76.6179058612,9.3630843186],[76.616817125,9.3653722574],[76.6121848877,9.3650516387],[76.6071554765,9.3670928586],[76.6036724522,9.3663395685],[76.59930267,9.3700397575],[76.5966356994,9.3704005376],[76.6031074157,9.38455599],[76.6175486028,9.3813904795],[76.6200028007,9.3873017932],[76.6228053529,9.385752619],[76.6237327353,9.3903691624],[76.6292974598,9.3939911763],[76.6328760727,9.389891948],[76.6430004519,9.3898885039],[76.6490425162,9.3853131061],[76.650677992,9.3741606518],[76.6427440183,9.3645683817],[76.6415686178,9.3581492353],[76.6427950981,9.3549220252],[76.6386989379,9.3485896657],[76.6401873022,9.3451945408],[76.6413796361,9.3457398974],[76.6405040025,9.344186386],[76.6430948955,9.3433724253],[76.6422579016,9.3408652704],[76.6286343453,9.3420066023],[76.6283493523,9.3369202329],[76.617231353,9.3415937525],[76.6152615725,9.340777137],[76.6136209552,9.3426704057],[76.6132161399,9.3432596588]]]]}},{"type":"Feature","properties":{"code":"G03050","name":"Ezhamkulam","type":"Grama Panchayat","leading":"UDF","seats":{"LDF":6,"UDF":13,"NDA":2,"OTHERS":0}},"geometry":{"type":"MultiPolygon","coordinates":[[[[76.7493032946,9.0824193496],[76.7492006439,9.0852024307],[76.7470706202,9.0859224691],[76.7456846407,9.0895975838],[76.7440585754,9.0896011243],[76.7445427658,9.1026724468],[76.7531087865,9.1062953896],[76.7590588673,9.1024830334],[76.7605234967,9.1057219342],[76.7599449498,9.1176653367],[76.7651018299,9.1182649056],[76.7660734371,9.1206306834],[76.7616034782,9.1255182257],[76.7535092049,9.1278811532],[76.7529575206,9.1301482158],[76.7557069284,9.1333481623],[76.7453495998,9.1401929045],[76.7481473622,9.1516374322],[76.7527685584,9.1504278303],[76.7590355666,9.1428616635],[76.7657982822,9.1443401391],[76.7686717857,9.1512735332],[76.7683146513,9.1679012812],[76.7694669242,9.168286151],[76.7714099878,9.1667185964],[76.774834034,9.1682729652],[76.7786177007,9.1661320792],[76.7927648414,9.1649025286],[76.7997207828,9.1592957801],[76.8054608838,9.1594652504],[76.8082609813,9.1580003624],[76.8025138007,9.1575665379],[76.8063693793,9.1533964953],[76.8005567451,9.1565792734],[76.7939411654,9.1483592444],[76.7852623386,9.1476886264],[76.7833436633,9.1456389798],[76.7838558145,9.1432696547],[76.7795967908,9.1405206335],[76.7796396017,9.1394071873],[76.7832285682,9.1396623953],[76.7828920055,9.1362020624],[76.7853761151,9.1336682077],[76.7888232684,9.1350133216],[76.7916881208,9.1332942393],[76.7932860162,9.1307806588],[76.7923082881,9.1264577544],[76.7988806668,9.1253807711],[76.8000632302,9.1271363899],[76.8029348188,9.1221600736],[76.8022807437,9.120522849],[76.7970540112,9.1200747734],[76.7968546559,9.1186180135],[76.7936675172,9.1190699687],[76.7911703644,9.1149366598],[76.7839238268,9.1148387741],[76.7832876814,9.1107571474],[76.7779611229,9.1097125364],[76.7783630275,9.1061657432],[76.7743740506,9.1051597633],[76.7735781499,9.103118908],[76.7756432116,9.1002606939],[76.7709817923,9.1012158155],[76.7688743382,9.0998371814],[76.7661905323,9.0940119443],[76.7713065643,9.0807042365],[76.7716678088,9.0740488194],[76.7658449402,9.074289338],[76.7586096424,9.0721289644],[76.7572300673,9.0736923514],[76.7564457593,9.0875414778],[76.7534615835,9.0878844871],[76.7505411116,9.0834529299],[76.7493032946,9.0824193496]]]]}},{"type":"Feature","properties":{"code":"G03017","name":"Ezhumattoor","type":"Grama Panchayat","leading":"UDF","seats":{"LDF":1,"UDF":7,"NDA":2,"OTHERS":5}},"geometry":{"type":"MultiPolygon","coordinates":[[[[76.6944913399,9.3800397905],[76.6944913399,9.3800397905],[76.6944913399,9.3800397905]]]]}},{"type":"Feature","properties":{"code":"G03051","name":"Kadambanad","type":"Grama Panchayat","leading":"LDF","seats":{"LDF":10,"UDF":7,"NDA":0,"OTHERS":1}},"geometry":{"type":"MultiPolygon","coordinates":[[[[76.6729260614,9.1173580519],[76.679971556,9.1168589771],[76.6820067911,9.1196357573],[76.6816952618,9.1249343643],[76.6883046834,9.125557292],[76.6969000765,9.1221731279],[76.7001399167,9.1227511922],[76.7004844802,9.1191525356],[76.7082755138,9.1129306614],[76.7107531148,9.106456841],[76.7149791675,9.108051926],[76.7244448519,9.1068421039],[76.7247112284,9.1099147178],[76.7247837153,9.1077901139],[76.7288205797,9.1079567411],[76.7324370564,9.105533166],[76.7436541634,9.1031946875],[76.7440585754,9.0896011243],[76.7456846407,9.0895975838],[76.7470706202,9.0859224691],[76.7493161487,9.0846108676],[76.7493032946,9.0824193496],[76.7461303474,9.0796770746],[76.7379998879,9.0855326893],[76.7360339341,9.08501069],[76.7335236485,9.0806430061],[76.7275757433,9.0835056583],[76.7230470947,9.0812502113],[76.7141890541,9.0849713695],[76.71256436,9.0838442351],[76.7113986338,9.086391672],[76.7066980323,9.0858183851],[76.7046037048,9.0883147278],[76.6894042912,9.0911300973],[76.6858878861,9.0869856958],[76.6845942674,9.087369551],[76.6836410407,9.0814204644],[76.6784905105,9.0814498435],[76.6781849339,9.0779538418],[76.6732676654,9.079682001],[76.6718999748,9.0837537124],[76.6743809537,9.0850528937],[76.6771932741,9.0919268808],[76.6755920922,9.0960248357],[76.6760595256,9.1064279743],[76.6745513533,9.1133994013],[76.6757713643,9.1141969084],[76.6733920988,9.1148886417],[76.6723656289,9.1171587522],[76.6729260614,9.1173580519]]]]}},{"type":"Feature","properties":{"code":"G03008","name":"Kadapra","type":"Grama Panchayat","leading":"UDF","seats":{"LDF":5,"UDF":10,"NDA":0,"OTHERS":1}},"geometry":{"type":"MultiPolygon","coordinates":[[[[76.4892481235,9.3295836943],[76.4888522683,9.3354683095],[76.4944225788,9.3372539123],[76.4987109826,9.3372307561],[76.499336387,9.3309270318],[76.5104115474,9.331846531],[76.5161833765,9.3340684945],[76.5209576023,9.3333623075],[76.5329026882,9.3373511998],[76.5326152087,9.3395384307],[76.5259537736,9.342856719],[76.5275774729,9.3462149867],[76.529592443,9.3456297253],[76.5294920996,9.3486255686],[76.532624697,9.3523186163],[76.5306107631,9.3530435728],[76.5288951325,9.3589825587],[76.5243409499,9.361355797],[76.5238849223,9.3683939921],[76.527203408,9.369300967],[76.5306727627,9.3645669528],[76.5398519628,9.3609137401],[76.5456865815,9.3621464607],[76.5491627101,9.3612541421],[76.5492590802,9.3591082031],[76.5461662494,9.3557347109],[76.5525617226,9.3470213528],[76.5581375733,9.3435700033],[76.5556749383,9.3409517334],[76.556922335,9.3383721707],[76.553551903,9.3349802744],[76.5541081664,9.3315347192],[76.5513910177,9.3250092003],[76.5464302765,9.3254691151],[76.5409426125,9.3223850354],[76.5367209989,9.3221228698],[76.5339680046,9.3240544761],[76.5316172152,9.3296870762],[76.526881211,9.3260946354],[76.5171580358,9.3272974055],[76.5014200996,9.3235391904],[76.4971727773,9.3242647621],[76.4897790799,9.3286628617],[76.4892481235,9.3295836943]]]]}},{"type":"Feature","properties":{"code":"G03052","name":"Kalanjoor","type":"Grama Panchayat","leading":"LDF","seats":{"LDF":9,"UDF":7,"NDA":4,"OTHERS":0}},"geometry":{"type":"MultiPolygon","coordinates":[[[[76.8499410016,9.1023845077],[76.8452575685,9.1022066977],[76.8389853628,9.1051785512],[76.8370574347,9.1132729833],[76.8379863495,9.1163517434],[76.8361172389,9.1174566429],[76.8347520346,9.1162419768],[76.8330997814,9.1175552267],[76.833916709,9.1189094334],[76.8304166881,9.1211454307],[76.8327277051,9.1249461354],[76.8342505622,9.1244548488],[76.8294991264,9.1313022743],[76.8294491413,9.1345631667],[76.8322514803,9.1367929514],[76.8313859536,9.1419271218],[76.8326209225,9.1437180626],[76.8310964278,9.1451739652],[76.8406822033,9.1498146677],[76.8361151453,9.1512599498],[76.8339555008,9.155628826],[76.8269195745,9.1602392301],[76.826007853,9.1618659122],[76.8307031837,9.1621404724],[76.8312277136,9.1636736274],[76.8289859004,9.1694718491],[76.8251184025,9.170471759],[76.811425345,9.1810690167],[76.8145732518,9.1952926263],[76.8204586114,9.1889345666],[76.833061915,9.1825903992],[76.8354933068,9.1794515862],[76.8414377539,9.1802395545],[76.8471448671,9.1761210551],[76.8509986795,9.1781435393],[76.8519303878,9.175653821],[76.8524933471,9.177019307],[76.8588740946,9.1768405702],[76.8580977272,9.1752610501],[76.8628926079,9.1684075175],[76.862097136,9.1671348224],[76.8718251446,9.1616730628],[76.8838001639,9.1649232134],[76.8819233758,9.1664307147],[76.8833083334,9.1772305077],[76.8913017255,9.1725833709],[76.8918281893,9.1683693968],[76.895998781,9.167535266],[76.9058808697,9.1691623144],[76.9159070696,9.1613311718],[76.9215353866,9.1624070214],[76.9224058167,9.1638453566],[76.9277557867,9.163454677],[76.9258954566,9.152308803],[76.9271648946,9.1496300797],[76.9263384505,9.139159952],[76.936715452,9.1359130474],[76.9402508269,9.1389085914],[76.9495651144,9.1311308631],[76.9596714586,9.1299117769],[76.9587548314,9.1271243015],[76.9560564092,9.1265514823],[76.955922207,9.1244804261],[76.9485047071,9.1174937098],[76.9428549448,9.118692329],[76.9359442926,9.1158254817],[76.9262169759,9.1181737791],[76.9251672631,9.116649379],[76.9244909632,9.1197341988],[76.9205369377,9.1207633457],[76.9196354129,9.1234296048],[76.9101729964,9.1254585272],[76.9017217082,9.1252699621],[76.8990736727,9.1300756217],[76.8936610495,9.1258418275],[76.8915356891,9.126339574],[76.8926474525,9.12515587],[76.8901303681,9.1232648195],[76.8836268325,9.1215773859],[76.8815809839,9.1248196444],[76.8773618587,9.1269250393],[76.8764792438,9.128284692],[76.8777548254,9.1289191868],[76.8755340402,9.131181353],[76.8756605761,9.1291852704],[76.8665155588,9.1202690561],[76.8659275364,9.1141078837],[76.8566669486,9.1174523282],[76.85403989,9.1149280918],[76.8540406393,9.1120347253],[76.8516982991,9.1128181806],[76.8502695356,9.1083082846],[76.8519345629,9.1045980163],[76.8514280202,9.1022036143],[76.8498969697,9.102738066],[76.8499410016,9.1023845077]]]]}},{"type":"Feature","properties":{"code":"G03004","name":"Kallooppara","type":"Grama Panchayat","leading":"UDF","seats":{"LDF":2,"UDF":9,"NDA":2,"OTHERS":1}},"geometry":{"type":"MultiPolygon","coordinates":[[[[76.6377273493,9.3991739592],[76.6377273493,9.3991739592],[76.6377273493,9.3991739592]]]]}},{"type":"Feature","properties":{"code":"G03002","name":"Kaviyoor","type":"Grama Panchayat","leading":"TIE","seats":{"LDF":5,"UDF":4,"NDA":5,"OTHERS":0}},"geometry":{"type":"MultiPolygon","coordinates":[[[[76.6074065949,9.382932316],[76.6019369662,9.3843104281],[76.6003838838,9.388533897],[76.5970064862,9.3912511271],[76.5978510071,9.3965912043],[76.596545233,9.4061690424],[76.6053601635,9.4082810573],[76.6105454633,9.4161720796],[76.6083312273,9.4247400762],[76.60317143,9.4263426763],[76.6087288141,9.434002312],[76.6176010026,9.4289386525],[76.6213889531,9.4293175075],[76.6253802649,9.4264572019],[76.6273708139,9.4277867796],[76.6265107961,9.4201633847],[76.6271213471,9.415753276],[76.6290541919,9.4143441468],[76.6284936653,9.4003848032],[76.6252521074,9.3985169403],[76.6278357858,9.3932927429],[76.6237327353,9.3903691624],[76.6228053529,9.385752619],[76.6200028007,9.3873017932],[76.6178557322,9.3815042464],[76.6079672257,9.3827317983],[76.6074065949,9.382932316]]]]}},{"type":"Feature","properties":{"code":"G03053","name":"Kodumon","type":"Grama Panchayat","leading":"UDF","seats":{"LDF":8,"UDF":9,"NDA":1,"OTHERS":1}},"geometry":{"type":"MultiPolygon","coordinates":[[[[76.7858156858,9.1652521441],[76.7784281345,9.1661756241],[76.774834034,9.1682729652],[76.7714099878,9.1667185964],[76.762265973,9.1698711911],[76.7569569287,9.1681008965],[76.7515186122,9.1717211096],[76.749454976,9.1754462619],[76.750804532,9.1779461937],[76.7495738817,9.1817211354],[76.7480146107,9.1818127152],[76.7486032732,9.1870616502],[76.7524255213,9.1879290838],[76.7522346337,9.1905289073],[76.7533340771,9.1904683023],[76.7513521121,9.1913691714],[76.7512211884,9.1963065734],[76.7526086691,9.1979443308],[76.7599466321,9.1974501596],[76.7612945972,9.198870675],[76.7640614561,9.2058108995],[76.759542379,9.2079758527],[76.7621990873,9.2114862145],[76.7637179124,9.2112497931],[76.7624770631,9.2140906453],[76.7672067387,9.2141840538],[76.7678880234,9.2125462964],[76.7717915823,9.2146969382],[76.7762613448,9.2123925802],[76.7773566948,9.2094346889],[76.7817729899,9.2138940062],[76.784047994,9.212362236],[76.7891645519,9.2142325131],[76.7925699953,9.2127183502],[76.796717638,9.2066259848],[76.801879526,9.2053742475],[76.8145732518,9.1952926263],[76.811425345,9.1810690167],[76.8251184025,9.170471759],[76.8289859004,9.1694718491],[76.8312241695,9.1647160703],[76.8307031837,9.1621404724],[76.8165592002,9.160862878],[76.8150697557,9.1618718843],[76.8088833895,9.1582178056],[76.8059783167,9.1596379514],[76.7997207828,9.1592957801],[76.7927648414,9.1649025286],[76.7867044682,9.165661965],[76.7858156858,9.1652521441]]]]}},{"type":"Feature","properties":{"code":"G03015","name":"Koipram","type":"Grama Panchayat","leading":"UDF","seats":{"LDF":5,"UDF":7,"NDA":5,"OTHERS":1}},"geometry":{"type":"MultiPolygon","coordinates":[[[[76.6647624115,9.3326131739],[76.6481284248,9.3295285567],[76.641336408,9.3322454853],[76.6397481465,9.3362588742],[76.6430948955,9.3433724253],[76.641111561,9.3435322583],[76.6413796361,9.3457398974],[76.6401873022,9.3451945408],[76.6386893589,9.3480238936],[76.640250829,9.3524693974],[76.6426035147,9.3542147931],[76.6421902054,9.3619443069],[76.645276395,9.368329078],[76.6473588216,9.368850316],[76.6500223745,9.3731058946],[76.654941834,9.3724028361],[76.6577440496,9.3745763138],[76.6609130891,9.3743337963],[76.6624373481,9.379205458],[76.6666832492,9.3776234998],[76.6722237315,9.3802263931],[76.6743457379,9.3773681509],[76.679248407,9.379056795],[76.6798022159,9.3815075847],[76.6813961023,9.3793912819],[76.6837767122,9.3796524323],[76.6841841829,9.3777084993],[76.6890700036,9.3779091393],[76.6907244547,9.3734899401],[76.6892273391,9.3724026907],[76.687973307,9.3644766464],[76.6883130779,9.3569565079],[76.6858537894,9.3542526679],[76.6819312105,9.354232229],[76.6823780267,9.3487303776],[76.6807333738,9.3473435179],[76.6822843769,9.3452775279],[76.6788055726,9.3399403166],[76.6778195345,9.3342928851],[76.6748574394,9.3333462948],[76.672250838,9.3352780949],[76.6653188593,9.3327963434],[76.6647624115,9.3326131739]]]]}},{"type":"Feature","properties":{"code":"G03035","name":"Konni","type":"Grama Panchayat","leading":"UDF","seats":{"LDF":6,"UDF":11,"NDA":2,"OTHERS":1}},"geometry":{"type":"MultiPolygon","coordinates":[[[[76.8566888468,9.2174561221],[76.8566888468,9.2174561221],[76.8566888468,9.2174561221]]]]}},{"type":"Feature","properties":{"code":"G03003","name":"Kottanad","type":"Grama Panchayat","leading":"UDF","seats":{"LDF":2,"UDF":7,"NDA":2,"OTHERS":3}},"geometry":{"type":"MultiPolygon","coordinates":[[[[76.7306487298,9.3899289931],[76.7219522999,9.392914206],[76.7201053918,9.396166076],[76.7138215538,9.3990679553],[76.7139201094,9.4030399751],[76.7169197855,9.4054961756],[76.7192649766,9.4144066653],[76.7301249913,9.4172671639],[76.7296055993,9.419321295],[76.7327700032,9.4202454539],[76.7323919344,9.422914116],[76.7351556318,9.4236872928],[76.729457281,9.4279321661],[76.7269590836,9.4369622957],[76.7318785839,9.4377206028],[76.7328271429,9.4409553531],[76.7400880264,9.4366435684],[76.7420922102,9.4370722059],[76.7431947843,9.4394161582],[76.752215467,9.4322569797],[76.7657104724,9.4354898099],[76.7678259525,9.4422198528],[76.7868264732,9.4497855476],[76.79210084,9.4475329642],[76.7886450671,9.4415125602],[76.7584148179,9.4204592134],[76.756182919,9.4130748747],[76.7573654118,9.4100830332],[76.7612082932,9.4074027608],[76.7586192985,9.4009080041],[76.7608960728,9.395478401],[76.7584645814,9.3961651904],[76.7536563529,9.3932788984],[76.7483461183,9.3966821003],[76.7449136839,9.3933456616],[76.7373417499,9.3937957973],[76.7332878108,9.3880920227],[76.7308798283,9.3899059174],[76.7306487298,9.3899289931]]]]}},{"type":"Feature","properties":{"code":"G03005","name":"Kottangal","type":"Grama Panchayat","leading":"UDF","seats":{"LDF":1,"UDF":5,"NDA":4,"OTHERS":4}},"geometry":{"type":"MultiPolygon","coordinates":[[[[76.72180914,9.4297075198],[76.72180914,9.4297075198],[76.72180914,9.4297075198]]]]}},{"type":"Feature","properties":{"code":"G03023","name":"Kozhanchery","type":"Grama Panchayat","leading":"UDF","seats":{"LDF":3,"UDF":6,"NDA":2,"OTHERS":3}},"geometry":{"type":"MultiPolygon","coordinates":[[[[76.7120070571,9.3209506075],[76.7077259854,9.3212904494],[76.704877058,9.325297113],[76.7013930861,9.3227556819],[76.7014298622,9.3254733705],[76.6992388438,9.3269805842],[76.6994322261,9.3315336226],[76.7044465127,9.3394570647],[76.7027527526,9.3507670027],[76.7052679283,9.3522046623],[76.7113545956,9.3518966395],[76.7124991046,9.3588261488],[76.7151893087,9.3596381405],[76.7187048007,9.3578252193],[76.7222603232,9.3497653472],[76.7272508635,9.3495228356],[76.7243597803,9.3430865058],[76.7237594112,9.3371125324],[76.7275468288,9.3314099779],[76.7270149163,9.3264987011],[76.7290084116,9.3225417927],[76.7253369028,9.3190417422],[76.7229215577,9.3191367664],[76.7223211604,9.3207718006],[76.7212967338,9.3191363794],[76.7202913542,9.319814044],[76.7214527452,9.3177473034],[76.719788759,9.3163482861],[76.7121833338,9.3208919042],[76.7120070571,9.3209506075]]]]}},{"type":"Feature","properties":{"code":"G03045","name":"Kulanada","type":"Grama Panchayat","leading":"LDF","seats":{"LDF":8,"UDF":1,"NDA":4,"OTHERS":4}},"geometry":{"type":"MultiPolygon","coordinates":[[[[76.6817650125,9.2331785916],[76.6817650125,9.2331785916],[76.6817650125,9.2331785916]],[[76.6963201335,9.2539902446],[76.6967056671,9.2539444377],[76.6963201335,9.2539902446]],[[76.6963201335,9.2539902446],[76.6961885816,9.2539499182],[76.6963201335,9.2539902446]]]]}},{"type":"Feature","properties":{"code":"G03006","name":"Kunnanthanam","type":"Grama Panchayat","leading":"LDF","seats":{"LDF":9,"UDF":5,"NDA":1,"OTHERS":1}},"geometry":{"type":"MultiPolygon","coordinates":[[[[76.5962822467,9.4092184348],[76.5962822467,9.4092184348],[76.5962822467,9.4092184348]]]]}},{"type":"Feature","properties":{"code":"G03009","name":"Kuttoor","type":"Grama Panchayat","leading":"NDA","seats":{"LDF":2,"UDF":5,"NDA":6,"OTHERS":2}},"geometry":{"type":"MultiPolygon","coordinates":[[[[76.5617429216,9.3534017814],[76.5606490482,9.3548711282],[76.5628000677,9.3566659182],[76.5628019188,9.3597883087],[76.560699476,9.3628646559],[76.5625296944,9.3676290312],[76.565906896,9.3665213665],[76.5761795556,9.3682518564],[76.5755302282,9.3601751688],[76.582320657,9.3632642635],[76.5866479976,9.3609465404],[76.589672886,9.3637918131],[76.5904653266,9.3682817042],[76.5966336849,9.3708082007],[76.6036724522,9.3663395685],[76.6071554765,9.3670928586],[76.6121848877,9.3650516387],[76.616817125,9.3653722574],[76.6179058612,9.3630843186],[76.6269029844,9.3596366477],[76.6249493111,9.3582270784],[76.6235300649,9.3535994599],[76.6169779201,9.3521688866],[76.6160164259,9.3444689486],[76.6136248244,9.3445237787],[76.610355512,9.3419080044],[76.6069636896,9.3449858798],[76.6036482998,9.3439420343],[76.601321975,9.3472429254],[76.5982919848,9.3461729851],[76.5951084496,9.3523949096],[76.5909743904,9.3507667556],[76.5877561853,9.3516749414],[76.5861993084,9.3485662819],[76.5825765615,9.3491874734],[76.5817188003,9.3470973602],[76.5792888672,9.3510847259],[76.5800345134,9.3530191259],[76.5746901313,9.3535258911],[76.573400442,9.3554913575],[76.5670164296,9.3557044804],[76.5656598645,9.3529924757],[76.5623749639,9.353588509],[76.5617429216,9.3534017814]]]]}},{"type":"Feature","properties":{"code":"G03041","name":"Malayalapuzha","type":"Grama Panchayat","leading":"LDF","seats":{"LDF":8,"UDF":3,"NDA":2,"OTHERS":1}},"geometry":{"type":"MultiPolygon","coordinates":[[[[76.822292651,9.2508752002],[76.818207481,9.2505466632],[76.8166889935,9.2550713627],[76.8200856325,9.2562709345],[76.8232737021,9.2625829276],[76.8261493198,9.2617176246],[76.8258275376,9.2714115773],[76.8281724393,9.2726362064],[76.8224209978,9.2806339784],[76.8222580208,9.28459944],[76.8187246103,9.2861115633],[76.8191639242,9.2878986871],[76.8156797579,9.2904338349],[76.8143153781,9.2912744906],[76.8121456944,9.2892664422],[76.80422369,9.2879338173],[76.8079955728,9.2970663451],[76.8051700979,9.3046501058],[76.8070801331,9.3086214088],[76.8055363699,9.313011997],[76.8109706651,9.3202343571],[76.8166897645,9.3162008177],[76.8149737853,9.3134419288],[76.815742613,9.311630204],[76.8214095479,9.3084763326],[76.8270948471,9.3115050125],[76.8336354085,9.308521866],[76.8376259036,9.3040176585],[76.8446641845,9.3034217975],[76.8531717997,9.2995410263],[76.8549202441,9.3008818566],[76.8546226014,9.3120786944],[76.8626057351,9.3112908408],[76.8643496705,9.3005599984],[76.8627240724,9.2943331282],[76.867438956,9.2915112543],[76.8669415493,9.2852952472],[76.8742262489,9.2770139873],[76.8755009701,9.2722498795],[76.8776731331,9.2728745257],[76.8783605822,9.2759728902],[76.8872237587,9.2749791491],[76.8892285654,9.2722650556],[76.8864721317,9.2685800542],[76.8879482387,9.2671060389],[76.8924168095,9.2672102921],[76.8926870517,9.2598670974],[76.8784355998,9.2632569456],[76.875251504,9.2617742154],[76.8691252928,9.2630695363],[76.8689431475,9.2686287161],[76.8641479995,9.2713468712],[76.8548011742,9.2728784317],[76.8495310377,9.2667819959],[76.8439222589,9.2706183857],[76.8390064619,9.2690903975],[76.8355831439,9.2652106554],[76.8382565167,9.2554492132],[76.8359599896,9.2550484898],[76.8340528983,9.2515511225],[76.8226947855,9.2508548232],[76.822292651,9.2508752002]]]]}},{"type":"Feature","properties":{"code":"G03007","name":"Mallappally","type":"Grama Panchayat","leading":"UDF","seats":{"LDF":2,"UDF":8,"NDA":3,"OTHERS":2}},"geometry":{"type":"MultiPolygon","coordinates":[[[[76.6622723309,9.4274905729],[76.6553601899,9.4315388051],[76.6548671125,9.4343829648],[76.6515105576,9.4351228063],[76.6505470125,9.4382946443],[76.6477683971,9.4393743838],[76.6483259959,9.4410324853],[76.6466852705,9.4409776598],[76.6448854218,9.4438968229],[76.6404610657,9.4453241501],[76.6375650235,9.4420687991],[76.6342023338,9.4434366652],[76.632579057,9.4422453557],[76.6299387148,9.4440465637],[76.632443859,9.4560176625],[76.6338805815,9.4558604292],[76.6356500565,9.4599042656],[76.6348467992,9.4622712049],[76.6414731321,9.4686682142],[76.6433644619,9.4679746787],[76.6427143593,9.4651621082],[76.6446319641,9.4594938957],[76.6466479953,9.4616611876],[76.6516224265,9.4574175411],[76.6530825935,9.4584685491],[76.6573412095,9.4570371236],[76.6584313073,9.4547135485],[76.6600570536,9.4556976553],[76.667092388,9.4490523529],[76.6694742054,9.4499760985],[76.6703402567,9.4549896024],[76.6730854218,9.4565584265],[76.6761387978,9.4534254395],[76.6836318508,9.4535475174],[76.6848164747,9.4486381893],[76.6838455566,9.4456261191],[76.6850604493,9.4436350362],[76.6881776254,9.4429058461],[76.6866036902,9.4414799698],[76.6873342125,9.4388120025],[76.6949079627,9.4344552842],[76.6940204635,9.4280979796],[76.6918666566,9.4246474402],[76.6968478858,9.4208116234],[76.6967093124,9.4189630056],[76.6884379043,9.4171495706],[76.6863114307,9.4115765923],[76.6776318858,9.416368527],[76.6691661085,9.4182949137],[76.6680871986,9.4232971129],[76.6637064359,9.4242909288],[76.6624957711,9.4273862309],[76.6622723309,9.4274905729]]]]}},{"type":"Feature","properties":{"code":"G03024","name":"Mallappuzhassery","type":"Grama Panchayat","leading":"UDF","seats":{"LDF":1,"UDF":8,"NDA":3,"OTHERS":2}},"geometry":{"type":"MultiPolygon","coordinates":[[[[76.7001885985,9.3018014024],[76.6950618776,9.3060572442],[76.6969234421,9.3090943965],[76.6927460535,9.3175925952],[76.6912235408,9.3170157337],[76.6909595285,9.3201482235],[76.6883274373,9.3214180293],[76.6895610493,9.322566375],[76.6878596982,9.3297387854],[76.6942229324,9.3329949518],[76.7006625596,9.333044374],[76.6992008342,9.327398589],[76.7014298622,9.3254733705],[76.7013930861,9.3227556819],[76.7050344085,9.3252626205],[76.7077259854,9.3212904494],[76.7137643944,9.3205290183],[76.7155692366,9.3177557954],[76.7193933684,9.316321475],[76.7214527452,9.3177473034],[76.7202913542,9.319814044],[76.7230634201,9.3205746182],[76.7237418931,9.3188156229],[76.7270298337,9.319987361],[76.7303056222,9.3126549727],[76.7274648622,9.3104787966],[76.7266457341,9.3078101131],[76.7278714926,9.3058239449],[76.7259922179,9.3002724353],[76.7207398659,9.3022696994],[76.7174122667,9.3057756413],[76.7132610568,9.3053867972],[76.7120272435,9.2959082013],[76.7137105597,9.2924215255],[76.7117477215,9.2899052369],[76.7170323976,9.2847936472],[76.7145184508,9.284431404],[76.7145932281,9.282791818],[76.7117778679,9.2821375331],[76.7071173827,9.2839873856],[76.7040539327,9.2919138469],[76.7012471061,9.2935255438],[76.7029126772,9.2952368432],[76.7002142158,9.3016595188],[76.7001885985,9.3018014024]]]]}},{"type":"Feature","properties":{"code":"G03047","name":"Mezhuvely","type":"Grama Panchayat","leading":"UDF","seats":{"LDF":5,"UDF":9,"NDA":0,"OTHERS":0}},"geometry":{"type":"MultiPolygon","coordinates":[[[[76.6916324005,9.2639206891],[76.6883469133,9.2636738684],[76.6903317687,9.2671329846],[76.6893028476,9.2718873463],[76.6873738608,9.2721055087],[76.6868512088,9.2679554711],[76.6800376659,9.2675063539],[76.6721627597,9.2699865305],[76.669913406,9.2642888949],[76.6679174975,9.2652188422],[76.6673155655,9.2700555838],[76.6692687368,9.2743322496],[76.6721822737,9.2759429141],[76.6718880774,9.2786187905],[76.677016137,9.281951674],[76.6748018517,9.2870676975],[76.6759351081,9.2906255457],[76.6857911768,9.2905438391],[76.69196469,9.2924587397],[76.6934571221,9.2953766173],[76.696259492,9.2955422797],[76.6980509899,9.2952821853],[76.6985705501,9.2917893525],[76.7011027694,9.2935608147],[76.7040539327,9.2919138469],[76.7071173827,9.2839873856],[76.7117778679,9.2821375331],[76.7141904731,9.2830631912],[76.7192173373,9.2765370966],[76.715703562,9.2700253388],[76.7153489719,9.2659275276],[76.713200926,9.2637731333],[76.7131182961,9.2589278913],[76.7079870059,9.2544351665],[76.7054904493,9.2563507575],[76.7033830842,9.2547419328],[76.6977075493,9.255356003],[76.696175675,9.2539673767],[76.6955182837,9.2560116038],[76.6911672393,9.255682855],[76.6930690749,9.2582800476],[76.6920775273,9.2639445184],[76.6916324005,9.2639206891]]]]}},{"type":"Feature","properties":{"code":"G03038","name":"Mylapra","type":"Grama Panchayat","leading":"UDF","seats":{"LDF":2,"UDF":8,"NDA":3,"OTHERS":1}},"geometry":{"type":"MultiPolygon","coordinates":[[[[76.8006902749,9.2768107539],[76.7997509361,9.2728040594],[76.7947044322,9.2726149565],[76.7958206937,9.280434887],[76.7920977122,9.286398977],[76.7893448989,9.2877826178],[76.7907491556,9.297632033],[76.7890530022,9.3014337895],[76.7856394377,9.3022138179],[76.7868327262,9.3065619355],[76.7825204984,9.312763768],[76.7827732698,9.3197573448],[76.7797478047,9.3231597751],[76.7800358386,9.3248303766],[76.7833399282,9.3232629191],[76.786203698,9.3239078736],[76.7888083507,9.3186531751],[76.7887410191,9.3219803597],[76.7912248792,9.3208154019],[76.7957112563,9.3232455616],[76.7951889911,9.3253882368],[76.8005533549,9.3270095732],[76.8052247895,9.3252266176],[76.8073516714,9.3223295908],[76.8062024409,9.3177008143],[76.8079047133,9.3160534948],[76.8055363699,9.313011997],[76.8070440477,9.3080118824],[76.8051700979,9.3046501058],[76.8079955728,9.2970663451],[76.80422369,9.2879338173],[76.8106106077,9.2887810536],[76.8134101163,9.286069964],[76.8128367628,9.2817509075],[76.8102592566,9.2792328333],[76.8109551683,9.2733145963],[76.8018955367,9.278175719],[76.8008230532,9.277031397],[76.8006902749,9.2768107539]]]]}},{"type":"Feature","properties":{"code":"G03033","name":"Naranammoozhy","type":"Grama Panchayat","leading":"UDF","seats":{"LDF":3,"UDF":10,"NDA":1,"OTHERS":0}},"geometry":{"type":"MultiPolygon","coordinates":[[[[76.8386119809,9.3713552085],[76.8386119809,9.3713552085],[76.8386119809,9.3713552085]]]]}},{"type":"Feature","properties":{"code":"G03025","name":"Naranganam","type":"Grama Panchayat","leading":"TIE","seats":{"LDF":2,"UDF":6,"NDA":6,"OTHERS":0}},"geometry":{"type":"MultiPolygon","coordinates":[[[[76.7489734853,9.3031755731],[76.7387368057,9.3114964836],[76.7333353485,9.3118802351],[76.731620456,9.3138690206],[76.7301716498,9.3126770115],[76.7271675802,9.3180296764],[76.7290084116,9.3225417927],[76.7270149163,9.3264987011],[76.7275380026,9.3334297945],[76.7315233995,9.3309748433],[76.7350228326,9.3313390103],[76.7363839471,9.3289853975],[76.7369765068,9.3339010896],[76.7384213204,9.3313237875],[76.7391542609,9.3328699715],[76.7472044844,9.3330757797],[76.7496153064,9.3307135759],[76.7508451408,9.3325387471],[76.7559404524,9.3310367791],[76.7555494927,9.3264531382],[76.757431517,9.3255939493],[76.7594403601,9.3284483809],[76.763018547,9.3277656603],[76.7643756629,9.3335085986],[76.7690372914,9.3341241467],[76.7680857681,9.3307359758],[76.770558215,9.3289894625],[76.7696717083,9.3253704308],[76.7742900309,9.3266982513],[76.7782563446,9.3256869372],[76.7773447017,9.3245765359],[76.779114922,9.321086037],[76.7805272107,9.3221211139],[76.7827732698,9.3197573448],[76.7825204984,9.312763768],[76.7868489953,9.3064495417],[76.7865820829,9.3015678823],[76.7818808511,9.2949279442],[76.7771769764,9.2950554966],[76.7744072614,9.2918328744],[76.7653457715,9.2909207424],[76.763986282,9.2871935562],[76.7572389664,9.2917137626],[76.7553458358,9.2966168013],[76.7495655151,9.2996558713],[76.7489734853,9.3031755731]]]]}},{"type":"Feature","properties":{"code":"G03011","name":"Nedumpram","type":"Grama Panchayat","leading":"TIE","seats":{"LDF":6,"UDF":1,"NDA":6,"OTHERS":1}},"geometry":{"type":"MultiPolygon","coordinates":[[[[76.5420506697,9.3609404194],[76.5420506697,9.3609404194],[76.5420506697,9.3609404194]]]]}},{"type":"Feature","properties":{"code":"G03010","name":"Niranam","type":"Grama Panchayat","leading":"TIE","seats":{"LDF":6,"UDF":6,"NDA":0,"OTHERS":2}},"geometry":{"type":"MultiPolygon","coordinates":[[[[76.4887285169,9.3307217486],[76.4896777496,9.3288385971],[76.4743983519,9.3288794954],[76.4732699812,9.3321185295],[76.4763767881,9.3390628068],[76.4785156385,9.3392738569],[76.4785958453,9.341120538],[76.4799490199,9.3405236915],[76.4840586172,9.3457764331],[76.4885964873,9.347160192],[76.4958927583,9.3467626313],[76.5055126519,9.3513057607],[76.5089012221,9.3547070726],[76.5167508359,9.3541781505],[76.5164017628,9.3652312659],[76.5240536912,9.3653351403],[76.5245898605,9.3609986314],[76.5288951325,9.3589825587],[76.5306107631,9.3530435728],[76.532624697,9.3523186163],[76.5294920996,9.3486255686],[76.529592443,9.3456297253],[76.5274312517,9.3460714713],[76.5259537736,9.342856719],[76.5326152087,9.3395384307],[76.5329026882,9.3373511998],[76.5209576023,9.3333623075],[76.5161833765,9.3340684945],[76.5104115474,9.331846531],[76.499336387,9.3309270318],[76.4987109826,9.3372307561],[76.4944225788,9.3372539123],[76.4890535234,9.3357569638],[76.4886161469,9.3308374421],[76.4887285169,9.3307217486]]]]}},{"type":"Feature","properties":{"code":"G03019","name":"Omalloor","type":"Grama Panchayat","leading":"NDA","seats":{"LDF":2,"UDF":6,"NDA":7,"OTHERS":0}},"geometry":{"type":"MultiPolygon","coordinates":[[[[76.7698564087,9.2344740015],[76.7698564087,9.2344740015],[76.7698564087,9.2344740015]]]]}},{"type":"Feature","properties":{"code":"G03054","name":"Pallickal","type":"Grama Panchayat","leading":"LDF","seats":{"LDF":12,"UDF":6,"NDA":6,"OTHERS":0}},"geometry":{"type":"MultiPolygon","coordinates":[[[[76.6746884003,9.1163357639],[76.6707232201,9.1173668925],[76.6699259792,9.1155706387],[76.668448033,9.1167588763],[76.6642231225,9.1142108791],[76.6610519267,9.1160237012],[76.656399382,9.1134447266],[76.6523380581,9.1149158616],[76.651731913,9.1168536675],[76.6473308041,9.1167656089],[76.6477090492,9.1186593313],[76.6448105639,9.1202535382],[76.6451872617,9.1222512502],[76.6361184754,9.1211343388],[76.6348107964,9.1227953555],[76.6378803798,9.1319407861],[76.6376251234,9.1417493569],[76.6358689866,9.1414083098],[76.6371205115,9.1483509789],[76.6404595549,9.1504882846],[76.6512015202,9.1504941577],[76.6514947061,9.1518769529],[76.6637893052,9.149867558],[76.6704944071,9.1526816029],[76.6733798559,9.1553562961],[76.6716120346,9.1647809724],[76.6772344234,9.1721066178],[76.6814735589,9.1716148552],[76.6864783415,9.1679577854],[76.6913196955,9.1776207678],[76.6973727571,9.1781004047],[76.7005997308,9.1762673006],[76.7027607667,9.1786115314],[76.7022929315,9.1805807634],[76.7042455866,9.1798316893],[76.7079471121,9.1822879265],[76.7200157516,9.1637736553],[76.7181826895,9.1549464658],[76.721521192,9.1521216286],[76.7190089506,9.1447047088],[76.7164994692,9.1442661899],[76.7167751372,9.1412227823],[76.7088855684,9.1342166917],[76.7054439846,9.127099126],[76.702065338,9.1267074998],[76.6997650545,9.1227291913],[76.6969000765,9.1221731279],[76.6873348875,9.1256909265],[76.6816952618,9.1249343643],[76.6818286211,9.1187959144],[76.679971556,9.1168589771],[76.6748150464,9.1163437348],[76.6746884003,9.1163357639]]]]}},{"type":"Feature","properties":{"code":"G03042","name":"Panthalam-Thekkekkara","type":"Grama Panchayat","leading":"NDA","seats":{"LDF":4,"UDF":2,"NDA":9,"OTHERS":0}},"geometry":{"type":"MultiPolygon","coordinates":[[[[76.7268962067,9.1793554439],[76.7268962067,9.1793554439],[76.7268962067,9.1793554439]]]]}},{"type":"Feature","properties":{"code":"G03012","name":"Peringara","type":"Grama Panchayat","leading":"UDF","seats":{"LDF":3,"UDF":8,"NDA":4,"OTHERS":1}},"geometry":{"type":"MultiPolygon","coordinates":[[[[76.5380129686,9.3768719196],[76.5380129686,9.3768719196],[76.5380129686,9.3768719196]]]]}},{"type":"Feature","properties":{"code":"G03037","name":"Pramadam","type":"Grama Panchayat","leading":"UDF","seats":{"LDF":5,"UDF":10,"NDA":3,"OTHERS":2}},"geometry":{"type":"MultiPolygon","coordinates":[[[[76.8031319335,9.2042928685],[76.8031319335,9.2042928685],[76.8031319335,9.2042928685]]]]}},{"type":"Feature","properties":{"code":"G03018","name":"Puramattam","type":"Grama Panchayat","leading":"UDF","seats":{"LDF":5,"UDF":7,"NDA":0,"OTHERS":2}},"geometry":{"type":"MultiPolygon","coordinates":[[[[76.6670425143,9.3781151439],[76.6624373481,9.379205458],[76.6609130891,9.3743337963],[76.6577440496,9.3745763138],[76.654941834,9.3724028361],[76.6503212507,9.3731425153],[76.6493914504,9.3847859656],[76.6430004519,9.3898885039],[76.6430129135,9.393430583],[76.6379515613,9.3966360433],[76.6377273493,9.3991739592],[76.6476507603,9.4058777268],[76.6556455304,9.4013236898],[76.6550744519,9.3980564084],[76.6569654205,9.3974199205],[76.6587214594,9.4018548783],[76.6620873987,9.4034662822],[76.6598238175,9.407829227],[76.6628697894,9.4118146396],[76.6631376316,9.4176035286],[76.6650031405,9.4185113048],[76.6776318858,9.416368527],[76.6870848874,9.411191606],[76.6862683225,9.4088096858],[76.6817500605,9.4104104375],[76.6808926905,9.4055720961],[76.6767013825,9.403485908],[76.6763619011,9.4011694397],[76.6716726559,9.4046472052],[76.6680917588,9.4029384318],[76.6742021673,9.3998226039],[76.6758219187,9.3961267667],[76.6748133666,9.3933657082],[76.6802367358,9.391734982],[76.680677574,9.3883262139],[76.6794424255,9.3878817916],[76.679248407,9.379056795],[76.6736655662,9.3774127989],[76.6729376402,9.3796754642],[76.6706959068,9.3804062111],[76.6674258532,9.3781641818],[76.6670425143,9.3781151439]]]]}},{"type":"Feature","properties":{"code":"G03028","name":"Ranny Angady","type":"Grama Panchayat","leading":"UDF","seats":{"LDF":2,"UDF":9,"NDA":0,"OTHERS":3}},"geometry":{"type":"MultiPolygon","coordinates":[[[[76.7712714328,9.3696336995],[76.7712714328,9.3696336995],[76.7712714328,9.3696336995]]]]}},{"type":"Feature","properties":{"code":"G03026","name":"Ranni Pazhavangady","type":"Grama Panchayat","leading":"UDF","seats":{"LDF":3,"UDF":10,"NDA":1,"OTHERS":3}},"geometry":{"type":"MultiPolygon","coordinates":[[[[76.7978530847,9.3728761364],[76.7917324329,9.3664390857],[76.788003854,9.3668986241],[76.7860317281,9.3692140521],[76.7871705769,9.3742744281],[76.78594861,9.3778629938],[76.7793491168,9.3803174233],[76.7842015134,9.3857809176],[76.7803600888,9.3967328645],[76.782618179,9.4045518223],[76.7851771225,9.406209227],[76.7854735126,9.4094676654],[76.7890697951,9.4108503046],[76.7876138224,9.4187812029],[76.7898669021,9.4233955503],[76.7866615355,9.4258855437],[76.7860413792,9.4294403891],[76.7910557214,9.4289950991],[76.7933217021,9.4317870722],[76.7968164863,9.4315566468],[76.7930165713,9.4418953894],[76.792286712,9.4516131603],[76.7941672581,9.4537494054],[76.7986818773,9.4515056246],[76.7998135004,9.4573844747],[76.8013784766,9.4581434975],[76.8044861223,9.4548996626],[76.8183939436,9.4557902187],[76.823485056,9.445477513],[76.8258036518,9.4442619598],[76.8264906137,9.4392306493],[76.8227096254,9.4351789565],[76.8143298481,9.4378188716],[76.8159542635,9.4273865556],[76.8140889705,9.427150231],[76.8133773634,9.4217082437],[76.8073152375,9.4168885652],[76.8095721248,9.4137261668],[76.819130284,9.4115373959],[76.8256311872,9.4072877537],[76.8224443941,9.4049681281],[76.8219411546,9.4024215403],[76.8189634355,9.4039393913],[76.8166156864,9.4031626971],[76.8163116012,9.3944948122],[76.8197251977,9.3860939794],[76.8182392033,9.3811769053],[76.8193100299,9.3806282861],[76.8131426714,9.3757070514],[76.8201260729,9.3730852518],[76.8161856363,9.3723221845],[76.8136948681,9.3695908079],[76.8091924366,9.3719220146],[76.8124459103,9.3682432495],[76.8071795641,9.3686516695],[76.7987644231,9.377504889],[76.7978476556,9.3731870496],[76.7978530847,9.3728761364]]]]}},{"type":"Feature","properties":{"code":"G03029","name":"Ranny Perunadu","type":"Grama Panchayat","leading":"LDF","seats":{"LDF":10,"UDF":3,"NDA":3,"OTHERS":0}},"geometry":{"type":"MultiPolygon","coordinates":[[[[76.8898012501,9.331023491],[76.8864764234,9.3290971442],[76.8776810081,9.3293609336],[76.8780298363,9.3349698492],[76.8765522246,9.3369388901],[76.8729725676,9.3330395759],[76.8696178265,9.3341894746],[76.8489270814,9.3476914468],[76.8496401071,9.3506966766],[76.8461884952,9.3556382951],[76.8406569918,9.3540663235],[76.8426473606,9.352144628],[76.8400312105,9.3519599881],[76.8411103184,9.3493654253],[76.835639951,9.3499291121],[76.8345165748,9.3481902795],[76.8325467963,9.3491237203],[76.8336552613,9.3508783344],[76.8291100832,9.3554238865],[76.8308381961,9.3577434208],[76.8329828846,9.3571649048],[76.8347330237,9.3643691513],[76.8384317806,9.3671738772],[76.8393626533,9.3739102866],[76.8411692659,9.3721419552],[76.8465888308,9.376139901],[76.8455261521,9.3809343269],[76.8483161998,9.3789993769],[76.857730726,9.3805060791],[76.8568648484,9.3846918467],[76.8682381271,9.3909649569],[76.8775021726,9.3898373546],[76.8803778493,9.3880961308],[76.8819228293,9.3833771969],[76.8847910618,9.3804297411],[76.887800869,9.37904003],[76.8902286786,9.3797631419],[76.9019499071,9.4006176757],[76.9018683247,9.4062525173],[76.8990354608,9.411505381],[76.8992262595,9.414303258],[76.9046005213,9.4208847953],[76.9097989479,9.4214338549],[76.9149451207,9.4249779331],[76.920035085,9.425391084],[76.9233939331,9.4232198673],[76.9221446575,9.4166736639],[76.9254563409,9.4152349918],[76.9323106557,9.4175408977],[76.9370067627,9.4210618731],[76.9429852404,9.4187969586],[76.9555891015,9.4208981872],[76.9593810445,9.420185653],[76.9602440049,9.4223833493],[76.9688969787,9.4250479111],[76.9738738933,9.4219839613],[76.9764967595,9.4245882757],[76.9925565763,9.4216865284],[76.997156599,9.4236269582],[77.0032681687,9.4190444755],[77.0114323092,9.4200729458],[77.0097499095,9.4093057096],[77.0214738924,9.4064922346],[77.0256038185,9.4094055112],[77.0281313195,9.4069561421],[77.0322237945,9.4094186534],[77.0354234953,9.4092391441],[77.0375957973,9.4127161504],[77.0472914458,9.4133418669],[77.0497451099,9.4160943819],[77.0554365511,9.4179260226],[77.0590814793,9.4158039228],[77.0669879127,9.4167463805],[77.0624276312,9.4260033887],[77.05879562,9.4271050589],[77.0603529773,9.4306673405],[77.0582222952,9.4351651513],[77.0600842683,9.4384126362],[77.0578696814,9.4433204334],[77.0609334318,9.4483066841],[77.0674692725,9.4534812324],[77.0836979744,9.4576150669],[77.091644851,9.4639833287],[77.0980815849,9.4634037998],[77.1017723889,9.4663544051],[77.111443165,9.4674913462],[77.1154707102,9.4631820464],[77.1229947136,9.4628330887],[77.1281184414,9.4601342851],[77.1294721006,9.458636895],[77.1278651028,9.4520266123],[77.1200436012,9.4420090865],[77.1135792057,9.4413556816],[77.111256294,9.4362215276],[77.107544521,9.4359403561],[77.1059005398,9.4338390251],[77.100215192,9.4338794147],[77.0987993788,9.4296441236],[77.0930341078,9.4292778852],[77.089565564,9.4246101706],[77.0851099087,9.4235711907],[77.0848524042,9.4215819343],[77.082049122,9.423106363],[77.0790083609,9.4198232216],[77.0767469916,9.4206199805],[77.0757180195,9.4173931039],[77.0731562467,9.4171583822],[77.0727020575,9.4146608563],[77.070773628,9.4136186038],[77.0699195492,9.4074346569],[77.075641731,9.3995720848],[77.0772324638,9.3945239149],[77.076434942,9.3890965946],[77.0791486667,9.3874216214],[77.0713952867,9.3867247056],[77.0704113473,9.3854479081],[77.0690103475,9.3880437191],[77.0685307392,9.385738831],[77.0634008158,9.3820679947],[77.0618958602,9.3815174121],[77.0602198538,9.3835545724],[77.0595608501,9.3807014207],[77.0541941398,9.3794745531],[77.053223085,9.3812216395],[77.0515487314,9.3787017227],[77.0506266883,9.3798611881],[77.0284616467,9.3789395678],[76.9745217898,9.3875888972],[76.9680668018,9.389736341],[76.9652714475,9.3924946823],[76.9637451064,9.3803999006],[76.9689322962,9.3697225449],[76.9675021275,9.362506725],[76.958779383,9.3578448329],[76.9567279102,9.3551149437],[76.958806143,9.3468872739],[76.9458061118,9.3532460618],[76.9414036387,9.3403312476],[76.9255715167,9.3399565058],[76.9235216965,9.3422772607],[76.9050420869,9.3494481741],[76.8991142336,9.3486245417],[76.9000760203,9.3376985717],[76.8971908147,9.3309676203],[76.8925757519,9.33244133],[76.8902623278,9.3314819243],[76.8898012501,9.331023491]]]]}},{"type":"Feature","properties":{"code":"G03027","name":"Ranni","type":"Grama Panchayat","leading":"LDF","seats":{"LDF":9,"UDF":3,"NDA":1,"OTHERS":1}},"geometry":{"type":"MultiPolygon","coordinates":[[[[76.7902240874,9.3328591947],[76.7870144437,9.3389740863],[76.7880687593,9.3421894185],[76.7824153706,9.3462247508],[76.7808612909,9.3519767216],[76.7759911901,9.3555869148],[76.7755378517,9.3597924953],[76.7723865318,9.3610257111],[76.7746869484,9.3644268035],[76.7705565375,9.3716942407],[76.7774134474,9.3803905306],[76.7856375761,9.378287117],[76.7871705769,9.3742744281],[76.7864873834,9.3680631842],[76.7944521418,9.3659405158],[76.798463976,9.3623221514],[76.7981435662,9.358890845],[76.7959492267,9.3578217681],[76.8003836343,9.354278876],[76.7996651052,9.3529178418],[76.8021534997,9.3500993049],[76.8050528311,9.3519860275],[76.813471209,9.3477340748],[76.8171979614,9.3439208934],[76.816859298,9.3388771421],[76.8195965945,9.3409524527],[76.8239268107,9.337928464],[76.8171440771,9.3347919447],[76.8179338575,9.3327809882],[76.8151982196,9.3313834949],[76.815243528,9.3276251029],[76.8080226522,9.3224846903],[76.8005533549,9.3270095732],[76.7951889911,9.3253882368],[76.7957112563,9.3232455616],[76.7912248792,9.3208154019],[76.7887410191,9.3219803597],[76.7888083507,9.3186531751],[76.7872416888,9.3224155864],[76.7918575374,9.3275467916],[76.7903961073,9.3323075259],[76.7902240874,9.3328591947]]]]}},{"type":"Feature","properties":{"code":"G03032","name":"Seethathodu","type":"Grama Panchayat","leading":"LDF","seats":{"LDF":10,"UDF":3,"NDA":0,"OTHERS":1}},"geometry":{"type":"MultiPolygon","coordinates":[[[[76.9798501743,9.3062229565],[76.9731465692,9.3132552781],[76.9661954341,9.3165776379],[76.9560846245,9.3259532183],[76.9438345775,9.3284181548],[76.9443292091,9.3303448728],[76.9500548284,9.3311084643],[76.9512377439,9.3325818666],[76.9544217562,9.3308780029],[76.959025268,9.3316477967],[76.9580269354,9.3353529511],[76.9493699617,9.3354942309],[76.9414036387,9.3403312476],[76.9458061118,9.3532460618],[76.958806143,9.3468872739],[76.9567279102,9.3551149437],[76.958779383,9.3578448329],[76.9675021275,9.362506725],[76.9688469187,9.3711888282],[76.9649308659,9.3759331562],[76.9637451064,9.3803999006],[76.9652714475,9.3924946823],[76.9680668018,9.389736341],[76.9745217898,9.3875888972],[77.0284616467,9.3789395678],[77.0506266883,9.3798611881],[77.0515487314,9.3787017227],[77.053223085,9.3812216395],[77.0541941398,9.3794745531],[77.0595608501,9.3807014207],[77.0602198538,9.3835545724],[77.0618958602,9.3815174121],[77.0634008158,9.3820679947],[77.0685307392,9.385738831],[77.0690103475,9.3880437191],[77.0704113473,9.3854479081],[77.0713952867,9.3867247056],[77.0791162642,9.3874004434],[77.076434942,9.3890965946],[77.0772324638,9.3945239149],[77.075641731,9.3995720848],[77.0699195492,9.4074346569],[77.070773628,9.4136186038],[77.0733605228,9.4173373517],[77.0757180195,9.4173931039],[77.0767469916,9.4206199805],[77.0785494158,9.4196097382],[77.0824357948,9.4232157421],[77.0848524042,9.4215819343],[77.0851099087,9.4235711907],[77.089565564,9.4246101706],[77.0930341078,9.4292778852],[77.0987993788,9.4296441236],[77.100215192,9.4338794147],[77.1059005398,9.4338390251],[77.107544521,9.4359403561],[77.111256294,9.4362215276],[77.113678769,9.4414491026],[77.1200436012,9.4420090865],[77.1270558818,9.4502745162],[77.1304183449,9.4601080315],[77.1352211883,9.4582479792],[77.1391407819,9.4607803494],[77.1423160163,9.4602670524],[77.1547149286,9.4701611612],[77.1620341539,9.4683823914],[77.1663720366,9.4689338823],[77.1663090267,9.4643903984],[77.1693313421,9.465041627],[77.1686449041,9.4609103652],[77.1814101806,9.4711901299],[77.1821501725,9.4650231365],[77.1843978493,9.4619745808],[77.1824133033,9.4564806109],[77.1832276215,9.4538451876],[77.1881066417,9.4554884798],[77.1906304007,9.4488392773],[77.1969336729,9.4512455066],[77.2006107218,9.4487795242],[77.2032873984,9.4507128345],[77.2067453935,9.4497283858],[77.2096049809,9.4470169897],[77.2074791979,9.4430899049],[77.2079575719,9.4406394187],[77.2119106468,9.4430660308],[77.2151601847,9.4371144528],[77.2237043675,9.4338663601],[77.2210047278,9.4254967085],[77.2223068909,9.4228746399],[77.2205499537,9.4205837248],[77.2288787949,9.4188976562],[77.229828562,9.4153434324],[77.2282301549,9.4100019156],[77.2316129425,9.4052164379],[77.231359179,9.4033613354],[77.2388860117,9.3982544642],[77.2421595012,9.3905886388],[77.2453280704,9.3881169967],[77.2481607084,9.3770325408],[77.2418344822,9.3696039852],[77.2411924605,9.3604285699],[77.2349438534,9.3499962966],[77.2380293514,9.3396840238],[77.2304498499,9.3299811749],[77.2346951519,9.3267489412],[77.235089459,9.3234796168],[77.2281417895,9.3177918362],[77.2246257866,9.3111387507],[77.2260255616,9.3037189619],[77.2243290157,9.2964527908],[77.224619852,9.2952908509],[77.2290306107,9.296662837],[77.2356940272,9.2922897527],[77.2371345151,9.2821056707],[77.2395391164,9.2846452322],[77.2431114183,9.2831099981],[77.2446976868,9.2894017306],[77.2488321013,9.2889953399],[77.2583169213,9.284482566],[77.2611173609,9.2808967803],[77.2727508383,9.2784646392],[77.2771599252,9.2738237412],[77.2815735072,9.2725134451],[77.2832969299,9.2675169188],[77.2813116826,9.2629646807],[77.2823767915,9.2562454815],[77.278797134,9.25223793],[77.2799705401,9.2399735983],[77.2742847947,9.2356148435],[77.2822937151,9.2172666398],[77.2709245041,9.2056448772],[77.2704423707,9.2007621414],[77.2637407457,9.1985240645],[77.256334869,9.1994543748],[77.2563680862,9.1958435476],[77.2531450451,9.1888135593],[77.2452698997,9.1898872765],[77.2357467612,9.1873195599],[77.2232139493,9.194674187],[77.2160368563,9.1935572447],[77.2043308843,9.2009824961],[77.2018307177,9.2045656109],[77.1811044322,9.2047809267],[77.158056454,9.2092038844],[77.1548156188,9.2138759049],[77.1505705301,9.2144121394],[77.1488693015,9.2174665172],[77.1461608772,9.2174763097],[77.1432927514,9.2248632629],[77.1461723505,9.2307598377],[77.1432799202,9.2334756207],[77.1419312809,9.2400900603],[77.1368524679,9.2430301686],[77.128174683,9.2430577379],[77.1182334204,9.2405039076],[77.1148105228,9.2425025874],[77.1073382895,9.2430842486],[77.1026090646,9.2413526451],[77.1019036645,9.24285976],[77.0925907789,9.2455502635],[77.0768493819,9.2450569624],[77.0711803481,9.2488124654],[77.0593363001,9.2428912464],[77.0523804394,9.2441415103],[77.0509658598,9.2447095324],[77.0509025374,9.2518256387],[77.0492779438,9.2558448519],[77.0333132914,9.26680179],[77.0272122561,9.2738847168],[77.0219586327,9.2743543808],[77.0101256598,9.2811446472],[76.9702475249,9.2854101402],[76.9856173355,9.2971479527],[76.9880221051,9.3015103594],[76.9800386877,9.3061185768],[76.9798501743,9.3062229565]]]]}},{"type":"Feature","properties":{"code":"G03040","name":"Thannithodu","type":"Grama Panchayat","leading":"UDF","seats":{"LDF":2,"UDF":11,"NDA":0,"OTHERS":1}},"geometry":{"type":"MultiPolygon","coordinates":[[[[76.9148387915,9.2141415309],[76.9052887893,9.2241692224],[76.898805066,9.2261083319],[76.8970234146,9.231572368],[76.8980676394,9.2354595441],[76.9015374822,9.2376078608],[76.9030157046,9.2421127949],[76.9011581492,9.2457956192],[76.8947492445,9.2495376118],[76.8904590451,9.2566695416],[76.8926870517,9.2598670974],[76.8924168095,9.2672102921],[76.8997085685,9.2641603629],[76.9028898641,9.2645794177],[76.901770212,9.2701995996],[76.9100921212,9.2884398588],[76.9174387834,9.2877524247],[76.9237647689,9.2936903017],[76.9361063822,9.2935998147],[76.9375075346,9.2947932801],[76.9505951856,9.2901867502],[76.9617282145,9.289226282],[76.9702475249,9.2854101402],[77.0108309829,9.2809001302],[77.0219586327,9.2743543808],[77.0272122561,9.2738847168],[77.0333132914,9.26680179],[77.0492779438,9.2558448519],[77.0509025374,9.2518256387],[77.0509658598,9.2447095324],[77.0337732311,9.2413579474],[77.0307770119,9.2443856692],[77.0290610026,9.2421973778],[77.0260146535,9.2429595719],[77.0224969262,9.2373771205],[77.0256911035,9.2337798005],[77.0231236296,9.2311071879],[77.0260025669,9.2310287998],[77.0267529623,9.2283018398],[77.019355191,9.2265329484],[77.0185718453,9.2245368365],[77.0141898844,9.2271905618],[77.0182565426,9.2295263413],[77.0172345993,9.2318360518],[77.0104606301,9.2324775145],[77.0110579368,9.2267020806],[76.9911215031,9.2181604535],[76.9550498933,9.2113251491],[76.944304064,9.2076353015],[76.9261373947,9.1980755014],[76.9194957103,9.2123172766],[76.9165195481,9.213535371],[76.9148387915,9.2141415309]]]]}},{"type":"Feature","properties":{"code":"G03016","name":"Thottappuzhassery","type":"Grama Panchayat","leading":"UDF","seats":{"LDF":1,"UDF":8,"NDA":2,"OTHERS":3}},"geometry":{"type":"MultiPolygon","coordinates":[[[[76.6764441482,9.3338748471],[76.6778195345,9.3342928851],[76.6788055726,9.3399403166],[76.6822843769,9.3452775279],[76.6807333738,9.3473435179],[76.6823780267,9.3487303776],[76.6819312105,9.354232229],[76.6858537894,9.3542526679],[76.6889928039,9.3595217468],[76.687973307,9.3644766464],[76.6892273391,9.3724026907],[76.6907037935,9.3736038704],[76.687942544,9.3784447085],[76.7058584689,9.3819375312],[76.7148475579,9.3773177348],[76.7152205872,9.3730752079],[76.7187199357,9.3710345656],[76.7191425565,9.3684752392],[76.7181581547,9.3644087371],[76.7116270493,9.363016017],[76.7131464924,9.3616753189],[76.7117421379,9.3520228074],[76.7052679283,9.3522046623],[76.7027527526,9.3507670027],[76.7047096947,9.3410776659],[76.7024701451,9.3348005893],[76.7006625596,9.333044374],[76.6965381787,9.3337548789],[76.6830547044,9.3284020967],[76.6760378096,9.3305568585],[76.6748574394,9.3333462948],[76.6762715288,9.3339096957],[76.6764441482,9.3338748471]]]]}},{"type":"Feature","properties":{"code":"G03044","name":"Thumpamon","type":"Grama Panchayat","leading":"UDF","seats":{"LDF":0,"UDF":12,"NDA":1,"OTHERS":1}},"geometry":{"type":"MultiPolygon","coordinates":[[[[76.7123487717,9.2047277165],[76.7064308007,9.2063248006],[76.7068374288,9.2076776528],[76.7000273337,9.211289817],[76.6981530724,9.2161017904],[76.695027958,9.2180559551],[76.6946428403,9.2214203668],[76.6911940436,9.2240809335],[76.6913814404,9.2258536449],[76.6942909252,9.225645477],[76.6974471151,9.2277307723],[76.704797913,9.2249382128],[76.7073791309,9.2254999314],[76.7090396682,9.2289879077],[76.7108650775,9.2289723242],[76.7136286383,9.2281936439],[76.7157170415,9.2230449332],[76.7203595939,9.2275650655],[76.7315069844,9.2207787996],[76.7364446788,9.2210952032],[76.7355148642,9.2191189537],[76.7316376112,9.2206825439],[76.726954564,9.2172532489],[76.7260154186,9.2154008823],[76.7280651437,9.214452358],[76.7278987571,9.2129840356],[76.7252368222,9.2074939663],[76.7223137713,9.2077306141],[76.7149814947,9.2040565211],[76.7141893809,9.2022887392],[76.712674775,9.2044695602],[76.7123487717,9.2047277165]]]]}},{"type":"Feature","properties":{"code":"G03030","name":"Vadasserikkara","type":"Grama Panchayat","leading":"UDF","seats":{"LDF":2,"UDF":12,"NDA":2,"OTHERS":0}},"geometry":{"type":"MultiPolygon","coordinates":[[[[76.8307402868,9.3095177945],[76.8270009875,9.311501656],[76.8214095479,9.3084763326],[76.815742613,9.311630204],[76.8149737853,9.3134419288],[76.8166897645,9.3162008177],[76.8141425591,9.3168359924],[76.811347757,9.3201793216],[76.8072332217,9.3148714897],[76.8061154898,9.3211857495],[76.8073516714,9.3223295908],[76.8055245527,9.3242640998],[76.8082623001,9.3226272118],[76.815243528,9.3276251029],[76.8151982196,9.3313834949],[76.8179338575,9.3327809882],[76.8171440771,9.3347919447],[76.8240598482,9.3370365466],[76.8195965945,9.3409524527],[76.8172927883,9.3385361533],[76.8171979614,9.3439208934],[76.8137630967,9.3475408791],[76.8051710788,9.351875887],[76.8021534997,9.3500993049],[76.7996651052,9.3529178418],[76.8003836343,9.354278876],[76.7959492267,9.3578217681],[76.7981435664,9.3590679579],[76.798463976,9.3623221514],[76.7917324329,9.3664390857],[76.7972608959,9.3711034504],[76.7986231179,9.3775226071],[76.8071795641,9.3686516695],[76.8129513924,9.3687880881],[76.8091924366,9.3719220146],[76.8136948681,9.3695908079],[76.8171219978,9.3720163376],[76.8222076486,9.3655688436],[76.8233953204,9.3607002484],[76.8336552613,9.3508783344],[76.8325467963,9.3491237203],[76.8411103184,9.3493654253],[76.8400312105,9.3519599881],[76.8426473606,9.352144628],[76.8406569918,9.3540663235],[76.8461884952,9.3556382951],[76.8496401071,9.3506966766],[76.8489270814,9.3476914468],[76.8691682666,9.3345925286],[76.8729725676,9.3330395759],[76.8762276808,9.3372475983],[76.8772335337,9.3365336168],[76.8776810081,9.3293609336],[76.8856838822,9.328998556],[76.8914635466,9.3307274218],[76.8906552241,9.3266638729],[76.8952455877,9.3237342991],[76.8984322912,9.3178417016],[76.904276029,9.3154671347],[76.9038401056,9.3113762154],[76.9013534711,9.3102025907],[76.8918894061,9.3125620649],[76.8876403905,9.3106411836],[76.8846894671,9.3042952989],[76.8849455329,9.297454346],[76.8874203839,9.2944521159],[76.8855541183,9.2889710611],[76.8838044363,9.2911349652],[76.8734426491,9.2918176251],[76.8694823884,9.2940459901],[76.867438956,9.2915112543],[76.8633938986,9.2932398663],[76.862661559,9.2955855257],[76.8643496705,9.3005599984],[76.8626057351,9.3112908408],[76.8546226014,9.3120786944],[76.8549202441,9.3008818566],[76.8531717997,9.2995410263],[76.8446641845,9.3034217975],[76.8376259036,9.3040176585],[76.8312323263,9.3095368576],[76.8307402868,9.3095177945]],[[76.8145094667,9.3468430673],[76.8145094667,9.3468430673],[76.8145094667,9.3468430673]],[[76.8146504756,9.347810201],[76.8146504756,9.347810201],[76.8146504756,9.347810201]],[[76.8146712036,9.3479268414],[76.8146712036,9.3479268414],[76.8146712036,9.3479268414]]]]}},{"type":"Feature","properties":{"code":"G03039","name":"Vallikkodu","type":"Grama Panchayat","leading":"UDF","seats":{"LDF":5,"UDF":9,"NDA":2,"OTHERS":0}},"geometry":{"type":"MultiPolygon","coordinates":[[[[76.7569123333,9.2085899421],[76.7448626963,9.2114983985],[76.7355148642,9.2191189537],[76.7361395926,9.2212976547],[76.7315069844,9.2207787996],[76.7203595939,9.2275650655],[76.7270803126,9.2330441879],[76.7295977333,9.2306095499],[76.7347936993,9.2335339326],[76.7373349229,9.2314098213],[76.7423137002,9.2313609379],[76.7445717842,9.2387238105],[76.7462519009,9.2352921275],[76.7496159654,9.233591381],[76.7540209987,9.2357752905],[76.7535774824,9.2313661784],[76.7581773773,9.2317676921],[76.7615187029,9.2290688032],[76.7630245141,9.2319899848],[76.770554159,9.234541945],[76.7711017599,9.2325955839],[76.7756029026,9.2312705409],[76.7793230358,9.2277148445],[76.7804085123,9.2299332496],[76.7836507228,9.2310676097],[76.7842474195,9.2356314395],[76.788103862,9.2361390795],[76.7853899008,9.2381998013],[76.7868992481,9.2425151272],[76.7932550543,9.2426791925],[76.797528263,9.2389417455],[76.8014815836,9.2379006406],[76.8024117342,9.2325858853],[76.8024964262,9.2272365594],[76.799635198,9.222933547],[76.7999235356,9.218241073],[76.7952084923,9.2156453372],[76.794827529,9.2097940252],[76.7891645519,9.2142325131],[76.784047994,9.212362236],[76.7817729899,9.2138940062],[76.7773566948,9.2094346889],[76.7762613448,9.2123925802],[76.7702520951,9.2148905348],[76.7678880234,9.2125462964],[76.7672067387,9.2141840538],[76.7624770631,9.2140906453],[76.7637179124,9.2112497931],[76.7623546088,9.2114901917],[76.759542379,9.2079758527],[76.756824886,9.2083777034],[76.7569123333,9.2085899421]]]]}},{"type":"Feature","properties":{"code":"G03034","name":"Vechoochira","type":"Grama Panchayat","leading":"UDF","seats":{"LDF":3,"UDF":12,"NDA":1,"OTHERS":0}},"geometry":{"type":"MultiPolygon","coordinates":[[[[76.8711281846,9.4083627917],[76.8711281846,9.4083627917],[76.8711281846,9.4083627917]]]]}},{"type":"Feature","properties":{"code":"M03008","name":"Adoor","type":"Municipality","leading":"UDF","seats":{"LDF":8,"UDF":16,"NDA":4,"OTHERS":1}},"geometry":{"type":"MultiPolygon","coordinates":[[[[76.7461654071,9.1420580191],[76.7451797786,9.1384654878],[76.7376747343,9.140827992],[76.7314894666,9.1403426964],[76.7269071235,9.1441256494],[76.7168905499,9.1410210626],[76.7164994692,9.1442661899],[76.7190089506,9.1447047088],[76.721521192,9.1521216286],[76.7181826895,9.1549464658],[76.7200157516,9.1637736553],[76.7090723989,9.1792421709],[76.7089121013,9.1814341259],[76.7136409751,9.1794736394],[76.7202940542,9.1798596001],[76.7250700879,9.1767208136],[76.7274476936,9.1797139599],[76.7408856348,9.1756095168],[76.7434308034,9.181624951],[76.7392930488,9.1836096094],[76.7395819794,9.1873178923],[76.7408848227,9.1906040937],[76.7445343982,9.1916426712],[76.7465896265,9.1876827873],[76.7489692171,9.1868227447],[76.7480146107,9.1818127152],[76.7495738817,9.1817211354],[76.750768727,9.178281306],[76.749454976,9.1754462619],[76.7515186122,9.1717211096],[76.7569569287,9.1681008965],[76.762265973,9.1698711911],[76.7681943137,9.1681250745],[76.7686717857,9.1512735332],[76.7657982822,9.1443401391],[76.7590355666,9.1428616635],[76.7527685584,9.1504278303],[76.7483000142,9.1517348503],[76.7462707782,9.1423737156],[76.7461654071,9.1420580191]]]]}},{"type":"Feature","properties":{"code":"M03061","name":"Pandalam","type":"Municipality","leading":"LDF","seats":{"LDF":14,"UDF":11,"NDA":9,"OTHERS":0}},"geometry":{"type":"MultiPolygon","coordinates":[[[[76.6561733033,9.2419465522],[76.6634652365,9.2378244415],[76.6686112491,9.2399270058],[76.6706260921,9.2313996603],[76.6727637051,9.232185113],[76.674661138,9.235963962],[76.6764891112,9.2337776058],[76.6856282993,9.2314610107],[76.6884795239,9.2337394932],[76.6946287014,9.2301890058],[76.6933997157,9.225866182],[76.6913653475,9.2257263453],[76.6911940436,9.2240809335],[76.6946428403,9.2214203668],[76.6953555532,9.2174454084],[76.6981530724,9.2161017904],[76.701865109,9.2097657908],[76.6978072452,9.2077230759],[76.6970664303,9.2044592307],[76.6996643303,9.2010099809],[76.6988174555,9.1998307126],[76.702281219,9.1975290999],[76.7034046762,9.1923774163],[76.7023155397,9.1887158294],[76.709007416,9.1859181062],[76.7082924565,9.1823069264],[76.7042455866,9.1798316893],[76.7022929315,9.1805807634],[76.702398723,9.1777158776],[76.7002415083,9.176181005],[76.6996322386,9.1777464512],[76.6921725898,9.1769750278],[76.6888797388,9.1796245292],[76.6833370316,9.17965236],[76.6779812458,9.18353569],[76.6788051657,9.1866424727],[76.6766045768,9.1893459124],[76.6770675504,9.1938771796],[76.6714264299,9.1952288803],[76.6681567641,9.200096704],[76.6603096458,9.2014151305],[76.6572113974,9.204627101],[76.6520029568,9.2040634604],[76.6475194939,9.2073965207],[76.6453259118,9.2149858965],[76.6451911251,9.2238140441],[76.6390040561,9.2341108397],[76.6426643065,9.2344599494],[76.6468547241,9.2374842842],[76.6490110109,9.2361717187],[76.6536133583,9.23733603],[76.6539693692,9.2404778874],[76.6560272657,9.2419477793],[76.6561733033,9.2419465522]]]]}},{"type":"Feature","properties":{"code":"M03009","name":"Pathanamthitta","type":"Municipality","leading":"UDF","seats":{"LDF":12,"UDF":17,"NDA":1,"OTHERS":3}},"geometry":{"type":"MultiPolygon","coordinates":[[[[76.7817607721,9.2459910065],[76.7822676223,9.244127371],[76.7791227848,9.2441065341],[76.7755997993,9.2479123425],[76.7731260226,9.2483994431],[76.7743790694,9.2502166364],[76.7717263219,9.2513004694],[76.7721593353,9.2551383413],[76.7759016189,9.2583640639],[76.7683079832,9.2639990897],[76.7665879175,9.2686970759],[76.7611987871,9.2720093018],[76.7613720353,9.2757072927],[76.7631152089,9.2766255213],[76.7615523014,9.2859684025],[76.7621972395,9.2878551405],[76.7656741962,9.2858733651],[76.7641783147,9.2886905278],[76.7653457715,9.2909207424],[76.7744072614,9.2918328744],[76.7771769764,9.2950554966],[76.78065803,9.2943583317],[76.7840182388,9.2996071289],[76.7866676982,9.3016585427],[76.7890530022,9.3014337895],[76.7907491556,9.297632033],[76.7893661416,9.2880099348],[76.7920977122,9.286398977],[76.7958206937,9.280434887],[76.7947044322,9.2726149565],[76.7997509361,9.2728040594],[76.8017903581,9.2782185322],[76.8110545264,9.2733945009],[76.8102592566,9.2792328333],[76.8128367628,9.2817509075],[76.8134101163,9.286069964],[76.8103758774,9.288939761],[76.8143153781,9.2912744906],[76.8189418075,9.2881680834],[76.8187246103,9.2861115633],[76.8222580208,9.28459944],[76.8224209978,9.2806339784],[76.8281724393,9.2726362064],[76.8258275376,9.2714115773],[76.8261493198,9.2617176246],[76.8229855892,9.262329736],[76.8200856325,9.2562709345],[76.8166889935,9.2550713627],[76.8083273631,9.262001619],[76.8054180418,9.2575684751],[76.7989282072,9.2612524526],[76.7983177748,9.2597580433],[76.8003320507,9.2599358525],[76.8012520325,9.2577085167],[76.7988109769,9.2521160235],[76.7959631175,9.255044332],[76.7889858058,9.2581296622],[76.787918343,9.2567812227],[76.7887764898,9.2523232608],[76.7842940488,9.2493291982],[76.785255138,9.246067754],[76.7824209797,9.2476768861],[76.7817152759,9.246104679],[76.7817607721,9.2459910065]]]]}},{"type":"Feature","properties":{"code":"M03010","name":"Thiruvalla","type":"Municipality","leading":"UDF","seats":{"LDF":11,"UDF":18,"NDA":7,"OTHERS":3}},"geometry":{"type":"MultiPolygon","coordinates":[[[[76.5625296944,9.3676290312],[76.5608470283,9.3637094658],[76.5543969345,9.3689478226],[76.5525330548,9.3687687549],[76.5531515564,9.3734596208],[76.551386805,9.3758794308],[76.5539172024,9.3786076739],[76.5491986813,9.3846576404],[76.5513820063,9.3857071494],[76.548112146,9.390238563],[76.5485817645,9.3926175171],[76.5534402655,9.3925094476],[76.5533209335,9.3941450118],[76.5552079298,9.3942035226],[76.5570179214,9.3908078302],[76.5599975077,9.3907202095],[76.5613736367,9.3923987952],[76.5603735532,9.3957059455],[76.5637958323,9.3949580957],[76.5633555709,9.3983419833],[76.559918753,9.3987972973],[76.5619593298,9.4034283503],[76.5654893747,9.4054768319],[76.5657081967,9.4084245113],[76.5637160945,9.4106231474],[76.5796396018,9.4226354341],[76.5834606662,9.4202553536],[76.5902680279,9.4196892522],[76.5940097163,9.4119425525],[76.5961536559,9.4110727612],[76.5978510071,9.3965912043],[76.5970064862,9.3912511271],[76.6028013773,9.3839259031],[76.5975527736,9.3717348169],[76.5904653266,9.3682817042],[76.589672886,9.3637918131],[76.5868296552,9.3609746815],[76.582320657,9.3632642635],[76.5755302282,9.3601751688],[76.5761795556,9.3682518564],[76.565906896,9.3665213665],[76.5627703645,9.3676812263],[76.5625296944,9.3676290312]]]]}}]}
