{"type":"FeatureCollection","features":[{"type":"Feature","properties":{"code":"C01001","name":"Thiruvananthapuram","type":"Corporation","leading":"NDA","seats":{"LDF":29,"UDF":19,"NDA":50,"OTHERS":2}},"geometry":{"type":"MultiPolygon","coordinates":[[[[76.8557854993,8.546548371],[76.86574428,8.5499101941],[76.8690351709,8.5529089977],[76.8678324516,8.5542829303],[76.8687381538,8.5557926686],[76.8713419539,8.5569282486],[76.8701711131,8.5609164925],[76.8678433904,8.5597438996],[76.8591958563,8.5706023165],[76.8577787846,8.5727407577],[76.8596925402,8.574066388],[76.8557315941,8.5790707314],[76.8589875468,8.5792215098],[76.8649918125,8.5851880576],[76.8661191084,8.5926213101],[76.8692945972,8.5963888413],[76.8818071212,8.606768615],[76.8861578544,8.6083155162],[76.8896238,8.6043585998],[76.8999393098,8.6038847698],[76.9066555469,8.5986702532],[76.9077625822,8.5971953083],[76.9068449702,8.5953357701],[76.9098960415,8.5955467895],[76.9120498134,8.5935331176],[76.9151774382,8.5962283455],[76.9121826644,8.5992495761],[76.9130541731,8.6051916391],[76.9176459089,8.6081062173],[76.9255097394,8.606031663],[76.9270865331,8.6039748748],[76.9276657023,8.5960080002],[76.9291729918,8.5946906991],[76.9277530401,8.5905952878],[76.9312066941,8.5884950944],[76.9349751025,8.5890059904],[76.9345156735,8.5858931175],[76.9417726012,8.5794856606],[76.9364495064,8.5749004433],[76.9368753375,8.573287182],[76.9419957427,8.5696219342],[76.9468845569,8.5702165577],[76.9520532852,8.5643304687],[76.9562899925,8.5620689573],[76.9626371388,8.5635997013],[76.968404879,8.5568352508],[76.9700838455,8.5484451914],[76.9767493315,8.5457811963],[76.9798555054,8.5474661263],[76.98273047,8.5462200138],[76.9870398331,8.5471016491],[76.9910339557,8.5529428962],[77.0021295321,8.5491437382],[77.0121247664,8.5509887734],[77.013069847,8.5445867746],[77.0114650912,8.5451742524],[77.0063835813,8.5385631306],[77.0142872897,8.5283290734],[77.012017265,8.5253494177],[77.0148747931,8.5207340807],[77.0109426703,8.5215992671],[77.0067341955,8.5183104389],[77.0067286251,8.5149032177],[77.0030822896,8.5091004589],[77.0064723375,8.5048326135],[77.0038266194,8.5023631491],[77.0030540844,8.4888179319],[77.0052820428,8.4874065591],[77.0052487638,8.4765727858],[77.0023659865,8.4714307124],[77.004504992,8.4687107344],[77.0067795344,8.4586346509],[77.0046570804,8.4557012887],[77.0069679363,8.4545333691],[77.0064426868,8.448705512],[77.0031427463,8.4483949036],[77.0036261648,8.4507564986],[76.9993130656,8.453709763],[76.988865234,8.4542836856],[76.9875552316,8.4514368351],[76.9817329556,8.4494905953],[76.980761141,8.4471777466],[76.9753167342,8.4493437244],[76.9776664108,8.4472100933],[76.9794898012,8.4417888557],[76.9717666649,8.4356160858],[76.9698766752,8.4316719963],[76.9736847918,8.4225358533],[76.9800522894,8.4204246578],[76.98729064,8.4238686899],[76.9918110595,8.4209049745],[76.9921226779,8.4176404743],[76.9902970318,8.416076909],[76.9854760144,8.4146652237],[76.9804979625,8.4169647409],[76.9799964241,8.4152117373],[76.9762762885,8.4149720194],[76.9757576462,8.4075478525],[76.9787803271,8.4007474902],[76.9821080408,8.3978314963],[76.9782068579,8.3933601878],[76.9826723778,8.3879903241],[76.9847539791,8.3874218105],[76.9862528316,8.3907993366],[76.9910400014,8.3895790036],[76.9915008686,8.3913157098],[76.9965184023,8.3909514971],[77.0072545363,8.4013931772],[77.0236681851,8.3938692277],[77.0129480157,8.3652913246],[77.0092533222,8.3649904106],[77.0066981506,8.3629722597],[76.9981734027,8.369098196],[76.9988871959,8.3658028941],[76.9938768604,8.3727532688],[76.9891925235,8.3674567849],[76.9911047547,8.3624805904],[76.9888517943,8.3670428596],[76.994696742,8.3753288381],[76.9909935998,8.3782959944],[76.9866184567,8.3759248384],[76.98407508,8.3805918301],[76.9790813481,8.3822885254],[76.9786643851,8.3851659006],[76.9758337847,8.3860782686],[76.9756022484,8.3887691195],[76.9711397936,8.3923093995],[76.9728159807,8.3978430998],[76.9692183197,8.4072041627],[76.9609139482,8.4205070731],[76.9370657058,8.4500415761],[76.8884025341,8.5052062624],[76.8559474745,8.5464502974],[76.8557854993,8.546548371]]]]}},{"type":"Feature","properties":{"code":"G01014","name":"Amboori","type":"Grama Panchayat","leading":"UDF","seats":{"LDF":6,"UDF":8,"NDA":0,"OTHERS":0}},"geometry":{"type":"MultiPolygon","coordinates":[[[[77.1929890082,8.475352896],[77.1893510828,8.4674387504],[77.1837732959,8.4712880828],[77.180377047,8.4760224818],[77.1776042468,8.4767678227],[77.1761563566,8.4818669791],[77.1795726272,8.4836286136],[77.1742074939,8.4872315708],[77.1659018047,8.4985678413],[77.1654519949,8.5033940885],[77.1579431651,8.5076524689],[77.1489991034,8.5086377422],[77.1473338981,8.5145241635],[77.1535747397,8.5155621126],[77.1564067091,8.5200687743],[77.160792455,8.5145675243],[77.1662599441,8.5122101213],[77.17150314,8.5151629551],[77.1743700459,8.5130959325],[77.1766687561,8.5133655955],[77.1683868672,8.5241096303],[77.1637284782,8.5250127642],[77.161443238,8.5272724302],[77.1674243853,8.5365997556],[77.1690384081,8.5366328178],[77.1696723429,8.5337088753],[77.1735338204,8.5322491583],[77.1760807167,8.5289506446],[77.1816294386,8.5283419149],[77.1866513579,8.5218358426],[77.1819603699,8.5239264367],[77.180832032,8.5219840974],[77.1896580704,8.5180353778],[77.1904267381,8.5191165329],[77.1866175651,8.523424229],[77.1885819372,8.5245053688],[77.1890496486,8.5222693678],[77.1899655376,8.5239985857],[77.1907259552,8.5215717237],[77.1911612429,8.5233566577],[77.1923569472,8.5220728003],[77.1917880424,8.5168896527],[77.1937268592,8.5151117994],[77.198390507,8.5116120003],[77.2014173561,8.5138672569],[77.2063904681,8.5125421325],[77.2107108903,8.5070225642],[77.2022030074,8.501358998],[77.2040273492,8.4966367705],[77.2115111033,8.4925608749],[77.2138459244,8.4854286188],[77.2117912825,8.4844389324],[77.2113214734,8.4780495173],[77.2145738868,8.4703798289],[77.2115210495,8.4665218936],[77.2022055793,8.4727467836],[77.2031946666,8.47522277],[77.2016718776,8.4759142567],[77.1983324839,8.4723418817],[77.1930817197,8.4754295456],[77.1929890082,8.475352896]]]]}},{"type":"Feature","properties":{"code":"G01043","name":"Anadu","type":"Grama Panchayat","leading":"LDF","seats":{"LDF":11,"UDF":6,"NDA":2,"OTHERS":1}},"geometry":{"type":"MultiPolygon","coordinates":[[[[76.996299857,8.613684654],[76.996299857,8.613684654],[76.996299857,8.613684654]]]]}},{"type":"Feature","properties":{"code":"G01027","name":"Andoorkonam","type":"Grama Panchayat","leading":"UDF","seats":{"LDF":7,"UDF":8,"NDA":4,"OTHERS":1}},"geometry":{"type":"MultiPolygon","coordinates":[[[[76.8596123036,8.5798066201],[76.8596123036,8.5798066201],[76.8596123036,8.5798066201]],[[76.8528709549,8.6153667339],[76.8528709549,8.6153667339],[76.8528709549,8.6153667339]]]]}},{"type":"Feature","properties":{"code":"G01061","name":"Anchuthengu","type":"Grama Panchayat","leading":"TIE","seats":{"LDF":7,"UDF":7,"NDA":0,"OTHERS":0}},"geometry":{"type":"MultiPolygon","coordinates":[[[[76.7354029733,8.6963054336],[76.7461447139,8.7012584839],[76.7451826569,8.7052102581],[76.747405574,8.7035976642],[76.7488103037,8.704423841],[76.7494668976,8.701080703],[76.7523833555,8.7019205255],[76.7507604959,8.6981989237],[76.7515250996,8.6958693958],[76.7499824884,8.696821269],[76.7476264005,8.6954881082],[76.7467165751,8.690459617],[76.7493713627,8.6858854564],[76.7605637154,8.6793224849],[76.7624029728,8.676302892],[76.7625612047,8.6714628847],[76.7604113144,8.6691001872],[76.7656477151,8.663456308],[76.7697313696,8.656372834],[76.7687581474,8.6555971421],[76.7362156665,8.6952945921],[76.7354029733,8.6963054336]]]]}},{"type":"Feature","properties":{"code":"G01041","name":"Aruvikkara","type":"Grama Panchayat","leading":"LDF","seats":{"LDF":11,"UDF":6,"NDA":3,"OTHERS":1}},"geometry":{"type":"MultiPolygon","coordinates":[[[[77.0108212345,8.5507192275],[77.0108212345,8.5507192275],[77.0108212345,8.5507192275]]]]}},{"type":"Feature","properties":{"code":"G01035","name":"Aryanad","type":"Grama Panchayat","leading":"UDF","seats":{"LDF":7,"UDF":11,"NDA":0,"OTHERS":0}},"geometry":{"type":"MultiPolygon","coordinates":[[[[77.0928191231,8.5566362414],[77.0928191231,8.5566362414],[77.0928191231,8.5566362414]]]]}},{"type":"Feature","properties":{"code":"G01011","name":"Aryankode","type":"Grama Panchayat","leading":"LDF","seats":{"LDF":8,"UDF":5,"NDA":3,"OTHERS":1}},"geometry":{"type":"MultiPolygon","coordinates":[[[[77.1407964123,8.44814304],[77.1387761371,8.4526623888],[77.1342446998,8.4556167627],[77.1312337167,8.4554195133],[77.1301896039,8.4537287345],[77.1274223509,8.4559502471],[77.1233242483,8.4546517208],[77.119622803,8.4572204884],[77.1155119506,8.4577791761],[77.1034184924,8.4543445568],[77.0976987097,8.4554977582],[77.0897653881,8.4677472001],[77.0949223487,8.468315507],[77.0991799032,8.4710424689],[77.1019094818,8.4685519495],[77.10394072,8.4699798105],[77.1096983945,8.4694246972],[77.1122435867,8.4714555997],[77.1145840079,8.4709991768],[77.1139430753,8.4744871312],[77.1248670904,8.4735006046],[77.1260167678,8.4761310294],[77.1321184306,8.4775362667],[77.1336757293,8.4766319628],[77.135613257,8.47877845],[77.1374350611,8.4771819852],[77.1419372978,8.4833500725],[77.1435815798,8.4801123988],[77.1455823361,8.4809979638],[77.1497826158,8.4876433897],[77.1527972693,8.4850181694],[77.1552038237,8.4867069404],[77.1630453238,8.4835898854],[77.1675352518,8.4841260108],[77.1760903304,8.4782549622],[77.1771434093,8.4769980965],[77.1714958035,8.4745122742],[77.1716608465,8.4730509386],[77.1637023713,8.4715548867],[77.1644834529,8.4648411302],[77.1595135406,8.4608941203],[77.1596543525,8.4531581325],[77.1536475526,8.4487739547],[77.1547209136,8.4412017483],[77.153384525,8.439001851],[77.1488129958,8.4386203609],[77.1413002216,8.4476046741],[77.1407964123,8.44814304]]]]}},{"type":"Feature","properties":{"code":"G01015","name":"Athiyannoor","type":"Grama Panchayat","leading":"NDA","seats":{"LDF":7,"UDF":2,"NDA":8,"OTHERS":1}},"geometry":{"type":"MultiPolygon","coordinates":[[[[77.0595225901,8.3696532789],[77.0546438838,8.3693398965],[77.0526405882,8.3700954967],[77.0523559933,8.3724485319],[77.0412066664,8.3754916668],[77.04567248,8.3806754998],[77.0484012061,8.3917112755],[77.0509439351,8.3911161863],[77.055106005,8.3951177871],[77.0519392748,8.4010022364],[77.0508346703,8.4123793523],[77.0521349404,8.4163011799],[77.0555796058,8.4160213583],[77.0570846045,8.410426343],[77.0572974119,8.4129417341],[77.0590885646,8.4134191826],[77.0587828229,8.4099141918],[77.0641389398,8.4071123666],[77.068097888,8.4060293267],[77.0689239752,8.4084983154],[77.0722653972,8.4094635338],[77.0749046322,8.407411866],[77.0740994058,8.3984697259],[77.0716558984,8.3928579076],[77.0804678161,8.3748488703],[77.0649880193,8.3730578606],[77.0629220056,8.3699713865],[77.0603343257,8.3696417234],[77.0595225901,8.3696532789]],[[77.0545673675,8.3853714002],[77.0545673675,8.3853714002],[77.0545673675,8.3853714002]]]]}},{"type":"Feature","properties":{"code":"G01031","name":"Azhoor","type":"Grama Panchayat","leading":"NDA","seats":{"LDF":4,"UDF":5,"NDA":9,"OTHERS":0}},"geometry":{"type":"MultiPolygon","coordinates":[[[[76.8052997914,8.6213868692],[76.8018997282,8.6194235964],[76.7914752842,8.6314186521],[76.7948992506,8.637934964],[76.7923727658,8.6412375716],[76.7952338129,8.6461524293],[76.7967771248,8.6457329932],[76.7982372016,8.6530144849],[76.8076279461,8.6545507163],[76.8085741173,8.6505384322],[76.8098442633,8.6504512389],[76.8175113267,8.652087774],[76.8227331913,8.6580217605],[76.8259944234,8.6552765791],[76.8247896649,8.6475309199],[76.8218056484,8.644768581],[76.8229960132,8.6421057628],[76.8258683808,8.6397967421],[76.8356493768,8.6382180203],[76.8316446379,8.6289045372],[76.8254453812,8.6296447209],[76.8218715506,8.620981412],[76.8224583778,8.6176682507],[76.8172188608,8.6216499557],[76.8127517209,8.6204516501],[76.808699903,8.6234839927],[76.8056131642,8.6216092648],[76.8052997914,8.6213868692]]]]}},{"type":"Feature","properties":{"code":"G01021","name":"Balaramapuram","type":"Grama Panchayat","leading":"LDF","seats":{"LDF":9,"UDF":8,"NDA":4,"OTHERS":1}},"geometry":{"type":"MultiPolygon","coordinates":[[[[77.0440909232,8.3994581061],[77.0425239011,8.3974621664],[77.0383222092,8.4021666608],[77.0367297415,8.3993092202],[77.0303106868,8.4012584337],[77.0391554416,8.4122401648],[77.0383252258,8.4141277052],[77.0281306948,8.4186180664],[77.0329032795,8.4220785177],[77.0367649968,8.4282762961],[77.0444149491,8.4267013053],[77.0451828146,8.4298527938],[77.0466848975,8.4289679932],[77.0482663304,8.4308152247],[77.0496097375,8.4350748198],[77.0478070361,8.4346083314],[77.044601557,8.4400785332],[77.0457178279,8.4428640239],[77.0498392139,8.4418271936],[77.0498477129,8.4477403257],[77.0554654228,8.4431618829],[77.0556991114,8.4404996625],[77.0608211372,8.4394593132],[77.0600380281,8.4342067795],[77.0632405886,8.4319383576],[77.0630704072,8.4293204893],[77.0670649278,8.4275154422],[77.0682882743,8.4238306425],[77.0716692662,8.4219286568],[77.0737190932,8.4129737077],[77.0715463731,8.4153562627],[77.0676491616,8.4145727353],[77.0645659459,8.4210670153],[77.0624488485,8.4201003152],[77.0589744317,8.4218603793],[77.0519317163,8.420581655],[77.0508182465,8.4174476505],[77.0519392748,8.4010022364],[77.0444348279,8.399681633],[77.0440909232,8.3994581061]]]]}},{"type":"Feature","properties":{"code":"G01071","name":"Chemmaruthy","type":"Grama Panchayat","leading":"TIE","seats":{"LDF":9,"UDF":9,"NDA":1,"OTHERS":1}},"geometry":{"type":"MultiPolygon","coordinates":[[[[76.7432375743,8.7382060706],[76.7432375743,8.7382060706],[76.7432375743,8.7382060706]]]]}},{"type":"Feature","properties":{"code":"G01004","name":"Chenkal","type":"Grama Panchayat","leading":"UDF","seats":{"LDF":8,"UDF":13,"NDA":1,"OTHERS":0}},"geometry":{"type":"MultiPolygon","coordinates":[[[[77.1027205051,8.3472214726],[77.0916347636,8.3514738005],[77.0882126494,8.3505957326],[77.0892638535,8.3532308743],[77.0829417863,8.3608173384],[77.0848439662,8.3672737382],[77.0871310599,8.36505986],[77.0882817317,8.3684392075],[77.0863425665,8.3762877963],[77.0896780523,8.3836430205],[77.0987386983,8.3856469879],[77.1063846064,8.3844230554],[77.1105469036,8.3863465177],[77.1148090512,8.3860624673],[77.1298498297,8.3717905952],[77.1314291685,8.3596936016],[77.1297552128,8.3556388964],[77.1338550654,8.3543607445],[77.1373484428,8.3503672999],[77.1335187334,8.3456405307],[77.1298449159,8.3480405569],[77.1262961115,8.3446244112],[77.1206769733,8.34568616],[77.1145967164,8.3445806366],[77.1139345772,8.3424931286],[77.1119385099,8.3424319892],[77.1028484907,8.3470790683],[77.1027205051,8.3472214726]]]]}},{"type":"Feature","properties":{"code":"G01068","name":"Cherunniyoor","type":"Grama Panchayat","leading":"LDF","seats":{"LDF":9,"UDF":2,"NDA":4,"OTHERS":0}},"geometry":{"type":"MultiPolygon","coordinates":[[[[76.7625288762,8.7042913676],[76.7625288762,8.7042913676],[76.7625288762,8.7042913676]]]]}},{"type":"Feature","properties":{"code":"G01063","name":"Chirayinkeezhu","type":"Grama Panchayat","leading":"LDF","seats":{"LDF":12,"UDF":5,"NDA":2,"OTHERS":0}},"geometry":{"type":"MultiPolygon","coordinates":[[[[76.7687581474,8.6555971421],[76.7729197627,8.6594380725],[76.7695209788,8.6654880641],[76.7725002369,8.6729373893],[76.7737898341,8.6727741616],[76.7733437029,8.6758996368],[76.7751499499,8.6763191768],[76.77518139,8.6877692399],[76.7804063942,8.6896066504],[76.7868100185,8.6861873513],[76.7875762096,8.6773203367],[76.7819036522,8.6736894004],[76.7782894603,8.669064737],[76.7814885946,8.6659047101],[76.7909009567,8.6659483914],[76.7925982879,8.6631667138],[76.7915466517,8.6598342319],[76.7946751371,8.6575000708],[76.7943956685,8.654541411],[76.7972633209,8.6545418088],[76.7982372016,8.6530144849],[76.7967771248,8.6457329932],[76.7952338129,8.6461524293],[76.7923727658,8.6412375716],[76.7948992506,8.637934964],[76.7914752842,8.6314186521],[76.8018886966,8.6193355591],[76.798647879,8.6166255105],[76.7842415824,8.6319016594],[76.7859323214,8.633487748],[76.7686456801,8.6552266199],[76.7687581474,8.6555971421]]]]}},{"type":"Feature","properties":{"code":"G01069","name":"Edava","type":"Grama Panchayat","leading":"LDF","seats":{"LDF":10,"UDF":6,"NDA":1,"OTHERS":1}},"geometry":{"type":"MultiPolygon","coordinates":[[[[76.6906574039,8.7794346481],[76.6943299593,8.7772503677],[76.6965225825,8.7798409751],[76.6994206392,8.7786603746],[76.7021090894,8.7802117609],[76.7083870699,8.7756087403],[76.7104985025,8.7716892722],[76.7079611526,8.7657729814],[76.7107107439,8.7590257312],[76.710033495,8.75139765],[76.7048293327,8.7521780629],[76.7006256627,8.75026311],[76.7011018597,8.7471389009],[76.6968364422,8.7455799141],[76.6731667696,8.7814652028],[76.677559455,8.7887740779],[76.6826041547,8.7796157439],[76.6824657818,8.7765939066],[76.6840188692,8.7766643861],[76.685064987,8.7795432976],[76.6902045092,8.7792478171],[76.6906574039,8.7794346481]]]]}},{"type":"Feature","properties":{"code":"G01070","name":"Elakamon","type":"Grama Panchayat","leading":"LDF","seats":{"LDF":10,"UDF":6,"NDA":1,"OTHERS":1}},"geometry":{"type":"MultiPolygon","coordinates":[[[[76.7261534142,8.7634894192],[76.7262584471,8.7619306234],[76.7246587146,8.7622989917],[76.7183167084,8.7699746154],[76.7098513203,8.7694285889],[76.7104985025,8.7716892722],[76.7083870699,8.7756087403],[76.7021090894,8.7802117609],[76.6994206392,8.7786603746],[76.6965225825,8.7798409751],[76.6943299593,8.7772503677],[76.6906574039,8.7794346481],[76.6934183418,8.79179444],[76.6951317982,8.7907025029],[76.709842594,8.7916984598],[76.7090885284,8.7950596445],[76.7146643651,8.7963604597],[76.7203741343,8.8032915896],[76.7233757695,8.8032394904],[76.7285098938,8.7997687412],[76.7376528515,8.7982055348],[76.7443287687,8.7946440553],[76.749883327,8.796245007],[76.7584538198,8.7952608944],[76.7607821892,8.7913189206],[76.7583084167,8.7874525563],[76.7538875988,8.784111037],[76.7453322515,8.7823004815],[76.7353209059,8.7710128708],[76.73638688,8.7691124898],[76.7351760992,8.7657480043],[76.7284576415,8.7669769841],[76.7259011745,8.7636351091],[76.7261534142,8.7634894192]]]]}},{"type":"Feature","properties":{"code":"G01066","name":"Kadakkavoor","type":"Grama Panchayat","leading":"LDF","seats":{"LDF":9,"UDF":4,"NDA":4,"OTHERS":0}},"geometry":{"type":"MultiPolygon","coordinates":[[[[76.7698261229,8.6667530706],[76.7698261229,8.6667530706],[76.7698261229,8.6667530706]]]]}},{"type":"Feature","properties":{"code":"G01028","name":"Kadinamkulam","type":"Grama Panchayat","leading":"UDF","seats":{"LDF":7,"UDF":13,"NDA":1,"OTHERS":3}},"geometry":{"type":"MultiPolygon","coordinates":[[[[76.8006607915,8.6181991481],[76.808699903,8.6234839927],[76.8127517209,8.6204516501],[76.817601611,8.6215591137],[76.8224583778,8.6176682507],[76.8218715506,8.620981412],[76.8254453812,8.6296447209],[76.8273929548,8.6301077224],[76.8227998553,8.6197774047],[76.8248467008,8.6161802774],[76.8216492885,8.6138123493],[76.822504782,8.6085671357],[76.8274439629,8.6043385708],[76.8279001984,8.6008660339],[76.8308587674,8.5978781821],[76.8322323256,8.5986061256],[76.8296285237,8.6034674044],[76.8304859271,8.6080023908],[76.8318505919,8.6084041839],[76.8374488946,8.6034309355],[76.8357678116,8.6028934811],[76.8318542526,8.6054174104],[76.8357529301,8.6010165273],[76.8366033625,8.5977021333],[76.8403562974,8.595067437],[76.8397655787,8.5924306119],[76.8412040789,8.5923828259],[76.843707415,8.5878683566],[76.8477964383,8.5870615678],[76.8541882633,8.5810151638],[76.8596925402,8.574066388],[76.8577787846,8.5727407577],[76.8627229277,8.5659300306],[76.8678433904,8.5597438996],[76.8701711131,8.5609164925],[76.8710283915,8.5596190886],[76.8713419539,8.5569282486],[76.8678324516,8.5542829303],[76.8690351709,8.5529089977],[76.8651970461,8.5496181611],[76.8557854993,8.546548371],[76.7988376014,8.6164736892],[76.7998411184,8.6172203188],[76.8006607915,8.6181991481]]]]}},{"type":"Feature","properties":{"code":"G01051","name":"Kallara","type":"Grama Panchayat","leading":"UDF","seats":{"LDF":3,"UDF":11,"NDA":4,"OTHERS":0}},"geometry":{"type":"MultiPolygon","coordinates":[[[[76.9538670143,8.7018326764],[76.9501791758,8.7021070259],[76.9487654189,8.6995748497],[76.9464269425,8.7012889468],[76.9471210923,8.7047024881],[76.9430259415,8.7229617548],[76.9382050005,8.7257329857],[76.9398923519,8.7392642953],[76.9314738639,8.7481302494],[76.9296341914,8.7476320344],[76.9271548861,8.7522672311],[76.9322525743,8.7554288079],[76.9315617344,8.7586082257],[76.9328122701,8.7608702355],[76.9498859163,8.7563695711],[76.9511502699,8.7537778021],[76.9590569688,8.750201133],[76.9624917896,8.7508372369],[76.9649126514,8.7534956508],[76.9689902832,8.7524491676],[76.9742364732,8.741787867],[76.9849314727,8.7338976127],[76.9868216404,8.7302336465],[76.9860472225,8.7265388211],[76.982362627,8.723730742],[76.9853025264,8.7166902318],[76.9848203314,8.7135370777],[76.9791182284,8.71204586],[76.9779667463,8.7052658643],[76.9754585395,8.7046748856],[76.9778447623,8.700234923],[76.9742351222,8.7017977585],[76.9690133834,8.6997443065],[76.968381742,8.6972888426],[76.964341136,8.6973471335],[76.9539759547,8.7019057647],[76.9538670143,8.7018326764]],[[76.9500166894,8.7546496008],[76.9500172536,8.7545603334],[76.9500166894,8.7546496008]]]]}},{"type":"Feature","properties":{"code":"G01013","name":"Kallikkadu","type":"Grama Panchayat","leading":"LDF","seats":{"LDF":8,"UDF":5,"NDA":1,"OTHERS":0}},"geometry":{"type":"MultiPolygon","coordinates":[[[[77.126084737,8.5127545117],[77.1258173489,8.5157304302],[77.1228737189,8.5174669431],[77.1251695181,8.5208128534],[77.1252704798,8.524809298],[77.126782834,8.5254106801],[77.1187265296,8.5389625586],[77.1158032437,8.5530765678],[77.1212299959,8.5492122034],[77.1291894044,8.555237081],[77.1299798348,8.5536924055],[77.1326064449,8.555084099],[77.1457802475,8.5550677908],[77.1524615887,8.5499133157],[77.1557682001,8.551783458],[77.1551227911,8.5536468256],[77.1568979708,8.5539314274],[77.1583016325,8.5570060402],[77.1575419901,8.5547956898],[77.1609035829,8.554078133],[77.160141684,8.5577221355],[77.1618642925,8.5571974197],[77.1620441352,8.5587488793],[77.1623296917,8.5559958918],[77.1650139853,8.5551260686],[77.1623403071,8.5543604879],[77.1640246186,8.5544203972],[77.1648883586,8.5523954806],[77.1617960044,8.5525329855],[77.1632379612,8.5494774065],[77.1615094391,8.549658447],[77.1628128676,8.5478059802],[77.1642479541,8.5473817217],[77.1649906426,8.5488489938],[77.1648697931,8.5470692327],[77.1672654931,8.546784823],[77.1643733095,8.5454210065],[77.1677490823,8.5435090096],[77.1673654849,8.5383863045],[77.1703457825,8.5388537373],[77.1707409485,8.5411089008],[77.1726449474,8.5399574926],[77.1703394247,8.5433884763],[77.1733574104,8.543517424],[77.1689043999,8.5458228717],[77.1716620873,8.5469149108],[77.1752291091,8.5447398547],[77.1749192775,8.5462945881],[77.1780499047,8.546957201],[77.1773514981,8.5495474813],[77.1755806087,8.548057796],[77.175799403,8.5498943416],[77.1668663731,8.553031408],[77.1710345321,8.5532513357],[77.1678407638,8.556684067],[77.1696421715,8.556488463],[77.1678393552,8.5579253997],[77.1710622261,8.5571231236],[77.1690288059,8.5593794621],[77.1721976043,8.5579646091],[77.1710851805,8.5554116822],[77.1727723591,8.5550097645],[77.1730059695,8.5519492509],[77.1749552434,8.5530611094],[77.1753794892,8.5571337878],[77.1773668299,8.5556859894],[77.1756299214,8.5537601396],[77.1763220981,8.551136718],[77.1806278786,8.551635395],[77.1792631214,8.5548193704],[77.1815251541,8.5530034756],[77.1822215021,8.5558399082],[77.1832148191,8.5553116927],[77.1844754581,8.5541979232],[77.1825229829,8.5539447009],[77.1822230874,8.5522970643],[77.1858013874,8.5525449438],[77.1817642473,8.5504983229],[77.189353436,8.5485339441],[77.1878521745,8.5477305304],[77.1894313927,8.5468821682],[77.1880191837,8.5459933164],[77.1888900369,8.5452775049],[77.1939009597,8.5478800562],[77.1909778393,8.5530154043],[77.1943428428,8.5516011492],[77.2031359211,8.5663942124],[77.2233503883,8.5642623509],[77.2331166835,8.5653478702],[77.2515661032,8.5691603621],[77.252109809,8.5758833395],[77.2589399342,8.577899747],[77.2734029006,8.5647831453],[77.2740249036,8.5581507458],[77.2820095857,8.5501401717],[77.2822952887,8.545859114],[77.2741801519,8.538232188],[77.2737849155,8.5339710347],[77.2708528114,8.5306582303],[77.266465187,8.5204086698],[77.2659470579,8.5152470279],[77.2614666475,8.506610259],[77.2513916235,8.5058040982],[77.2460832473,8.5026634031],[77.2439218704,8.4979539744],[77.2402835708,8.4975606374],[77.2321365587,8.5075120036],[77.2229998351,8.5128204068],[77.2150261021,8.5130631663],[77.2107351642,8.5072961809],[77.205009812,8.5147461959],[77.2029813993,8.5204101115],[77.2051162419,8.522141326],[77.2015466379,8.5287596253],[77.2038314005,8.5354930462],[77.1961357855,8.5420760672],[77.1970321714,8.5475941258],[77.1942311799,8.5475882187],[77.1899665292,8.544119411],[77.1902611528,8.5407107583],[77.1887240497,8.5390573859],[77.1891800092,8.5442069151],[77.1850417398,8.5481986862],[77.1802505211,8.5496332809],[77.1742684077,8.543503346],[77.1731256868,8.537551524],[77.1769649462,8.5313089453],[77.1839181303,8.5300465088],[77.1864904748,8.5338908145],[77.1854915873,8.530310201],[77.1797998729,8.5296014085],[77.1803506877,8.5278114703],[77.1788543877,8.5280974947],[77.1802629385,8.5264971305],[77.1787569628,8.5266468278],[77.1674973092,8.5367260528],[77.1613666757,8.5282012569],[77.1635137718,8.5251347952],[77.1683868672,8.5241096303],[77.1748264619,8.5167667982],[77.178343817,8.5152518973],[77.1793974706,8.5126785199],[77.1767185646,8.5107447822],[77.17150314,8.5151629551],[77.1675435881,8.5140593182],[77.1664803961,8.5122402148],[77.1621660339,8.5136567769],[77.1565637472,8.5200672436],[77.1535747397,8.5155621126],[77.1473338981,8.5145241635],[77.1447415561,8.5161845122],[77.1438784305,8.5128386431],[77.1369357703,8.5129449655],[77.1361059434,8.5164278264],[77.1324924612,8.5162427306],[77.1300486259,8.5129197646],[77.1265458485,8.5124460189],[77.126084737,8.5127545117]]]]}},{"type":"Feature","properties":{"code":"G01026","name":"Kalliyoor","type":"Grama Panchayat","leading":"NDA","seats":{"LDF":8,"UDF":5,"NDA":10,"OTHERS":1}},"geometry":{"type":"MultiPolygon","coordinates":[[[[76.9925340461,8.4173537249],[76.9917157222,8.4211268788],[76.98729064,8.4238686899],[76.9800522894,8.4204246578],[76.9730706037,8.4233800736],[76.9701169484,8.4334300242],[76.9794898012,8.4417888557],[76.9776664108,8.4472100933],[76.9753167342,8.4493437244],[76.980761141,8.4471777466],[76.9817329556,8.4494905953],[76.9875552316,8.4514368351],[76.988865234,8.4542836856],[76.9993130656,8.453709763],[77.0036261648,8.4507564986],[77.0031427463,8.4483949036],[77.0048334269,8.4480327758],[77.0064426868,8.448705512],[77.007044046,8.4520246866],[77.0109172186,8.4493146452],[77.0084136058,8.4429050745],[77.0136775025,8.4409078251],[77.0168919046,8.44398046],[77.0242330691,8.4313838702],[77.0204353101,8.4175002019],[77.0175498972,8.4130566151],[77.0030853484,8.4196894042],[76.9925585055,8.4172367116],[76.9925340461,8.4173537249]]]]}},{"type":"Feature","properties":{"code":"G01016","name":"Kanjiramkulam","type":"Grama Panchayat","leading":"UDF","seats":{"LDF":4,"UDF":11,"NDA":0,"OTHERS":0}},"geometry":{"type":"MultiPolygon","coordinates":[[[[77.045799288,8.3452448276],[77.045799288,8.3452448276],[77.045799288,8.3452448276]]]]}},{"type":"Feature","properties":{"code":"G01040","name":"Karakulam","type":"Grama Panchayat","leading":"LDF","seats":{"LDF":15,"UDF":8,"NDA":0,"OTHERS":1}},"geometry":{"type":"MultiPolygon","coordinates":[[[[76.9741546457,8.5471850668],[76.9741546457,8.5471850668],[76.9741546457,8.5471850668]]]]}},{"type":"Feature","properties":{"code":"G01054","name":"Karavaram","type":"Grama Panchayat","leading":"LDF","seats":{"LDF":13,"UDF":2,"NDA":1,"OTHERS":4}},"geometry":{"type":"MultiPolygon","coordinates":[[[[76.8192805174,8.7123987243],[76.8192805174,8.7123987243],[76.8192805174,8.7123987243]]]]}},{"type":"Feature","properties":{"code":"G01002","name":"Karode","type":"Grama Panchayat","leading":"UDF","seats":{"LDF":7,"UDF":9,"NDA":2,"OTHERS":2}},"geometry":{"type":"MultiPolygon","coordinates":[[[[77.0972947553,8.2957499945],[77.0928365684,8.2992257029],[77.094768001,8.3076710051],[77.0965575672,8.3083613848],[77.0965124179,8.3153377825],[77.1023013532,8.3207740094],[77.103423249,8.3269425564],[77.1115174497,8.3263544952],[77.1099212531,8.3319136806],[77.1113208274,8.3386523025],[77.1145967164,8.3445806366],[77.1206769733,8.34568616],[77.1262961115,8.3446244112],[77.1298449159,8.3480405569],[77.1335187334,8.3456405307],[77.1376661805,8.3505919108],[77.1419753675,8.3505061576],[77.1441697793,8.346758904],[77.1399422492,8.3422529295],[77.1397957107,8.3357688849],[77.1454643235,8.3351695825],[77.147451458,8.3314945526],[77.1449662849,8.3290344015],[77.1398533384,8.3294500736],[77.1356127504,8.3260033652],[77.1291067406,8.3255390213],[77.1294488765,8.3218303227],[77.1200789657,8.3216138487],[77.1189649793,8.3181144273],[77.1207607053,8.3157616894],[77.119990222,8.3141294968],[77.1242278986,8.3117275098],[77.122745461,8.3088011055],[77.1165714182,8.3103520498],[77.1145058114,8.3087899215],[77.1135525453,8.3043235121],[77.1016956612,8.306441918],[77.1013737068,8.3002718581],[77.0981576563,8.2972326046],[77.0972947553,8.2957499945]]]]}},{"type":"Feature","properties":{"code":"G01017","name":"Karumkulam","type":"Grama Panchayat","leading":"UDF","seats":{"LDF":6,"UDF":11,"NDA":0,"OTHERS":2}},"geometry":{"type":"MultiPolygon","coordinates":[[[[77.0303336127,8.3495485084],[77.0319791188,8.3504843546],[77.0406419315,8.3454505002],[77.0463100746,8.3451304332],[77.0472963726,8.342726162],[77.0505346088,8.3410785267],[77.0615819294,8.3389460631],[77.0607530907,8.3355080919],[77.0643181833,8.3331607471],[77.0649420265,8.3283268857],[77.0630320123,8.3212463905],[77.0610705984,8.3200144065],[77.0288237693,8.3457974043],[77.0301641168,8.3492945578],[77.0303336127,8.3495485084]]]]}},{"type":"Feature","properties":{"code":"G01032","name":"Kattakada","type":"Grama Panchayat","leading":"LDF","seats":{"LDF":16,"UDF":4,"NDA":4,"OTHERS":0}},"geometry":{"type":"MultiPolygon","coordinates":[[[[77.089334418,8.4890142792],[77.089334418,8.4890142792],[77.089334418,8.4890142792]]]]}},{"type":"Feature","properties":{"code":"G01057","name":"Kilimanoor","type":"Grama Panchayat","leading":"LDF","seats":{"LDF":9,"UDF":5,"NDA":2,"OTHERS":0}},"geometry":{"type":"MultiPolygon","coordinates":[[[[76.8535526361,8.7678153602],[76.8535526361,8.7678153602],[76.8535526361,8.7678153602]]]]}},{"type":"Feature","properties":{"code":"G01064","name":"Kizhuvilam","type":"Grama Panchayat","leading":"UDF","seats":{"LDF":6,"UDF":11,"NDA":2,"OTHERS":2}},"geometry":{"type":"MultiPolygon","coordinates":[[[[76.8150759096,8.6519936299],[76.8150759096,8.6519936299],[76.8150759096,8.6519936299]]]]}},{"type":"Feature","properties":{"code":"G01009","name":"Kollayil","type":"Grama Panchayat","leading":"LDF","seats":{"LDF":10,"UDF":4,"NDA":4,"OTHERS":0}},"geometry":{"type":"MultiPolygon","coordinates":[[[[77.1238338535,8.3768495068],[77.1238338535,8.3768495068],[77.1238338535,8.3768495068]]]]}},{"type":"Feature","properties":{"code":"G01018","name":"Kottukal","type":"Grama Panchayat","leading":"UDF","seats":{"LDF":9,"UDF":11,"NDA":1,"OTHERS":0}},"geometry":{"type":"MultiPolygon","coordinates":[[[[77.0066981506,8.3629722597],[77.0092533222,8.3649904106],[77.0129480157,8.3652913246],[77.0235976584,8.39475824],[77.0301873149,8.401230292],[77.0367297415,8.3993092202],[77.0383222092,8.4021666608],[77.0425239011,8.3974621664],[77.0446689819,8.3999228035],[77.0499655943,8.399641414],[77.0510145885,8.4012342902],[77.0552819068,8.3959955786],[77.0509439351,8.3911161863],[77.0484012061,8.3917112755],[77.04567248,8.3806754998],[77.0412066664,8.3754916668],[77.0428616668,8.374865],[77.0414800156,8.372512356],[77.0350366669,8.3749200003],[77.0355253019,8.371856827],[77.0382259458,8.3708586973],[77.0361611007,8.3678283563],[77.0374501113,8.3666672649],[77.0346864416,8.3658374054],[77.0337203561,8.3576795705],[77.0289866671,8.3475416667],[77.0146849146,8.3559291975],[77.0097374665,8.3568101713],[77.0067963949,8.3626529448],[77.0066981506,8.3629722597]]]]}},{"type":"Feature","properties":{"code":"G01003","name":"Kulathoor","type":"Grama Panchayat","leading":"UDF","seats":{"LDF":6,"UDF":13,"NDA":0,"OTHERS":2}},"geometry":{"type":"MultiPolygon","coordinates":[[[[77.0931400426,8.3007899368],[77.0931400426,8.3007899368],[77.0931400426,8.3007899368]]]]}},{"type":"Feature","properties":{"code":"G01008","name":"Kunnathukal","type":"Grama Panchayat","leading":"TIE","seats":{"LDF":10,"UDF":10,"NDA":3,"OTHERS":0}},"geometry":{"type":"MultiPolygon","coordinates":[[[[77.1561309704,8.3932684924],[77.1494795943,8.3975543105],[77.1451555204,8.398029422],[77.1454889086,8.4034796586],[77.1432777783,8.4099590769],[77.1445681543,8.4134899421],[77.1405920249,8.4166773992],[77.1375484339,8.4270816555],[77.1333106818,8.4309125806],[77.1305876996,8.4308898696],[77.1288596482,8.4371252924],[77.1267930128,8.4373104263],[77.1235790563,8.4410712322],[77.1253299779,8.4478927224],[77.1228585526,8.4530239063],[77.1250906164,8.4548704354],[77.1274223509,8.4559502471],[77.1301896039,8.4537287345],[77.1319127954,8.4557269465],[77.136662377,8.4546830681],[77.1488129958,8.4386203609],[77.153384525,8.439001851],[77.1575273952,8.434172444],[77.1587722041,8.434650012],[77.1583071562,8.4330480017],[77.1629071467,8.4264129685],[77.1613902461,8.4258685741],[77.1609935016,8.4225609641],[77.1635332931,8.4210730456],[77.1675000001,8.4228431261],[77.1737322528,8.4193513964],[77.1716618966,8.4250164443],[77.1747779421,8.4306024085],[77.1796337486,8.4249464219],[77.1786495337,8.4232954747],[77.1826070967,8.4229338193],[77.1841847279,8.4201657487],[77.1940682513,8.4192957972],[77.1948360324,8.4181547865],[77.190679948,8.412764478],[77.1853816369,8.4066740222],[77.1820521238,8.4051024146],[77.1820815086,8.3968525],[77.1708144062,8.3881589418],[77.1678114963,8.3834447373],[77.1659815023,8.3876382853],[77.1612857954,8.3900748948],[77.1594867017,8.3895065175],[77.1564096089,8.3930646411],[77.1561309704,8.3932684924]]]]}},{"type":"Feature","properties":{"code":"G01037","name":"Kuttichal","type":"Grama Panchayat","leading":"UDF","seats":{"LDF":5,"UDF":8,"NDA":1,"OTHERS":1}},"geometry":{"type":"MultiPolygon","coordinates":[[[[77.1017425469,8.5456524934],[77.0995201778,8.5438319822],[77.0950420285,8.5508785752],[77.0922942518,8.5513673757],[77.0940872272,8.5527995232],[77.0927672686,8.5564949383],[77.0952568687,8.5585820366],[77.0964687454,8.5656299308],[77.0943284338,8.5708974015],[77.0982454055,8.5776920251],[77.1001733842,8.5800596353],[77.1036778388,8.5780335131],[77.1077150006,8.579299367],[77.1084783476,8.577347761],[77.1129158589,8.5770844792],[77.1164817367,8.5786888763],[77.1169581412,8.5822467682],[77.1228370218,8.5876640552],[77.1304713668,8.5887926455],[77.1340154901,8.5912493547],[77.1361750383,8.5989643599],[77.1422478472,8.6058874965],[77.1451116727,8.6141855092],[77.1487051414,8.617546817],[77.1498380553,8.6215374735],[77.1482027379,8.6231890179],[77.1527989806,8.6234549446],[77.1521349442,8.6200300406],[77.1544929383,8.6204064495],[77.1540405233,8.6185616421],[77.1566934505,8.6175626371],[77.1573008571,8.6136589219],[77.1627568873,8.6098637994],[77.1634728796,8.6106324993],[77.157383866,8.6162137857],[77.158093341,8.6215106563],[77.1604407996,8.6206671256],[77.1587031075,8.6221799729],[77.1594301626,8.6269243814],[77.1668789597,8.6242273658],[77.1632364691,8.6281066543],[77.1663471005,8.6297863295],[77.1662387196,8.6321517009],[77.1765842314,8.6320196514],[77.1814996132,8.634345867],[77.1824506138,8.638652593],[77.1886006859,8.6467029528],[77.1893227535,8.6529637367],[77.1929968693,8.6551583838],[77.1954017797,8.6589880259],[77.195758958,8.6675761993],[77.1935200167,8.6728133545],[77.1958795388,8.6750143116],[77.2019745263,8.6704760006],[77.2011251638,8.6689037571],[77.2090376811,8.6635291113],[77.2083031835,8.6610663733],[77.2129306526,8.6573975083],[77.2140685719,8.6494928778],[77.2249454533,8.6392555391],[77.2298581078,8.6403781974],[77.2347805369,8.6268183246],[77.2439903482,8.6220755427],[77.2460066393,8.6246058631],[77.2506818412,8.6227863816],[77.2532250661,8.6124671367],[77.250893655,8.6065338292],[77.2470322908,8.6035055964],[77.2504306633,8.5988169291],[77.2557822562,8.5965751044],[77.2571926193,8.5905275925],[77.2618971863,8.5878769352],[77.2633736294,8.5887041687],[77.266319084,8.5854580916],[77.2667493815,8.580784338],[77.2692529395,8.5788521367],[77.2732094569,8.5678693915],[77.2639721661,8.5724460711],[77.2589399342,8.5778997472],[77.2521098095,8.5758833391],[77.2515661033,8.5691603618],[77.2331166827,8.5653478702],[77.2233503885,8.5642623513],[77.2031359213,8.5663942131],[77.1943428421,8.5516011491],[77.1911416506,8.5530381513],[77.1939009599,8.5478800559],[77.1888900368,8.5452775045],[77.188019184,8.5459933163],[77.1894313931,8.5468821681],[77.1878521746,8.5477305301],[77.1893534355,8.5485339441],[77.181764247,8.5504983228],[77.1858013873,8.5525449442],[77.1822230876,8.5522970638],[77.182522982,8.5539447007],[77.1844754586,8.5541979232],[77.1832148195,8.5553116927],[77.182221502,8.5558399084],[77.1815251541,8.5530034755],[77.1792631216,8.5548193707],[77.1806278781,8.5516353951],[77.1763220976,8.5511367185],[77.1756299214,8.5537601392],[77.1773668302,8.5556859895],[77.1753794891,8.5571337879],[77.1749552426,8.55306111],[77.1730059694,8.551949251],[77.1727723589,8.5550097644],[77.17108518,8.5554116828],[77.1721976042,8.5579646096],[77.169028806,8.5593794617],[77.1710622253,8.5571231237],[77.1678393549,8.5579254003],[77.1696421712,8.5564884628],[77.1678407643,8.5566840665],[77.1710345321,8.5532513358],[77.1668663725,8.553031408],[77.1757994029,8.5498943418],[77.1755806084,8.5480577952],[77.1773514986,8.5495474809],[77.1780499046,8.5469572017],[77.1749192777,8.5462945882],[77.1752291093,8.5447398541],[77.171662087,8.5469149105],[77.1689044002,8.545822872],[77.1726325658,8.5447513848],[77.1725054353,8.542484451],[77.1702441898,8.5428702094],[77.1726449473,8.5399574929],[77.1707409483,8.5411089008],[77.1703457821,8.5388537374],[77.1673654944,8.5383863117],[77.1677490823,8.5435090096],[77.1641877149,8.5460968293],[77.1675522129,8.5464234118],[77.1648697931,8.5470692327],[77.1649906426,8.5488489938],[77.1642479541,8.5473817217],[77.1628128676,8.5478059802],[77.1615094391,8.549658447],[77.1632379612,8.5494774065],[77.1617960044,8.5525329855],[77.1648883586,8.5523954806],[77.1640246186,8.5544203972],[77.1623403071,8.5543604879],[77.1650139853,8.5551260686],[77.1623296917,8.5559958918],[77.1620441352,8.5587488793],[77.1618642925,8.5571974197],[77.160141684,8.5577221355],[77.1609035829,8.554078133],[77.1575419901,8.5547956898],[77.1583016325,8.5570060402],[77.1568979708,8.5539314274],[77.1551227911,8.5536468256],[77.1557682001,8.551783458],[77.1528819014,8.5499937115],[77.1459818851,8.5550243569],[77.1386526673,8.5555878125],[77.1299798348,8.5536924055],[77.1291894044,8.555237081],[77.1212299959,8.5492122034],[77.1165902685,8.5529647952],[77.1125042769,8.5529885028],[77.1061614847,8.5457125586],[77.104328567,8.5447494405],[77.1019514609,8.5458140126],[77.1017425469,8.5456524934]]]]}},{"type":"Feature","properties":{"code":"G01059","name":"Madavoor","type":"Grama Panchayat","leading":"UDF","seats":{"LDF":3,"UDF":7,"NDA":6,"OTHERS":0}},"geometry":{"type":"MultiPolygon","coordinates":[[[[76.8139211873,8.7996837666],[76.8139211873,8.7996837666],[76.8139211873,8.7996837666]],[[76.8356461339,8.7964517053],[76.8356000113,8.7964222289],[76.8356461339,8.7964517053]],[[76.8285125067,8.8213247418],[76.8285125067,8.8213247418],[76.8285125067,8.8213247418]]]]}},{"type":"Feature","properties":{"code":"G01023","name":"Malayinkeezhu","type":"Grama Panchayat","leading":"UDF","seats":{"LDF":6,"UDF":8,"NDA":7,"OTHERS":1}},"geometry":{"type":"MultiPolygon","coordinates":[[[[77.0389445091,8.4565940507],[77.0389445091,8.4565940507],[77.0389445091,8.4565940507]]]]}},{"type":"Feature","properties":{"code":"G01072","name":"Manamboor","type":"Grama Panchayat","leading":"LDF","seats":{"LDF":6,"UDF":5,"NDA":5,"OTHERS":1}},"geometry":{"type":"MultiPolygon","coordinates":[[[[76.7818226143,8.7005749369],[76.7818226143,8.7005749369],[76.7818226143,8.7005749369]]]]}},{"type":"Feature","properties":{"code":"G01029","name":"Mangalapuram","type":"Grama Panchayat","leading":"TIE","seats":{"LDF":7,"UDF":6,"NDA":7,"OTHERS":2}},"geometry":{"type":"MultiPolygon","coordinates":[[[[76.8425200991,8.60434023],[76.8425200991,8.60434023],[76.8425200991,8.60434023]]]]}},{"type":"Feature","properties":{"code":"G01046","name":"Manickal","type":"Grama Panchayat","leading":"LDF","seats":{"LDF":11,"UDF":10,"NDA":2,"OTHERS":0}},"geometry":{"type":"MultiPolygon","coordinates":[[[[76.8967950455,8.6261520732],[76.8967950455,8.6261520732],[76.8967950455,8.6261520732]]]]}},{"type":"Feature","properties":{"code":"G01020","name":"Maranallur","type":"Grama Panchayat","leading":"NDA","seats":{"LDF":8,"UDF":2,"NDA":11,"OTHERS":1}},"geometry":{"type":"MultiPolygon","coordinates":[[[[77.068532457,8.4359589338],[77.068532457,8.4359589338],[77.068532457,8.4359589338]]]]}},{"type":"Feature","properties":{"code":"G01065","name":"Mudakkal","type":"Grama Panchayat","leading":"NDA","seats":{"LDF":5,"UDF":4,"NDA":12,"OTHERS":1}},"geometry":{"type":"MultiPolygon","coordinates":[[[[76.8449600168,8.6596362064],[76.8449600168,8.6596362064],[76.8449600168,8.6596362064]]]]}},{"type":"Feature","properties":{"code":"G01055","name":"Nagaroor","type":"Grama Panchayat","leading":"LDF","seats":{"LDF":13,"UDF":3,"NDA":1,"OTHERS":1}},"geometry":{"type":"MultiPolygon","coordinates":[[[[76.8391486805,8.7222229998],[76.8371277433,8.7292277482],[76.8330626825,8.7322385456],[76.8334794082,8.742658132],[76.8313126206,8.7549734774],[76.8261399012,8.7599184544],[76.8253251866,8.7634121306],[76.8237215986,8.7634035129],[76.8248663667,8.7688060134],[76.823780105,8.7702910299],[76.8255324351,8.7721291216],[76.8217360523,8.7825868643],[76.825002801,8.7863691637],[76.8229023126,8.7904307382],[76.8243634224,8.7934837775],[76.8279219089,8.7921820066],[76.8314539938,8.7931855329],[76.8313900904,8.7949719869],[76.8352901253,8.7945197503],[76.8341621099,8.7925896806],[76.8396070917,8.7801833765],[76.8419778517,8.7787745331],[76.8449646746,8.7806982835],[76.8486092493,8.7773259599],[76.8564923531,8.762213427],[76.8603899032,8.757641375],[76.8626606008,8.7576328064],[76.866555571,8.7537792848],[76.8631925634,8.7489656412],[76.8599742608,8.7482367052],[76.8616377665,8.7448183989],[76.8596622705,8.7413092284],[76.8622323092,8.7404115868],[76.8623605905,8.7385729672],[76.858683972,8.736981184],[76.8581043897,8.7330221339],[76.8606865215,8.7286077096],[76.8571322895,8.7252276703],[76.8554150925,8.7204418818],[76.8430574165,8.7060532289],[76.8413750974,8.7070973985],[76.8392037778,8.7215687937],[76.8391486805,8.7222229998]]]]}},{"type":"Feature","properties":{"code":"G01049","name":"Nanniyode","type":"Grama Panchayat","leading":"LDF","seats":{"LDF":9,"UDF":7,"NDA":2,"OTHERS":0}},"geometry":{"type":"MultiPolygon","coordinates":[[[[77.0265939073,8.6558782624],[77.0265939073,8.6558782624],[77.0265939073,8.6558782624]]]]}},{"type":"Feature","properties":{"code":"G01058","name":"Navayikulam","type":"Grama Panchayat","leading":"UDF","seats":{"LDF":6,"UDF":12,"NDA":6,"OTHERS":0}},"geometry":{"type":"MultiPolygon","coordinates":[[[[76.7913827568,8.7629011492],[76.7913827568,8.7629011492],[76.7913827568,8.7629011492]]]]}},{"type":"Feature","properties":{"code":"G01047","name":"Nellanad","type":"Grama Panchayat","leading":"LDF","seats":{"LDF":10,"UDF":8,"NDA":0,"OTHERS":0}},"geometry":{"type":"MultiPolygon","coordinates":[[[[76.9042357272,8.66903568],[76.9042357272,8.66903568],[76.9042357272,8.66903568]]]]}},{"type":"Feature","properties":{"code":"G01012","name":"Ottasekaramangalam","type":"Grama Panchayat","leading":"LDF","seats":{"LDF":7,"UDF":5,"NDA":3,"OTHERS":0}},"geometry":{"type":"MultiPolygon","coordinates":[[[[77.1386982729,8.4795077669],[77.1377676462,8.477299349],[77.135382602,8.4787416173],[77.1336757293,8.4766319628],[77.1321184306,8.4775362667],[77.1255126898,8.4758772079],[77.1239528704,8.4774988778],[77.1242147257,8.4832010703],[77.1213577777,8.4895854358],[77.1190194334,8.4909120842],[77.124085265,8.4906136668],[77.1242948555,8.4919728384],[77.1215081422,8.4929963169],[77.1211003286,8.4950411058],[77.1182247495,8.4948364419],[77.1200452439,8.4979466862],[77.1178109487,8.5064600372],[77.119923037,8.5076585067],[77.1190796978,8.5092216975],[77.1213534541,8.5109449438],[77.1207142956,8.512605085],[77.1241339214,8.5110864748],[77.1246776788,8.5142224578],[77.1276425271,8.5121928229],[77.130958498,8.5136441134],[77.1324924612,8.5162427306],[77.1370123903,8.516414566],[77.1357929533,8.5152604771],[77.1369357703,8.5129449655],[77.1432883359,8.5127286387],[77.143948403,8.51570177],[77.1455406021,8.5163238274],[77.1482679448,8.5131087746],[77.1491257811,8.5084751643],[77.1579431651,8.5076524689],[77.1654519949,8.5033940885],[77.1659018047,8.4985678413],[77.1742074939,8.4872315708],[77.1795726272,8.4836286136],[77.1761563566,8.4818669791],[77.1780267155,8.4773902071],[77.1736794274,8.478923307],[77.1675352518,8.4841260108],[77.1630453238,8.4835898854],[77.1552038237,8.4867069404],[77.1527972693,8.4850181694],[77.1497826158,8.4876433897],[77.1455823361,8.4809979638],[77.1435815798,8.4801123988],[77.1419372978,8.4833500725],[77.1392574329,8.4803670752],[77.1386982729,8.4795077669]]]]}},{"type":"Feature","properties":{"code":"G01073","name":"Ottoor","type":"Grama Panchayat","leading":"LDF","seats":{"LDF":6,"UDF":3,"NDA":5,"OTHERS":0}},"geometry":{"type":"MultiPolygon","coordinates":[[[[76.7743728641,8.7207475749],[76.7743728641,8.7207475749],[76.7743728641,8.7207475749]]]]}},{"type":"Feature","properties":{"code":"G01022","name":"Pallichal","type":"Grama Panchayat","leading":"LDF","seats":{"LDF":12,"UDF":6,"NDA":6,"OTHERS":0}},"geometry":{"type":"MultiPolygon","coordinates":[[[[77.0283948758,8.41831957],[77.028722433,8.4166395698],[77.0266142128,8.4145569619],[77.024039316,8.4183503026],[77.020815505,8.4188238158],[77.0242330691,8.4313838702],[77.0168919046,8.44398046],[77.0136775025,8.4409078251],[77.0084136058,8.4429050745],[77.0109172186,8.4493146452],[77.0046570804,8.4557012887],[77.0067886039,8.4585283389],[77.0040444357,8.4690478682],[77.0091197616,8.4697378164],[77.0104729128,8.474018854],[77.0142481447,8.4735700282],[77.0188597478,8.4783209607],[77.0240926948,8.472322306],[77.0258611389,8.473571536],[77.0267711521,8.467670017],[77.0299794564,8.4697316954],[77.0330440203,8.4666651496],[77.037139163,8.4656277222],[77.037743758,8.4566855757],[77.0416861188,8.4558863231],[77.0473323915,8.4476185882],[77.0498477129,8.4477403257],[77.0498392139,8.4418271936],[77.0457178279,8.4428640239],[77.044601557,8.4400785332],[77.0478070361,8.4346083314],[77.0496097375,8.4350748198],[77.0493330447,8.4327055092],[77.0466848975,8.4289679932],[77.0451828146,8.4298527938],[77.0444149491,8.4267013053],[77.0367649968,8.4282762961],[77.0363097863,8.4259600726],[77.0282342975,8.4185010046],[77.0283948758,8.41831957]]]]}},{"type":"Feature","properties":{"code":"G01060","name":"Pallikkal","type":"Grama Panchayat","leading":"LDF","seats":{"LDF":6,"UDF":5,"NDA":1,"OTHERS":2}},"geometry":{"type":"MultiPolygon","coordinates":[[[[76.8038453587,8.8147051871],[76.8040887123,8.8112305589],[76.8000879143,8.8092354072],[76.7973657163,8.8133793214],[76.7894096774,8.814531781],[76.7895350426,8.8179984457],[76.7831472862,8.8188472504],[76.7870754761,8.8229179931],[76.7911365717,8.8219903498],[76.7942591516,8.8278972527],[76.7883491317,8.8355738685],[76.7846898992,8.8356267887],[76.7812411393,8.8396508781],[76.7817629742,8.842473749],[76.7757258877,8.8437021437],[76.7774715919,8.8480578354],[76.783087656,8.8520427293],[76.7806320483,8.8610370496],[76.7837724238,8.8623844784],[76.7845590353,8.8589915344],[76.7903295181,8.8525294183],[76.7938755674,8.8541090391],[76.7943100465,8.8562463439],[76.8008574372,8.8482939373],[76.8069637974,8.8547767443],[76.8060913149,8.8567719097],[76.8107437536,8.8540918407],[76.8140462696,8.8557939516],[76.8163748681,8.859741622],[76.8197162299,8.8536533999],[76.8228788486,8.8558013658],[76.8264479442,8.85287497],[76.825310377,8.8412322974],[76.8225689586,8.8359250895],[76.8194125266,8.8341193717],[76.8144273843,8.8237492334],[76.8039563429,8.8149321023],[76.8038453587,8.8147051871]]]]}},{"type":"Feature","properties":{"code":"G01044","name":"Panavoor","type":"Grama Panchayat","leading":"LDF","seats":{"LDF":9,"UDF":4,"NDA":2,"OTHERS":1}},"geometry":{"type":"MultiPolygon","coordinates":[[[[76.9878101384,8.6505288265],[76.9863794707,8.6453403243],[76.9818843451,8.647617843],[76.9808897187,8.6497637842],[76.9703150404,8.6538694094],[76.9698617506,8.6559741949],[76.9718735878,8.6570015718],[76.9704797088,8.6582819967],[76.9725774313,8.6594909884],[76.9744720914,8.6654897381],[76.9775353996,8.6665006635],[76.9781615963,8.6712125833],[76.9743735543,8.6768530171],[76.9779556225,8.6780837991],[76.9792922168,8.6856474672],[76.9843147802,8.6902975389],[76.9842947648,8.6972104201],[76.9890460469,8.7054025144],[76.9903652283,8.7052265247],[76.9880920783,8.7109638125],[76.995251599,8.7161417271],[76.9981281411,8.716367035],[77.0071648964,8.7126869278],[77.0061650939,8.7109497846],[77.0041034451,8.7124826169],[77.0007499777,8.7116991247],[77.000778694,8.7031202598],[76.9970099578,8.7009659359],[76.998993101,8.697074822],[77.0019942915,8.6963465199],[76.9999309116,8.6960768717],[76.9994274778,8.6917504816],[77.0029947075,8.6859412351],[77.0061762304,8.6866712055],[77.0052583309,8.6793191699],[77.0144176371,8.6656379457],[77.0269964693,8.6549296663],[77.0231953201,8.6536084765],[77.0232825878,8.6505984666],[77.0210901649,8.6492640502],[77.0205824111,8.6456834191],[77.0167542405,8.6473787061],[77.0139918141,8.6460732759],[77.0051278299,8.6506775924],[77.0027241772,8.6497436466],[77.0017693372,8.6466634818],[76.9971752442,8.6536505595],[76.9987745876,8.6573738001],[76.9903318433,8.6595516803],[76.9879670319,8.6505494987],[76.9878101384,8.6505288265]]]]}},{"type":"Feature","properties":{"code":"G01052","name":"Pangode","type":"Grama Panchayat","leading":"LDF","seats":{"LDF":7,"UDF":6,"NDA":2,"OTHERS":4}},"geometry":{"type":"MultiPolygon","coordinates":[[[[76.979625649,8.7385739341],[76.979625649,8.7385739341],[76.979625649,8.7385739341]]]]}},{"type":"Feature","properties":{"code":"G01001","name":"Parassala","type":"Grama Panchayat","leading":"UDF","seats":{"LDF":9,"UDF":10,"NDA":3,"OTHERS":2}},"geometry":{"type":"MultiPolygon","coordinates":[[[[77.1474077316,8.331583077],[77.1454643235,8.3351695825],[77.1397957107,8.3357688849],[77.1399422492,8.3422529295],[77.1435642923,8.3448707078],[77.1436733128,8.3488010296],[77.1419753675,8.3505061576],[77.1369370423,8.3504848363],[77.1338550654,8.3543607445],[77.1297552128,8.3556388964],[77.1314291685,8.3596936016],[77.1299911338,8.3642757895],[77.1312752584,8.3685238148],[77.1298799529,8.3710656984],[77.1302939415,8.3737382385],[77.1368344744,8.3765072197],[77.1374621462,8.3841872555],[77.1482208102,8.3878809582],[77.1522176018,8.386711468],[77.1509758516,8.3845151013],[77.1519629042,8.381066454],[77.1553183121,8.3810982285],[77.1560108737,8.3826146096],[77.1599180646,8.381183312],[77.159201712,8.3785714529],[77.1610457638,8.3739772851],[77.1601773417,8.3684928685],[77.1565965815,8.3672566919],[77.1557501521,8.3633359156],[77.1534498244,8.3614594621],[77.1525816485,8.3550170353],[77.1564826446,8.356257132],[77.1574590082,8.3593253589],[77.1599271888,8.3587728813],[77.1597213362,8.3570919544],[77.163346227,8.3618027142],[77.1668014827,8.3601634686],[77.1677016449,8.363441521],[77.1696430336,8.3634542943],[77.1707312456,8.3598561257],[77.1742507245,8.3586552612],[77.1748854004,8.3500082776],[77.1670550448,8.3426606514],[77.1698653927,8.3377066252],[77.1696996463,8.3345833246],[77.1807252519,8.3244345449],[77.1762199358,8.3201010269],[77.1733768128,8.3197060588],[77.1718465974,8.3245048859],[77.1696906668,8.3251804713],[77.1705932859,8.3282053766],[77.1692133335,8.3327065862],[77.1532909601,8.3279439973],[77.1512169127,8.3282743827],[77.1492114328,8.3317265749],[77.1474077316,8.331583077]]]]}},{"type":"Feature","properties":{"code":"G01056","name":"Pazhayakunnummel","type":"Grama Panchayat","leading":"LDF","seats":{"LDF":10,"UDF":7,"NDA":0,"OTHERS":0}},"geometry":{"type":"MultiPolygon","coordinates":[[[[76.8879990306,8.7626581182],[76.8873595182,8.7606583023],[76.8897195128,8.7579898688],[76.8829685953,8.7543811001],[76.8805638933,8.7547964084],[76.879329821,8.7574690626],[76.876114058,8.7573606561],[76.8769699701,8.7660116698],[76.8714722491,8.7654245979],[76.8666625191,8.7703169424],[76.867148169,8.7739559948],[76.8698804766,8.7744155844],[76.8702122433,8.775826829],[76.8676877133,8.7779891138],[76.8686367843,8.7817337967],[76.866944299,8.7835439182],[76.8737596302,8.7906371112],[76.8685183809,8.8010548629],[76.8705193711,8.8048771338],[76.8695656836,8.8100890345],[76.8714100004,8.8091566665],[76.8759029359,8.8105375219],[76.8835824419,8.8070751175],[76.8835790589,8.8089743894],[76.8863757839,8.8086230656],[76.88664939,8.8104427157],[76.8993378805,8.8127769405],[76.9075090875,8.8020094456],[76.9140908073,8.7984712723],[76.9151336517,8.7939664902],[76.91702475,8.7938722656],[76.920939272,8.7878094089],[76.9214838451,8.7857799294],[76.9181095851,8.7842322516],[76.9181290822,8.7825108044],[76.9147720483,8.7821270131],[76.9164722933,8.7779742042],[76.9060008063,8.7689717543],[76.9073768744,8.7677333971],[76.9060779543,8.7637783154],[76.8883283341,8.7626933331],[76.8879990306,8.7626581182]]]]}},{"type":"Feature","properties":{"code":"G01050","name":"Peringammala","type":"Grama Panchayat","leading":"UDF","seats":{"LDF":7,"UDF":12,"NDA":0,"OTHERS":0}},"geometry":{"type":"MultiPolygon","coordinates":[[[[77.0503981466,8.7136432068],[77.0482057237,8.7120719489],[77.0471226447,8.7083804957],[77.0430585586,8.71273945],[77.0422789485,8.7159497836],[77.0501335892,8.7226833272],[77.0462717443,8.7288293944],[77.0436223224,8.7249040991],[77.0383368347,8.7231611302],[77.0346729669,8.7197869427],[77.0291933937,8.7212939462],[77.0279204126,8.7386607038],[77.0240560965,8.7450641673],[77.0229748732,8.7510210636],[77.0199705892,8.754258638],[77.0231232276,8.7550140379],[77.022548675,8.7609978848],[77.0256648553,8.7661823766],[77.024399924,8.7757655141],[77.0207422204,8.7792840922],[77.0193473353,8.7839812366],[77.0103739077,8.7956938357],[77.008519519,8.8008389419],[77.0093359268,8.8090647104],[77.0075915036,8.8134330579],[77.0132574889,8.8176537704],[77.020167163,8.8169529799],[77.0179443798,8.8223517576],[77.0190502355,8.8287857606],[77.0245485674,8.8349120962],[77.0290866999,8.8362183855],[77.0288481855,8.838317509],[77.0319485464,8.8431615537],[77.0506188582,8.8465219319],[77.0615356347,8.8429964284],[77.0844090208,8.8411580497],[77.0897066663,8.8321083559],[77.1014406807,8.8294758606],[77.1092633773,8.832463581],[77.1103296748,8.8267188179],[77.1196037686,8.8225117196],[77.1297807259,8.8104756845],[77.1360249513,8.8058190005],[77.1432561585,8.8049007314],[77.1534430224,8.7951204848],[77.155668912,8.7961327919],[77.1617809199,8.7905312525],[77.1683177293,8.7881569263],[77.1914445275,8.7726901231],[77.199996268,8.7710849077],[77.1999148492,8.769552605],[77.1969413816,8.7679049605],[77.2002756414,8.7620274769],[77.1974238344,8.7499864626],[77.1903740771,8.7431917089],[77.1861338951,8.7442886716],[77.1829674711,8.7425909579],[77.1715695228,8.7503472507],[77.1698227847,8.7471829453],[77.1702227147,8.7417838999],[77.1753116007,8.7364073261],[77.1626750202,8.7150564603],[77.1601428231,8.7167478528],[77.1539197538,8.7113128685],[77.1357348772,8.722124995],[77.1097310105,8.7291315068],[77.0994495657,8.7308129132],[77.0801396382,8.7297637647],[77.0793334479,8.7253305384],[77.0843457212,8.7173971156],[77.0755604518,8.7143465471],[77.0765383632,8.7127209495],[77.0751338958,8.7120766381],[77.0750010251,8.7066831488],[77.0826569647,8.7036595966],[77.0762727817,8.7008420953],[77.0779755769,8.700413784],[77.0788934189,8.6978051339],[77.0782819123,8.6948370965],[77.0762563623,8.694272299],[77.0781740606,8.6911269435],[77.0780715655,8.6862506825],[77.0715351244,8.6866834619],[77.0703586242,8.6844800228],[77.0666377277,8.6844795185],[77.0687794506,8.6928510479],[77.06613288,8.6919150447],[77.0624334442,8.6955601473],[77.0589281371,8.6922753782],[77.0555528899,8.6971779269],[77.0516374785,8.6942397585],[77.0524761308,8.6977007883],[77.051348318,8.6991717358],[77.0546373656,8.7023876558],[77.055393924,8.7061969495],[77.0533432364,8.7067436848],[77.0536343984,8.710299892],[77.0505238693,8.7107438595],[77.0503740619,8.7135084298],[77.0503981466,8.7136432068]]]]}},{"type":"Feature","properties":{"code":"G01010","name":"Perumkadavila","type":"Grama Panchayat","leading":"UDF","seats":{"LDF":6,"UDF":8,"NDA":3,"OTHERS":0}},"geometry":{"type":"MultiPolygon","coordinates":[[[[77.1145813939,8.4112560392],[77.1145813939,8.4112560392],[77.1145813939,8.4112560392]]]]}},{"type":"Feature","properties":{"code":"G01034","name":"Poovachal","type":"Grama Panchayat","leading":"UDF","seats":{"LDF":8,"UDF":9,"NDA":6,"OTHERS":1}},"geometry":{"type":"MultiPolygon","coordinates":[[[[77.0855519411,8.5077433216],[77.0752810964,8.5137968908],[77.0756944077,8.5162247021],[77.0707255932,8.5205814012],[77.0670546071,8.5191882501],[77.0633025238,8.5226139029],[77.061637589,8.5252712457],[77.0629557067,8.5275263018],[77.0593360863,8.5362439447],[77.0547571497,8.5348766081],[77.0498612361,8.5394779362],[77.0572258602,8.5402977497],[77.0608729358,8.5429597283],[77.0615187275,8.5451419451],[77.064180026,8.5463573708],[77.0635010713,8.5508575982],[77.0647161092,8.5498881084],[77.0719922438,8.5521075438],[77.0751909442,8.5545499287],[77.0774822509,8.5524141852],[77.0818430371,8.5526955234],[77.0827026961,8.5565682052],[77.0865198596,8.5557064519],[77.0908986508,8.5499848469],[77.0922942518,8.5513673757],[77.0950420285,8.5508785752],[77.0997013734,8.5437547437],[77.1021047414,8.545939616],[77.104328567,8.5447494405],[77.1061614847,8.5457125586],[77.1118744537,8.5526799875],[77.1149633099,8.5535945202],[77.1172171398,8.5497711764],[77.117256389,8.5436530151],[77.1200284247,8.5358076192],[77.126782834,8.5254106801],[77.1252704798,8.524809298],[77.1251695181,8.5208128534],[77.1228737189,8.5174669431],[77.1264072501,8.5144314281],[77.1244782375,8.5140927412],[77.1241339214,8.5110864748],[77.1207142956,8.512605085],[77.1213534541,8.5109449438],[77.1190796978,8.5092216975],[77.119923037,8.5076585067],[77.1178109487,8.5064600372],[77.1192751343,8.5021668628],[77.1155530323,8.5023506345],[77.1086214016,8.5081708419],[77.0969769448,8.5070539969],[77.0914766313,8.5046762397],[77.086044164,8.5076648732],[77.0855519411,8.5077433216]]]]}},{"type":"Feature","properties":{"code":"G01006","name":"Poovar","type":"Grama Panchayat","leading":"UDF","seats":{"LDF":4,"UDF":8,"NDA":2,"OTHERS":1}},"geometry":{"type":"MultiPolygon","coordinates":[[[[77.063142974,8.3214773522],[77.0649420265,8.3283268857],[77.0643181833,8.3331607471],[77.060794371,8.3353956163],[77.0615819294,8.3389460631],[77.0588067999,8.3398960606],[77.064926544,8.3391141554],[77.0664188595,8.340980871],[77.0698118844,8.3411676569],[77.0721678249,8.3456936402],[77.0766229063,8.3443222218],[77.0772645119,8.3468650943],[77.0781016294,8.3457278546],[77.0833112436,8.3461108101],[77.08384516,8.3405599467],[77.0896254461,8.3414543557],[77.0817938903,8.3311123962],[77.0806820922,8.3260948782],[77.0758053909,8.3228399346],[77.0763869342,8.3187316183],[77.0735637098,8.3163292675],[77.0789599751,8.3091383906],[77.0776750366,8.3083292711],[77.0737190645,8.3107738484],[77.0619802145,8.3196377889],[77.0626742394,8.3205016975],[77.063142974,8.3214773522]]]]}},{"type":"Feature","properties":{"code":"G01030","name":"Pothencode","type":"Grama Panchayat","leading":"LDF","seats":{"LDF":9,"UDF":3,"NDA":6,"OTHERS":1}},"geometry":{"type":"MultiPolygon","coordinates":[[[[76.8855573306,8.6081150576],[76.8855573306,8.6081150576],[76.8855573306,8.6081150576]]]]}},{"type":"Feature","properties":{"code":"G01053","name":"Pulimath","type":"Grama Panchayat","leading":"LDF","seats":{"LDF":12,"UDF":7,"NDA":1,"OTHERS":0}},"geometry":{"type":"MultiPolygon","coordinates":[[[[76.8912140561,8.7189539664],[76.8912140561,8.7189539664],[76.8912140561,8.7189539664]]]]}},{"type":"Feature","properties":{"code":"G01048","name":"Pullampara","type":"Grama Panchayat","leading":"TIE","seats":{"LDF":7,"UDF":7,"NDA":1,"OTHERS":1}},"geometry":{"type":"MultiPolygon","coordinates":[[[[76.9211647923,8.6644155009],[76.9211647923,8.6644155009],[76.9211647923,8.6644155009]]]]}},{"type":"Feature","properties":{"code":"G01005","name":"Thirupuram","type":"Grama Panchayat","leading":"UDF","seats":{"LDF":4,"UDF":11,"NDA":0,"OTHERS":0}},"geometry":{"type":"MultiPolygon","coordinates":[[[[77.0588067999,8.3398960606],[77.062025,8.3601183333],[77.0615448541,8.3653976546],[77.0569555419,8.3652747866],[77.0561484065,8.3693570956],[77.0629220056,8.3699713865],[77.0649880193,8.3730578606],[77.0779884192,8.3747153102],[77.0820497826,8.3676258648],[77.0848050943,8.3668756716],[77.0829417863,8.3608173384],[77.0893444836,8.3530098485],[77.0875457312,8.3513196791],[77.089623053,8.3484662167],[77.0876423854,8.3465715867],[77.0896254461,8.3414543557],[77.08384516,8.3405599467],[77.0833112436,8.3461108101],[77.0781016294,8.3457278546],[77.0772645119,8.3468650943],[77.0766229063,8.3443222218],[77.0719302286,8.3455207974],[77.0698118844,8.3411676569],[77.0664188595,8.340980871],[77.0646057368,8.3390087559],[77.0601967505,8.3396182808],[77.0588067999,8.3398960606]]]]}},{"type":"Feature","properties":{"code":"G01039","name":"Tholicode","type":"Grama Panchayat","leading":"UDF","seats":{"LDF":6,"UDF":11,"NDA":1,"OTHERS":0}},"geometry":{"type":"MultiPolygon","coordinates":[[[[77.0632561509,8.6172085412],[77.0632561509,8.6172085412],[77.0632561509,8.6172085412]]]]}},{"type":"Feature","properties":{"code":"G01038","name":"Uzhamalakkal","type":"Grama Panchayat","leading":"LDF","seats":{"LDF":9,"UDF":3,"NDA":4,"OTHERS":0}},"geometry":{"type":"MultiPolygon","coordinates":[[[[77.0630504314,8.5881385939],[77.0630504314,8.5881385939],[77.0630504314,8.5881385939]]]]}},{"type":"Feature","properties":{"code":"G01062","name":"Vakkom","type":"Grama Panchayat","leading":"LDF","seats":{"LDF":8,"UDF":5,"NDA":1,"OTHERS":0}},"geometry":{"type":"MultiPolygon","coordinates":[[[[76.7641730479,8.6813831429],[76.7641730479,8.6813831429],[76.7641730479,8.6813831429]]]]}},{"type":"Feature","properties":{"code":"G01045","name":"Vamanapuram","type":"Grama Panchayat","leading":"UDF","seats":{"LDF":6,"UDF":8,"NDA":1,"OTHERS":1}},"geometry":{"type":"MultiPolygon","coordinates":[[[[76.8819870475,8.7066383359],[76.8733933682,8.7088326611],[76.8706093436,8.7118152512],[76.8702422111,8.7184367009],[76.8722039269,8.7223420628],[76.8783829733,8.7266393793],[76.8787902776,8.7291523513],[76.8846044876,8.7218617841],[76.8895857348,8.7212856245],[76.89187065,8.7188847244],[76.891942641,8.7220205464],[76.893986275,8.7205060011],[76.8962957825,8.7223876205],[76.896272208,8.7272433357],[76.9001716941,8.7262210855],[76.9014737078,8.7301542711],[76.90906524,8.7338826401],[76.9115458747,8.7390834338],[76.9153812696,8.7421727423],[76.9156229541,8.7447387399],[76.9186430048,8.7474126569],[76.9203376676,8.746796137],[76.9254780253,8.7492801087],[76.9272798283,8.7523238585],[76.9296341914,8.7476320344],[76.9314738639,8.7481302494],[76.9393140264,8.74018724],[76.9382050005,8.7257329857],[76.9430259415,8.7229617548],[76.9471210923,8.7047024881],[76.9449039531,8.7033293771],[76.9448193255,8.7062383055],[76.9428324093,8.7066604391],[76.9432992988,8.7031226858],[76.9402356529,8.6985310293],[76.9391667359,8.6988867009],[76.9397664242,8.7021508456],[76.9379944264,8.7020549746],[76.9370504192,8.6956319333],[76.9347061253,8.701996783],[76.9315778986,8.7006439248],[76.9281727142,8.7094197343],[76.9246159336,8.7120598044],[76.92249769,8.710075076],[76.9187031604,8.7115744964],[76.9107443484,8.720145288],[76.9089932113,8.7189476097],[76.9098745304,8.7175859743],[76.9086442607,8.7152462919],[76.9059484641,8.7138244403],[76.8947655294,8.7159251548],[76.8913986069,8.7092142059],[76.8912144109,8.703723804],[76.8870072744,8.7030759376],[76.8856242003,8.7006807759],[76.8820422804,8.7065631263],[76.8819870475,8.7066383359]]]]}},{"type":"Feature","properties":{"code":"G01033","name":"Vellanad","type":"Grama Panchayat","leading":"LDF","seats":{"LDF":9,"UDF":4,"NDA":5,"OTHERS":2}},"geometry":{"type":"MultiPolygon","coordinates":[[[[77.0640757577,8.5465277215],[77.0553166384,8.5399866585],[77.0514045481,8.5425981173],[77.0513576614,8.5445848141],[77.0481405968,8.5465709171],[77.0473180616,8.5489504629],[77.0378675907,8.5521692798],[77.0394656325,8.5576486809],[77.0359246309,8.5622124112],[77.0318672659,8.5635979567],[77.0301322751,8.569908218],[77.028086583,8.5708823265],[77.0276880598,8.5751852335],[77.0349238843,8.5766481614],[77.0288461697,8.5862804317],[77.030987756,8.5875476313],[77.0314691551,8.590344907],[77.0256289164,8.5918911851],[77.0257838299,8.5934976444],[77.0239093523,8.5943751695],[77.0248847385,8.5973945052],[77.0211636687,8.6007052256],[77.0212471132,8.6033152136],[77.0254307435,8.605045074],[77.0291154855,8.5973033515],[77.0387337598,8.593984579],[77.0415861722,8.5902210698],[77.0470739818,8.5906152158],[77.0534718212,8.5866759541],[77.0548569118,8.5882072217],[77.0527856211,8.5909725221],[77.0537204596,8.5921174303],[77.056427027,8.5894731132],[77.0660517701,8.5874027516],[77.0684146834,8.5849085484],[77.0697615976,8.5883398803],[77.0742738011,8.5820799278],[77.078512403,8.5822045849],[77.081690364,8.5794286004],[77.0827760858,8.5767832716],[77.0794688815,8.5761238527],[77.0786986291,8.5733721297],[77.0760456292,8.5722189771],[77.077676368,8.5716383936],[77.0775660583,8.5686784852],[77.0755093673,8.5651477477],[77.0749817122,8.5595307524],[77.078393334,8.5568499995],[77.0827026961,8.5565682052],[77.0825253426,8.5534383529],[77.0774822509,8.5524141852],[77.0751909442,8.5545499287],[77.0719922438,8.5521075438],[77.0647161092,8.5498881084],[77.0635010713,8.5508575982],[77.0640227517,8.54688516],[77.0640757577,8.5465277215]]]]}},{"type":"Feature","properties":{"code":"G01007","name":"Vellarada","type":"Grama Panchayat","leading":"LDF","seats":{"LDF":14,"UDF":7,"NDA":2,"OTHERS":1}},"geometry":{"type":"MultiPolygon","coordinates":[[[[77.1919387087,8.4201632339],[77.1851383084,8.4199239091],[77.1826070967,8.4229338193],[77.1786495337,8.4232954747],[77.1796337486,8.4249464219],[77.1747779421,8.4306024085],[77.1716618966,8.4250164443],[77.1737322528,8.4193513964],[77.1675000001,8.4228431261],[77.1638252806,8.4210354663],[77.161246168,8.4223217262],[77.1613902461,8.4258685741],[77.1629071467,8.4264129685],[77.1583071562,8.4330480017],[77.1587722041,8.434650012],[77.1575273952,8.434172444],[77.1534626146,8.438060549],[77.1547209136,8.4412017483],[77.1536475526,8.4487739547],[77.1596543525,8.4531581325],[77.1591717496,8.459933641],[77.1642613705,8.4642004289],[77.1635081259,8.4700953693],[77.1648728438,8.4727893921],[77.1716608465,8.4730509386],[77.1714958035,8.4745122742],[77.1771434093,8.4769980965],[77.180377047,8.4760224818],[77.1818534641,8.4727799321],[77.1893510828,8.4674387504],[77.1931737683,8.4755056451],[77.1983324839,8.4723418817],[77.2016718776,8.4759142567],[77.2036301555,8.4748634805],[77.2022055793,8.4727467836],[77.2115210495,8.4665218936],[77.2141814731,8.4704087145],[77.2196044919,8.4675158609],[77.2270680555,8.4590033946],[77.2270233374,8.4533341066],[77.2290165185,8.4506343559],[77.2282565249,8.4484166895],[77.2186805396,8.4521570845],[77.2262583366,8.4486270586],[77.2248434532,8.4464215816],[77.2225598747,8.4477293679],[77.2066295925,8.4446954683],[77.2032255597,8.4351032185],[77.1959135922,8.4287108972],[77.1968012822,8.4194613169],[77.1949859505,8.4181673119],[77.1924847703,8.4199575368],[77.1919387087,8.4201632339]],[[77.1843853886,8.4423170292],[77.1843853886,8.4423170292],[77.1843853886,8.4423170292]],[[77.1725503241,8.4631210374],[77.1725503241,8.4631210374],[77.1725503241,8.4631210374]]]]}},{"type":"Feature","properties":{"code":"G01042","name":"Vembayam","type":"Grama Panchayat","leading":"TIE","seats":{"LDF":8,"UDF":8,"NDA":5,"OTHERS":2}},"geometry":{"type":"MultiPolygon","coordinates":[[[[76.9370268618,8.593484924],[76.9370268618,8.593484924],[76.9370268618,8.593484924]]]]}},{"type":"Feature","properties":{"code":"G01019","name":"Venganoor","type":"Grama Panchayat","leading":"LDF","seats":{"LDF":8,"UDF":7,"NDA":6,"OTHERS":1}},"geometry":{"type":"MultiPolygon","coordinates":[[[[76.9856957558,8.3894083114],[76.9856957558,8.3894083114],[76.9856957558,8.3894083114]]]]}},{"type":"Feature","properties":{"code":"G01067","name":"Vettoor","type":"Grama Panchayat","leading":"UDF","seats":{"LDF":4,"UDF":10,"NDA":1,"OTHERS":0}},"geometry":{"type":"MultiPolygon","coordinates":[[[[76.7189163339,8.7167038457],[76.7205541055,8.7175576385],[76.7212065187,8.7210039671],[76.7307004526,8.7250396312],[76.7349018436,8.7297744018],[76.7413942125,8.7282446088],[76.7423295078,8.7154080395],[76.7481500285,8.7131080507],[76.7483009859,8.7078105612],[76.7523833555,8.7019205255],[76.7494668976,8.701080703],[76.7488103037,8.704423841],[76.747405574,8.7035976642],[76.7451826569,8.7052102581],[76.7461447139,8.7012584839],[76.7354029733,8.6963054336],[76.7191615335,8.7164303549],[76.7189163339,8.7167038457]]]]}},{"type":"Feature","properties":{"code":"G01024","name":"Vilappil","type":"Grama Panchayat","leading":"NDA","seats":{"LDF":7,"UDF":4,"NDA":11,"OTHERS":0}},"geometry":{"type":"MultiPolygon","coordinates":[[[[77.0122540824,8.5120550743],[77.0122540824,8.5120550743],[77.0122540824,8.5120550743]]]]}},{"type":"Feature","properties":{"code":"G01025","name":"Vilavoorkal","type":"Grama Panchayat","leading":"TIE","seats":{"LDF":6,"UDF":6,"NDA":6,"OTHERS":2}},"geometry":{"type":"MultiPolygon","coordinates":[[[[77.0108254171,8.4737350315],[77.0088589798,8.4695832196],[77.0040444357,8.4690478682],[77.0023659865,8.4714307124],[77.0052487638,8.4765727858],[77.0052820428,8.4874065591],[77.0030540844,8.4888179319],[77.0038266194,8.5023631491],[77.0064723375,8.5048326135],[77.0033029024,8.5086158993],[77.0187870354,8.5143589166],[77.0240684259,8.51028999],[77.0245825371,8.5060420621],[77.0226139969,8.5035925722],[77.0245389374,8.5005367289],[77.0265436573,8.500388974],[77.0284462729,8.4938707558],[77.03073263,8.4929903046],[77.0280570707,8.4898145203],[77.0282446838,8.4876535912],[77.0342951633,8.4847139821],[77.0307331564,8.482749868],[77.0307016372,8.4805321004],[77.0287047102,8.480660971],[77.0275974997,8.4774809798],[77.0237341969,8.4787324454],[77.0203896766,8.4771260549],[77.0181092179,8.4783866794],[77.0169372812,8.4752498214],[77.0109587109,8.473775408],[77.0108254171,8.4737350315]],[[77.0202191593,8.489744809],[77.0202191593,8.489744809],[77.0202191593,8.489744809]]]]}},{"type":"Feature","properties":{"code":"G01036","name":"Vithura","type":"Grama Panchayat","leading":"LDF","seats":{"LDF":9,"UDF":6,"NDA":3,"OTHERS":0}},"geometry":{"type":"MultiPolygon","coordinates":[[[[77.102523509,8.6456212382],[77.102523509,8.6456212382],[77.102523509,8.6456212382]],[[77.1032262009,8.6476052666],[77.1032262009,8.6476052666],[77.1032262009,8.6476052666]]]]}},{"type":"Feature","properties":{"code":"M01003","name":"Attingal","type":"Municipality","leading":"LDF","seats":{"LDF":16,"UDF":7,"NDA":7,"OTHERS":2}},"geometry":{"type":"MultiPolygon","coordinates":[[[[76.8096146925,8.682291931],[76.8060606788,8.6792229032],[76.8055302766,8.6767243498],[76.8024831489,8.6767914097],[76.8014604987,8.6791256162],[76.7982518154,8.6800338872],[76.7993397246,8.6843452344],[76.8021973805,8.6876734744],[76.7969950947,8.6907086543],[76.7973727393,8.6961413663],[76.795745063,8.699192543],[76.7986194096,8.7023804863],[76.8039687414,8.7034723911],[76.8053939483,8.7065235684],[76.8083993654,8.7082059042],[76.8054635812,8.7107545929],[76.8057625594,8.7172999385],[76.8034111958,8.7189792761],[76.8048571941,8.7205778879],[76.809828152,8.7212789091],[76.811863685,8.7285722962],[76.8147288652,8.7291023647],[76.818122324,8.7231874438],[76.8169843238,8.720601553],[76.8192903342,8.711843575],[76.8167664392,8.7102930192],[76.8172542334,8.7084133093],[76.8283107231,8.7038770934],[76.8362035969,8.7042364431],[76.8352551862,8.7016471437],[76.8376529559,8.6967002453],[76.8423085728,8.6917563122],[76.8463421611,8.6929849825],[76.8463342461,8.6909524861],[76.8386913239,8.689878121],[76.8363388446,8.6861187479],[76.8363878567,8.6775271621],[76.8334716935,8.6756900966],[76.8285349246,8.6764663882],[76.8241392029,8.6744799838],[76.8217920389,8.6763742466],[76.8230780231,8.6808046099],[76.8208080872,8.6804832114],[76.8194194158,8.6830150681],[76.8209246697,8.6843905916],[76.8206424604,8.68718566],[76.8179169754,8.6901233874],[76.8128654449,8.6876705165],[76.8098221306,8.6824468755],[76.8096146925,8.682291931]]]]}},{"type":"Feature","properties":{"code":"M01002","name":"Nedumangad","type":"Municipality","leading":"LDF","seats":{"LDF":29,"UDF":10,"NDA":3,"OTHERS":0}},"geometry":{"type":"MultiPolygon","coordinates":[[[[76.987335633,8.5876086439],[76.9813073203,8.5895129978],[76.9776244037,8.5936579237],[76.9725111006,8.5926510792],[76.9635727674,8.5957818129],[76.9628618632,8.5985040747],[76.9595743919,8.5952975065],[76.9566839064,8.5960929775],[76.9559927076,8.6028563646],[76.9602420281,8.6107990181],[76.9564666677,8.6172801898],[76.9581309944,8.6184302273],[76.9585021729,8.6234556818],[76.9662349239,8.6269234231],[76.9669515962,8.6249439124],[76.9722709872,8.6230691126],[76.9780152463,8.6244953505],[76.9841653715,8.6211101845],[76.983309215,8.6201324312],[76.9883253492,8.6145417259],[76.9971389504,8.6130902038],[76.9980638163,8.6236371799],[77.0001782762,8.626186768],[77.0097875297,8.6234394364],[77.011310042,8.6252545175],[77.0152012941,8.6242490449],[77.0191917543,8.6272789341],[77.0221740515,8.6260817403],[77.0238285425,8.6279072275],[77.0210513595,8.6352168043],[77.0221570706,8.6371918711],[77.0312281236,8.6378540877],[77.033147623,8.6415246867],[77.0394969101,8.6407618997],[77.0440523693,8.6392004391],[77.0491323934,8.6332315686],[77.0459663513,8.6278973744],[77.0434632568,8.6274555464],[77.0428159991,8.6240372005],[77.0356678789,8.6170169161],[77.0351440928,8.6136388401],[77.0330767442,8.6119870906],[77.0336506068,8.6075365724],[77.0309501049,8.6060719607],[77.0305654229,8.6028875763],[77.0254307435,8.605045074],[77.0227435313,8.6044506365],[77.0211636687,8.6007052256],[77.0230368123,8.5985828286],[77.017536612,8.5982665748],[77.0149084074,8.5917207437],[77.0118864424,8.5919810158],[77.0013202658,8.5839016336],[76.9948717104,8.5822035261],[76.9956935566,8.5835024074],[76.9929185628,8.5864552484],[76.987526402,8.5875800842],[76.987335633,8.5876086439]]]]}},{"type":"Feature","properties":{"code":"M01001","name":"Neyyattinkara","type":"Municipality","leading":"LDF","seats":{"LDF":25,"UDF":12,"NDA":7,"OTHERS":2}},"geometry":{"type":"MultiPolygon","coordinates":[[[[77.0767495598,8.3825392889],[77.0716558984,8.3928579076],[77.0740700129,8.3983204842],[77.0749046322,8.407411866],[77.0722653972,8.4094635338],[77.0689239752,8.4084983154],[77.068097888,8.4060293267],[77.0641389398,8.4071123666],[77.0587828229,8.4099141918],[77.0590885646,8.4134191826],[77.0572974119,8.4129417341],[77.0570846045,8.410426343],[77.0555796058,8.4160213583],[77.0518418588,8.41585291],[77.0508182465,8.4174476505],[77.0519317163,8.420581655],[77.0543810281,8.4201632044],[77.0559279136,8.4217143035],[77.0626375343,8.4200761399],[77.0645659459,8.4210670153],[77.0676491616,8.4145727353],[77.0715463731,8.4153562627],[77.0737190932,8.4129737077],[77.0716692662,8.4219286568],[77.0682882743,8.4238306425],[77.0670649278,8.4275154422],[77.0630704072,8.4293204893],[77.0641412772,8.4340546414],[77.0675993635,8.4362056462],[77.0743407696,8.4326679284],[77.0752903787,8.4353960541],[77.0795390884,8.4382817308],[77.0790323829,8.4404810502],[77.0822835161,8.4440042721],[77.088502605,8.4449878719],[77.089079406,8.4490487669],[77.0940192004,8.4525071036],[77.0957281204,8.4564311442],[77.1028636157,8.4545978514],[77.1041157657,8.4522325845],[77.0987194312,8.4404310859],[77.1019794066,8.4367206961],[77.0997620501,8.4370075929],[77.0987924176,8.4312290838],[77.0953346511,8.4303030531],[77.0922619035,8.4262203907],[77.0949201496,8.4197387589],[77.1022228348,8.414898588],[77.12555693,8.4090325199],[77.1165238336,8.4021367045],[77.1051927154,8.4025757241],[77.10330077,8.397018614],[77.1054789196,8.3917311414],[77.110056807,8.3916294317],[77.1099250996,8.3894697172],[77.1139820406,8.3889121448],[77.1148090512,8.3860624673],[77.1105469036,8.3863465177],[77.1063846064,8.3844230554],[77.0987386983,8.3856469879],[77.0896780523,8.3836430205],[77.0867734959,8.3795125516],[77.0863296297,8.3753844978],[77.0885172493,8.3694798762],[77.0871310599,8.36505986],[77.079934772,8.3702424188],[77.0783901252,8.374594299],[77.0804678161,8.3748488703],[77.0800559125,8.3776115114],[77.0768294569,8.3823676383],[77.0767495598,8.3825392889]]]]}},{"type":"Feature","properties":{"code":"M01004","name":"Varkala","type":"Municipality","leading":"LDF","seats":{"LDF":16,"UDF":6,"NDA":10,"OTHERS":2}},"geometry":{"type":"MultiPolygon","coordinates":[[[[76.7199553496,8.71747389],[76.7189163339,8.7167038457],[76.6994766267,8.7381892158],[76.6968364422,8.7455799141],[76.7011018597,8.7471389009],[76.7006256627,8.75026311],[76.7048293327,8.7521780629],[76.7100575142,8.7514070834],[76.7107107439,8.7590257312],[76.7084468537,8.763112663],[76.7081373149,8.7678849802],[76.7117261025,8.7700950915],[76.7199751862,8.7687512334],[76.7262584471,8.7619306234],[76.7255067512,8.7570808728],[76.7320411631,8.7538105647],[76.734128908,8.7451763997],[76.7423627895,8.7410808813],[76.7433885524,8.7375583448],[76.7413942125,8.7282446088],[76.7349018436,8.7297744018],[76.7307004526,8.7250396312],[76.7212065187,8.7210039671],[76.7205541055,8.7175576385],[76.7199553496,8.71747389]]]]}}]}
