{"type":"FeatureCollection","features":[{"type":"Feature","properties":{"code":"G12010","name":"Ambalavayal","type":"Grama Panchayat","leading":"UDF","seats":{"LDF":5,"UDF":16,"NDA":1,"OTHERS":0}},"geometry":{"type":"MultiPolygon","coordinates":[[[[76.1832125342,11.5655284201],[76.1832125342,11.5655284201],[76.1832125342,11.5655284201]]]]}},{"type":"Feature","properties":{"code":"G12005","name":"Edavaka","type":"Grama Panchayat","leading":"UDF","seats":{"LDF":6,"UDF":15,"NDA":0,"OTHERS":0}},"geometry":{"type":"MultiPolygon","coordinates":[[[[75.983162265,11.7482254228],[75.983162265,11.7482254228],[75.983162265,11.7482254228]]]]}},{"type":"Feature","properties":{"code":"G12022","name":"Kaniyambetta","type":"Grama Panchayat","leading":"UDF","seats":{"LDF":2,"UDF":17,"NDA":1,"OTHERS":1}},"geometry":{"type":"MultiPolygon","coordinates":[[[[76.0867874767,11.6707187412],[76.0867874767,11.6707187412],[76.0867874767,11.6707187412]]]]}},{"type":"Feature","properties":{"code":"G12018","name":"Kottathara","type":"Grama Panchayat","leading":"UDF","seats":{"LDF":4,"UDF":6,"NDA":1,"OTHERS":3}},"geometry":{"type":"MultiPolygon","coordinates":[[[[76.0390754304,11.6595380807],[76.0347817214,11.6612713935],[76.027325223,11.6570638348],[76.0253220096,11.658146438],[76.0203827775,11.6527030066],[76.0132995336,11.6529869411],[76.0108315696,11.658166066],[76.007411121,11.6598586237],[76.0053144181,11.6589307807],[76.0035245033,11.6614378299],[75.998577357,11.6624580922],[75.9972311085,11.6648933201],[75.9925678138,11.6655390719],[75.9932588697,11.6668670535],[75.9894903311,11.6713194005],[75.9893984523,11.6781299971],[75.9962864932,11.6810473674],[75.9990398556,11.6809337527],[76.0007337081,11.6771757655],[76.0065196059,11.6820871205],[76.0086098068,11.6807877513],[76.01115916,11.6836079797],[76.0145612004,11.6837728993],[76.0162489686,11.6814604424],[76.018645875,11.6831953794],[76.0190199622,11.6856747521],[76.0231821498,11.6886551666],[76.0187613157,11.6897969776],[76.023495007,11.6927930482],[76.0222828518,11.6938595405],[76.0257597811,11.6999900756],[76.0313124655,11.6955950684],[76.0367546598,11.6952381468],[76.0438771825,11.6866889232],[76.047536954,11.6876240178],[76.0472776229,11.6860768778],[76.0450710336,11.6862497184],[76.0453366915,11.6843089366],[76.0508135572,11.6836899548],[76.0547412692,11.6809226982],[76.0559193414,11.6817667985],[76.0606433506,11.6778186851],[76.0639928907,11.6771912056],[76.0657421531,11.6714910848],[76.0764079727,11.6704008253],[76.0757136756,11.6659435932],[76.0773153412,11.664297182],[76.0760633466,11.6615777622],[76.0794926984,11.6611488973],[76.0816721164,11.6628009181],[76.0920621415,11.6600181626],[76.0916995069,11.6563461573],[76.0864163072,11.6549099872],[76.0887721821,11.6530107212],[76.0859703781,11.650026188],[76.0877300034,11.6500697324],[76.0900608424,11.6472271528],[76.0807545682,11.6465447887],[76.0771183936,11.6482393361],[76.066933012,11.6421010883],[76.0654552851,11.6443495059],[76.066316818,11.6480597561],[76.0624048723,11.6508891609],[76.0601202491,11.65200464],[76.0585183283,11.6506239237],[76.0502207985,11.6504916869],[76.046086023,11.6539030163],[76.0427463473,11.6535037914],[76.0424499526,11.6581363029],[76.0391969266,11.6593741742],[76.0390754304,11.6595380807]]]]}},{"type":"Feature","properties":{"code":"G12011","name":"Meenangadi","type":"Grama Panchayat","leading":"LDF","seats":{"LDF":12,"UDF":7,"NDA":0,"OTHERS":2}},"geometry":{"type":"MultiPolygon","coordinates":[[[[76.1758780621,11.6458157862],[76.168586842,11.6395938805],[76.1640414736,11.638823405],[76.1629418575,11.6360532816],[76.1617054011,11.64202777],[76.1600583167,11.6418931262],[76.1585555385,11.6447736158],[76.1590056062,11.6491140838],[76.1521706674,11.6498118057],[76.151860251,11.6529652276],[76.1470903253,11.6513011309],[76.1447852923,11.6480125285],[76.1357474967,11.6489934615],[76.1333618184,11.6578392473],[76.136462306,11.6602177128],[76.1349632675,11.6639217406],[76.138235133,11.6677806364],[76.1389577566,11.6668916797],[76.138030777,11.6687503259],[76.1402998046,11.6742272683],[76.136212374,11.6766708109],[76.1369735569,11.6788672748],[76.1350023756,11.678314258],[76.1342070333,11.6795753122],[76.1362339874,11.6818155696],[76.1354587494,11.6836475505],[76.138001403,11.6830505422],[76.1389064467,11.6868113703],[76.1415280882,11.6893900684],[76.1408866848,11.6919610198],[76.1360964554,11.6960908937],[76.1440808936,11.6967979018],[76.1530658233,11.7074825295],[76.1571098851,11.708899532],[76.162526367,11.7080176378],[76.1643434171,11.7122450284],[76.1674083853,11.7140211376],[76.1808238051,11.7041187766],[76.1894467479,11.7030983483],[76.189924719,11.7063061015],[76.1929946289,11.7029526402],[76.193067785,11.700030039],[76.1969895034,11.6981354997],[76.1989552167,11.6951448934],[76.2086881223,11.6909277571],[76.2103333688,11.6859193173],[76.2163956216,11.6821909005],[76.2135590977,11.67951769],[76.2151707643,11.6777551331],[76.2134401185,11.6761781601],[76.2182155177,11.6739366089],[76.2202873822,11.6706822133],[76.2143120458,11.6680152031],[76.2175725243,11.6622802722],[76.2154484587,11.660282189],[76.2169609961,11.6543909716],[76.2109292968,11.6552920048],[76.2077307599,11.6516006755],[76.2113904056,11.6474484877],[76.2094820704,11.6439234667],[76.2108382876,11.6369976093],[76.2010868856,11.6385540043],[76.194878644,11.6444104823],[76.1886621153,11.6446814689],[76.1848851236,11.6431433084],[76.1759269798,11.6458994239],[76.1758780621,11.6458157862]]]]}},{"type":"Feature","properties":{"code":"G12016","name":"Meppadi","type":"Grama Panchayat","leading":"UDF","seats":{"LDF":9,"UDF":13,"NDA":0,"OTHERS":1}},"geometry":{"type":"MultiPolygon","coordinates":[[[[76.0805882766,11.5218451497],[76.0815124732,11.5277166732],[76.0851546413,11.5340582039],[76.0750191638,11.543262459],[76.0681289319,11.5460213199],[76.0640653066,11.5456833109],[76.0658796888,11.5544309646],[76.0659415145,11.5707064776],[76.0669130361,11.57175706],[76.069915081,11.570662751],[76.0726752301,11.5734713447],[76.0821752368,11.5719461163],[76.0878305168,11.5746230008],[76.0882969509,11.581833838],[76.0934651258,11.5805431556],[76.0959738159,11.5834360925],[76.0989215485,11.5835663617],[76.1041447605,11.5883727846],[76.1025624913,11.5993674691],[76.1073392631,11.6063197331],[76.111722942,11.6091584829],[76.111955876,11.6188264261],[76.1149430133,11.6180816006],[76.1222361584,11.6217403363],[76.1245582459,11.6210843991],[76.1289277979,11.6268876475],[76.1324334877,11.6282873401],[76.1348038632,11.625962241],[76.1337035761,11.6259233439],[76.1339628416,11.6239289335],[76.1385319139,11.6210983016],[76.1359380914,11.6195791636],[76.1354092999,11.6157866846],[76.1401098999,11.6150072762],[76.1447892377,11.6088240815],[76.1536001538,11.6052311902],[76.1638676209,11.6084702786],[76.1606962831,11.6003834043],[76.1633004435,11.5949471348],[76.1674179722,11.5950689034],[76.1693586063,11.588130031],[76.1668494904,11.5863795146],[76.1690375547,11.5849287179],[76.1686274288,11.583463828],[76.1585219622,11.5807939804],[76.152871462,11.5810997292],[76.14658557,11.5746049968],[76.1416297362,11.5718747825],[76.1437304842,11.567555922],[76.1424951974,11.5629046867],[76.1441597882,11.5587006541],[76.1372969082,11.5504989504],[76.138619355,11.5470920206],[76.1373820146,11.5446342],[76.1407899812,11.5400558211],[76.1409632222,11.537274688],[76.1426258394,11.5371671381],[76.1432576047,11.5341226916],[76.1451900094,11.5345239444],[76.1445995,11.5324453011],[76.1504685037,11.5337058213],[76.1490569665,11.5306270462],[76.1535423922,11.5218068956],[76.158246695,11.5198822766],[76.1636955611,11.5198533183],[76.1768017476,11.5113428172],[76.1827562736,11.5128430814],[76.1928794846,11.5056272136],[76.2004753548,11.5071585065],[76.1889594227,11.4944892071],[76.1898784738,11.4929917185],[76.1877567357,11.4913928447],[76.1883150818,11.4903396129],[76.1856136896,11.4894860862],[76.1847945941,11.4840203895],[76.1819945741,11.4836537753],[76.186909107,11.4784185819],[76.1857314542,11.4732970961],[76.1816782126,11.4722885256],[76.1784024915,11.4690413335],[76.1694594853,11.466695944],[76.1634811252,11.457757661],[76.1609017755,11.457304276],[76.1590070938,11.4592007028],[76.1583801317,11.4568038999],[76.1526503768,11.4527775883],[76.147960711,11.4535045045],[76.1417773976,11.4514779908],[76.1358539183,11.4596088811],[76.1307283649,11.461687392],[76.1220622185,11.4741839591],[76.1077579697,11.480356258],[76.1060394413,11.4846237406],[76.0966001276,11.4859312785],[76.0926345848,11.4840130159],[76.0886087876,11.4870347113],[76.0880113944,11.4901128234],[76.0930819422,11.4928379233],[76.0927043785,11.4981759456],[76.0891994173,11.505826911],[76.0906000714,11.5112088376],[76.0883358282,11.5140596495],[76.0828840336,11.514527563],[76.0795222934,11.5209484207],[76.0805882766,11.5218451497]]]]}},{"type":"Feature","properties":{"code":"G12025","name":"Mullankolly","type":"Grama Panchayat","leading":"UDF","seats":{"LDF":2,"UDF":13,"NDA":1,"OTHERS":3}},"geometry":{"type":"MultiPolygon","coordinates":[[[[76.1940679746,11.8010860728],[76.1940679746,11.8010860728],[76.1940679746,11.8010860728]]]]}},{"type":"Feature","properties":{"code":"G12017","name":"Muppainadu","type":"Grama Panchayat","leading":"LDF","seats":{"LDF":9,"UDF":8,"NDA":0,"OTHERS":0}},"geometry":{"type":"MultiPolygon","coordinates":[[[[76.1663884561,11.518065142],[76.1534588776,11.5218774315],[76.1490569665,11.5306270462],[76.1504685037,11.5337058213],[76.1445995,11.5324453011],[76.1453040936,11.5343682189],[76.1432576047,11.5341226916],[76.1373820146,11.5446342],[76.138619355,11.5470920206],[76.1373393123,11.5506114636],[76.1441597882,11.5587006541],[76.1424951974,11.5629046867],[76.1437304842,11.567555922],[76.1416297362,11.5718747825],[76.14658557,11.5746049968],[76.152871462,11.5810997292],[76.1585219622,11.5807939804],[76.1696089218,11.5835755324],[76.1695824754,11.5805803896],[76.1714152129,11.578963739],[76.1707234832,11.5762287798],[76.1652896081,11.5730753761],[76.1693758,11.5715158823],[76.1722328837,11.5671647211],[76.1746296715,11.5668929481],[76.1757911905,11.56217205],[76.1742071606,11.5541524226],[76.1774772079,11.5523492123],[76.1768940351,11.5546465696],[76.1782826643,11.5559732357],[76.1802120875,11.5551740799],[76.181334642,11.5605719901],[76.1802658229,11.5619222752],[76.1839512188,11.5665471035],[76.1879140172,11.5665751408],[76.190194281,11.5634659114],[76.1970877522,11.5645197808],[76.1980730378,11.5623131876],[76.204504315,11.5623469697],[76.2025433969,11.5557614275],[76.2052563369,11.5553273208],[76.2056407844,11.5515461093],[76.2095627957,11.5532246601],[76.2122551194,11.5502083574],[76.2240427883,11.5583756181],[76.2311198913,11.5570449862],[76.2385233693,11.5610577069],[76.2402217466,11.5557154032],[76.2420959189,11.5562748593],[76.2445393194,11.5538635715],[76.2425902348,11.5533463254],[76.242114099,11.5505474655],[76.2465052419,11.5458687859],[76.2439312183,11.5431068008],[76.2461474915,11.5406919285],[76.2477021563,11.5413700343],[76.2497240736,11.5372715423],[76.251778924,11.5380838275],[76.2506751388,11.5316982308],[76.2490221758,11.5301497018],[76.2509699893,11.5278840791],[76.2438510958,11.5264991352],[76.240851462,11.5280199053],[76.2390301548,11.5262998538],[76.2334388473,11.5288215423],[76.2277799227,11.5219424132],[76.2264455966,11.5133904165],[76.2244596461,11.5099979972],[76.2204207443,11.511696711],[76.1933659825,11.5055264559],[76.1827562736,11.5128430814],[76.1768017476,11.5113428172],[76.1667050683,11.5178890591],[76.1663884561,11.518065142]]]]}},{"type":"Feature","properties":{"code":"G12019","name":"Muttil","type":"Grama Panchayat","leading":"LDF","seats":{"LDF":11,"UDF":10,"NDA":0,"OTHERS":1}},"geometry":{"type":"MultiPolygon","coordinates":[[[[76.1222361584,11.6217403363],[76.114331089,11.6181419361],[76.1023622614,11.6212993914],[76.0964540579,11.6267892027],[76.0929052625,11.636792165],[76.0961033125,11.6392407125],[76.0955733119,11.6447733747],[76.0867533407,11.6440556126],[76.090167591,11.6474335554],[76.0859703781,11.650026188],[76.0887721821,11.6530107212],[76.0864163072,11.6549099872],[76.0916995069,11.6563461573],[76.0920621415,11.6600181626],[76.0816721164,11.6628009181],[76.0794926984,11.6611488973],[76.0760633466,11.6615777622],[76.0773153412,11.664297182],[76.0757136756,11.6659435932],[76.0760612131,11.6706177738],[76.0791444324,11.6723585682],[76.083468075,11.6705250813],[76.0904986327,11.6708606711],[76.0921257099,11.6728415794],[76.0953280511,11.6721889484],[76.0983404877,11.6797253486],[76.1001717438,11.6808262414],[76.1008376478,11.6787179153],[76.1036885861,11.6789753727],[76.1028552676,11.6765727568],[76.10160913,11.6767861349],[76.103185738,11.6759129383],[76.1024181285,11.6733001473],[76.1046503018,11.6719241151],[76.1066555356,11.6727061157],[76.1073832572,11.6691673561],[76.1118921711,11.6710766154],[76.1132696819,11.6693407053],[76.1151027948,11.6714489187],[76.115905277,11.6698371441],[76.1272654565,11.6788805691],[76.1340894106,11.6797534044],[76.1350023756,11.678314258],[76.1369735569,11.6788672748],[76.136212374,11.6766708109],[76.1402998046,11.6742272683],[76.138030777,11.6687503259],[76.1389577566,11.6668916797],[76.138235133,11.6677806364],[76.1349632675,11.6639217406],[76.136462306,11.6602177128],[76.1333618184,11.6578392473],[76.1357474967,11.6489934615],[76.1447852923,11.6480125285],[76.1507400222,11.6533534567],[76.1521950863,11.6526639496],[76.1511497986,11.6505291588],[76.1521706674,11.6498118057],[76.1588689841,11.6492585876],[76.1585555385,11.6447736158],[76.1600583167,11.6418931262],[76.1617054011,11.64202777],[76.1624677582,11.6362869618],[76.1655489086,11.6367603988],[76.1682473328,11.6316698306],[76.1721441373,11.6316124219],[76.1745882664,11.6297090998],[76.1766289512,11.6233062324],[76.1739805219,11.6192718449],[76.177648628,11.6146193095],[76.1793126996,11.6046089551],[76.1730434749,11.599877616],[76.1702716503,11.6048294773],[76.1654868467,11.6085846146],[76.1578074503,11.6076011704],[76.1536001538,11.6052311902],[76.14713624,11.6075582547],[76.1401098999,11.6150072762],[76.1354092999,11.6157866846],[76.1359380914,11.6195791636],[76.1385319139,11.6210983016],[76.1339628416,11.6239289335],[76.1337035761,11.6259233439],[76.1348038632,11.625962241],[76.1324334877,11.6282873401],[76.1289277979,11.6268876475],[76.1245582459,11.6210843991],[76.1226792632,11.6216922401],[76.1222361584,11.6217403363]]]]}},{"type":"Feature","properties":{"code":"G12009","name":"Nenmeni","type":"Grama Panchayat","leading":"UDF","seats":{"LDF":10,"UDF":12,"NDA":1,"OTHERS":1}},"geometry":{"type":"MultiPolygon","coordinates":[[[[76.2447163971,11.5788115741],[76.239534363,11.5919094976],[76.232002637,11.597067891],[76.2314989678,11.5991021697],[76.218535185,11.6062550983],[76.2159331689,11.6109453851],[76.2144279788,11.6150368556],[76.2181721344,11.6182280018],[76.2184603248,11.6204083933],[76.216737268,11.6330862104],[76.2201669082,11.6366336008],[76.2231386493,11.6383866374],[76.226724997,11.6366867579],[76.2295241492,11.6445122941],[76.2382571347,11.6384684877],[76.2435810793,11.6403702533],[76.2443199229,11.6372218567],[76.2463281759,11.6359205275],[76.2546034321,11.6376128996],[76.2569000784,11.6437512578],[76.2611157606,11.6480293506],[76.2644131473,11.6452736063],[76.264384023,11.6475759169],[76.2760207956,11.6542213206],[76.2767931958,11.6571225421],[76.2808460278,11.6548549534],[76.2861479233,11.6549144671],[76.2857041465,11.6527711111],[76.2871386986,11.6527260336],[76.2877835982,11.6503311817],[76.3000638817,11.6449099685],[76.306321377,11.6371788936],[76.3119392064,11.6267456609],[76.3174393456,11.6242589798],[76.3183391862,11.6206865226],[76.3214648329,11.6212469458],[76.3267047428,11.6176719695],[76.3300985268,11.6185458638],[76.3337607695,11.6158880009],[76.3331029854,11.6117832674],[76.3303804846,11.6101460301],[76.3312919341,11.6013990559],[76.3290464684,11.5990948641],[76.3291439841,11.5950027797],[76.3265941692,11.5925191033],[76.3276810175,11.5904459054],[76.3226922478,11.5874165785],[76.3156195726,11.5765168483],[76.3105042411,11.5775390717],[76.3020286194,11.5711085986],[76.299685911,11.5746596513],[76.2990355936,11.5816589277],[76.2955375916,11.5903585463],[76.2861532916,11.5897975445],[76.2788070004,11.6007318601],[76.2737231907,11.5935524],[76.2644124475,11.5923381885],[76.2619361498,11.5889217904],[76.2541221713,11.5858631522],[76.2493598355,11.580045264],[76.2448639328,11.5789398144],[76.2447163971,11.5788115741]],[[76.319302615,11.5890540761],[76.319302615,11.5890540761],[76.319302615,11.5890540761]]]]}},{"type":"Feature","properties":{"code":"G12008","name":"Noolpuzha","type":"Grama Panchayat","leading":"UDF","seats":{"LDF":7,"UDF":10,"NDA":2,"OTHERS":0}},"geometry":{"type":"MultiPolygon","coordinates":[[[[76.3175452211,11.624093577],[76.3175452211,11.624093577],[76.3175452211,11.624093577]]]]}},{"type":"Feature","properties":{"code":"G12020","name":"Padinjarathara","type":"Grama Panchayat","leading":"UDF","seats":{"LDF":2,"UDF":13,"NDA":0,"OTHERS":3}},"geometry":{"type":"MultiPolygon","coordinates":[[[[75.9841639665,11.6575506162],[75.985386702,11.6553559482],[75.9811388457,11.6562499259],[75.9758099433,11.6534153074],[75.971422435,11.6532881035],[75.967897417,11.6571499572],[75.969464528,11.6591707049],[75.9671376139,11.6628455523],[75.9529140508,11.6662339039],[75.9482617891,11.6571266375],[75.9368218949,11.6482888371],[75.932535562,11.6496180794],[75.9337404561,11.6517633073],[75.9270722177,11.6564465966],[75.9169632989,11.6565040653],[75.9121189387,11.6605906087],[75.9071922472,11.6601227013],[75.9031580333,11.6575596896],[75.9048314072,11.6640218807],[75.9005143258,11.6742556318],[75.9003302269,11.6781916594],[75.9101058885,11.6829351561],[75.9126429476,11.6855243662],[75.9113983192,11.6891596983],[75.9211802423,11.6914189223],[75.9288415727,11.6877294521],[75.9320836815,11.6891116173],[75.9333956872,11.6916296834],[75.9436039597,11.6962324798],[75.950084699,11.696221945],[75.9545439352,11.6912125251],[75.9588192647,11.6890302517],[75.9624918937,11.6916265975],[75.9641484886,11.6979077204],[75.9668647362,11.6989464048],[75.9674742018,11.7047855465],[75.9703201374,11.7049496169],[75.970961663,11.7073691851],[75.9731806742,11.7076554975],[75.9770687067,11.7018929816],[75.9787736031,11.7026077563],[75.9776112137,11.7056072586],[75.984711893,11.7055840037],[75.9854620455,11.7076854374],[75.9882085026,11.7085925057],[75.9889467498,11.711520836],[75.9935011714,11.7115215819],[75.996630715,11.7090808555],[75.9976483679,11.7117027991],[76.0002315957,11.7086782769],[76.0047091359,11.7151628439],[76.0038145792,11.7199725542],[76.0094516684,11.7194759828],[76.0119519385,11.7232044556],[76.0160743074,11.72154002],[76.0188969972,11.7226204018],[76.0175962466,11.725175687],[76.0233405794,11.7236352879],[76.028183619,11.7260791471],[76.0320108221,11.7225386071],[76.0297663777,11.717978528],[76.0267667638,11.7196951886],[76.0248633055,11.7155656611],[76.0217635689,11.7172030218],[76.0231744306,11.7127961276],[76.0208549069,11.710172429],[76.0237968544,11.7076213267],[76.0150275751,11.7110150204],[76.0156971218,11.7086470037],[76.0177420773,11.7078354814],[76.0147096182,11.7068607257],[76.0153403883,11.701650847],[76.0123406485,11.699653608],[76.0139939143,11.6983170828],[76.0168174153,11.7018704434],[76.020298476,11.7021002514],[76.0197492406,11.6948621034],[76.0235280713,11.6928736694],[76.0187215239,11.6896185945],[76.0231414983,11.6884911419],[76.0207866223,11.6876293337],[76.0162489686,11.6814604424],[76.0145612004,11.6837728993],[76.0116950123,11.6837502452],[76.0086098068,11.6807877513],[76.0065196059,11.6820871205],[76.0035874051,11.680559027],[76.0007337081,11.6771757655],[75.9990398556,11.6809337527],[75.9968325763,11.6812095385],[75.9893984523,11.6781299971],[75.9894903311,11.6713194005],[75.9932588697,11.6668670535],[75.9925678138,11.6655390719],[75.9873962396,11.6656799047],[75.9851027113,11.6636263416],[75.9842742446,11.6579631051],[75.9841639665,11.6575506162]]]]}},{"type":"Feature","properties":{"code":"G12021","name":"Panamaram","type":"Grama Panchayat","leading":"UDF","seats":{"LDF":8,"UDF":15,"NDA":1,"OTHERS":0}},"geometry":{"type":"MultiPolygon","coordinates":[[[[76.0638946707,11.700548546],[76.0638946707,11.700548546],[76.0638946707,11.700548546]]]]}},{"type":"Feature","properties":{"code":"G12023","name":"Poothady","type":"Grama Panchayat","leading":"LDF","seats":{"LDF":9,"UDF":8,"NDA":3,"OTHERS":3}},"geometry":{"type":"MultiPolygon","coordinates":[[[[76.145154932,11.6978024474],[76.1423393495,11.6960414513],[76.1369518869,11.6968779589],[76.1312580852,11.6942487143],[76.1258616709,11.6984783914],[76.1167535821,11.7001644329],[76.112718481,11.7048259033],[76.1084025675,11.6994152926],[76.1045931636,11.7038518205],[76.1015228621,11.703636418],[76.0988509481,11.7061517755],[76.099774657,11.7111555337],[76.1015683671,11.711854608],[76.1029652447,11.7155137655],[76.1005461077,11.7190729232],[76.1032242542,11.7265780806],[76.1109832871,11.7265196475],[76.1114770066,11.7317973869],[76.1169032783,11.7374931328],[76.1203061316,11.7389662271],[76.1191508748,11.7411254259],[76.1229722281,11.7478002331],[76.1230991412,11.7532471934],[76.1215769863,11.7528913727],[76.1199439246,11.7553130798],[76.1183030152,11.7543540384],[76.1126912549,11.7563243356],[76.1130961373,11.76452808],[76.1158623914,11.7714486551],[76.1181521153,11.7719282832],[76.1164857297,11.7752387477],[76.1174548942,11.7757846766],[76.1194295897,11.7720306039],[76.1324731366,11.7715155071],[76.1379596475,11.760790581],[76.1410625821,11.7597590208],[76.1484436516,11.75187502],[76.1580220821,11.7485623615],[76.1671831184,11.7512094333],[76.1701008878,11.754200792],[76.1754945021,11.7543194292],[76.1774477351,11.7572341392],[76.1819665349,11.7580487166],[76.1913924153,11.7645144135],[76.1924025924,11.7666707403],[76.2029272803,11.771682819],[76.2056369379,11.7765157134],[76.2064039204,11.7829663026],[76.2123900616,11.7847107459],[76.2202821046,11.7938430293],[76.221660944,11.7909459438],[76.2215683286,11.7878437691],[76.219522773,11.7870486561],[76.2209710827,11.7857220035],[76.2202528967,11.7826333097],[76.2216917032,11.7820117124],[76.2208519832,11.777789817],[76.2243409014,11.7726934368],[76.2232774542,11.7702059195],[76.2287680588,11.765617895],[76.2279288805,11.759556364],[76.2243576209,11.7560379514],[76.2226070514,11.7392041785],[76.2292192933,11.7299949288],[76.2293174944,11.7227960712],[76.2322426848,11.7141940893],[76.2320016219,11.7126956039],[76.2258441243,11.7109644108],[76.2216866582,11.7075229862],[76.2214170478,11.7036536238],[76.2316433818,11.6956054317],[76.2358313412,11.6945657768],[76.232299373,11.6945212682],[76.2328718531,11.692888535],[76.2309482915,11.6901823912],[76.2200941878,11.688164659],[76.2173879573,11.6851754299],[76.2185948313,11.6822764406],[76.2171526876,11.6806610279],[76.2149981036,11.6837398621],[76.2103333688,11.6859193173],[76.2086881223,11.6909277571],[76.1989552167,11.6951448934],[76.1969895034,11.6981354997],[76.193067785,11.700030039],[76.1929946289,11.7029526402],[76.189924719,11.7063061015],[76.1894467479,11.7030983483],[76.1808238051,11.7041187766],[76.1674083853,11.7140211376],[76.1643434171,11.7122450284],[76.162526367,11.7080176378],[76.1571098851,11.708899532],[76.1530658233,11.7074825295],[76.1451248393,11.6982470454],[76.145154932,11.6978024474]]]]}},{"type":"Feature","properties":{"code":"G12014","name":"Pozhuthana","type":"Grama Panchayat","leading":"UDF","seats":{"LDF":6,"UDF":9,"NDA":0,"OTHERS":0}},"geometry":{"type":"MultiPolygon","coordinates":[[[[76.0240044613,11.5518860897],[76.0240044613,11.5518860897],[76.0240044613,11.5518860897]]]]}},{"type":"Feature","properties":{"code":"G12024","name":"Pulpally","type":"Grama Panchayat","leading":"TIE","seats":{"LDF":8,"UDF":8,"NDA":4,"OTHERS":1}},"geometry":{"type":"MultiPolygon","coordinates":[[[[76.1678890532,11.7516104248],[76.1678890532,11.7516104248],[76.1678890532,11.7516104248]]]]}},{"type":"Feature","properties":{"code":"G12015","name":"Thariode","type":"Grama Panchayat","leading":"UDF","seats":{"LDF":3,"UDF":9,"NDA":0,"OTHERS":2}},"geometry":{"type":"MultiPolygon","coordinates":[[[[75.9833507342,11.6165513082],[75.9833507342,11.6165513082],[75.9833507342,11.6165513082]]]]}},{"type":"Feature","properties":{"code":"G12006","name":"Thavinhal","type":"Grama Panchayat","leading":"UDF","seats":{"LDF":8,"UDF":15,"NDA":0,"OTHERS":0}},"geometry":{"type":"MultiPolygon","coordinates":[[[[75.9054423038,11.7889112894],[75.9054423038,11.7889112894],[75.9054423038,11.7889112894]]]]}},{"type":"Feature","properties":{"code":"G12003","name":"Thirunelly","type":"Grama Panchayat","leading":"LDF","seats":{"LDF":15,"UDF":2,"NDA":1,"OTHERS":1}},"geometry":{"type":"MultiPolygon","coordinates":[[[[75.9756347871,11.8889789738],[75.9710767291,11.8900650776],[75.9580485218,11.897657405],[75.9566508645,11.9000824373],[75.9530714096,11.8995659309],[75.9522186919,11.8978676483],[75.9410096728,11.9008854867],[75.9364050694,11.9055893432],[75.9350740231,11.9116758262],[75.9245629608,11.9198888928],[75.9258352322,11.9244832465],[75.9251544637,11.9314679079],[75.9278726166,11.9345977074],[75.93650082,11.9339151468],[75.9393725192,11.9411360042],[75.9510040744,11.9404790328],[75.9546373007,11.9422021468],[75.9760258705,11.9336496144],[75.9791464938,11.9346596891],[75.9830499675,11.9328693235],[75.9896474411,11.9347488365],[75.9935964593,11.9322473046],[76.0027842834,11.9311278856],[76.0069769526,11.938619309],[76.0123181421,11.9416019726],[76.0165335315,11.9412312603],[76.0223610609,11.944006466],[76.027055847,11.9432809515],[76.0303853223,11.940315302],[76.0338308807,11.9404682665],[76.0393578086,11.9453439656],[76.0420141431,11.9457768385],[76.0448138558,11.9505015908],[76.0519527728,11.9514787752],[76.0574440439,11.9574468192],[76.0684075938,11.9637717156],[76.0700288346,11.9669816083],[76.0767371172,11.9686456028],[76.088437583,11.9672758586],[76.0935866715,11.9684714641],[76.1046475512,11.9758719291],[76.1120984198,11.9787550569],[76.1134905489,11.8950295978],[76.1117462856,11.8841496254],[76.1148847764,11.8669846685],[76.1128800592,11.8581948702],[76.11722705,11.8568870025],[76.1200403004,11.8511378043],[76.1223539266,11.8506046276],[76.1127066278,11.8418465288],[76.0952575109,11.8377674448],[76.0897120822,11.8343164568],[76.0878631131,11.8265112768],[76.0837231229,11.8220131504],[76.0778220719,11.8224750698],[76.0765144644,11.8273919022],[76.071545269,11.8259115712],[76.0716991225,11.8326433031],[76.0684901158,11.8325652093],[76.0664002131,11.8346005225],[76.0668026071,11.8310344664],[76.0651858786,11.8301251615],[76.0592288068,11.8325470533],[76.0562291263,11.8298589889],[76.0514995664,11.8319969837],[76.0495284929,11.8293004002],[76.0461969703,11.8301555646],[76.0410890059,11.8282044259],[76.0361319557,11.8296723719],[76.0259655231,11.8241679123],[76.0254913016,11.8284397951],[76.0276507815,11.8355878589],[76.0156900719,11.8417961086],[76.0154833866,11.8462760419],[76.0113834684,11.8466186056],[76.0099426408,11.8514209971],[76.0078528181,11.8523071233],[76.0082362217,11.8584448742],[75.9983735832,11.8672596902],[75.9985042818,11.873827491],[75.9949031559,11.8769461043],[75.9964932647,11.8794864256],[75.990502568,11.879162391],[75.9874912688,11.8848159896],[75.9812887674,11.8852150037],[75.9763714838,11.8879665448],[75.9756347871,11.8889789738]]]]}},{"type":"Feature","properties":{"code":"G12004","name":"Thondernadu","type":"Grama Panchayat","leading":"UDF","seats":{"LDF":3,"UDF":13,"NDA":1,"OTHERS":0}},"geometry":{"type":"MultiPolygon","coordinates":[[[[75.8001755377,11.8189135342],[75.8097360423,11.8189156049],[75.8163945663,11.8137482107],[75.8192267064,11.8161679656],[75.8252923594,11.8166291404],[75.8311126941,11.8118372733],[75.8343233143,11.81672715],[75.8425086823,11.8153570602],[75.8446743336,11.8125757725],[75.8436373813,11.8116820665],[75.8446201445,11.8043041123],[75.8477518728,11.7997418811],[75.8490238037,11.7934757328],[75.8579957007,11.7816497371],[75.8625174506,11.7857704158],[75.86901289,11.7854883634],[75.8715172295,11.7814191723],[75.8773663606,11.7826264346],[75.8845391791,11.7781749054],[75.885033248,11.775795379],[75.8868300538,11.7771963426],[75.8910065066,11.7745450244],[75.8959152399,11.7754377908],[75.8989804085,11.7724555873],[75.9055992683,11.7719259325],[75.9072033054,11.7731250334],[75.9040867308,11.773309332],[75.9005782311,11.7787405534],[75.9044808442,11.7805616512],[75.9025597385,11.7843195716],[75.9046389198,11.7854896833],[75.9051635449,11.7888974332],[75.9107083628,11.7869991324],[75.9157157806,11.7819399736],[75.9234944696,11.7820521968],[75.9288659683,11.7727686447],[75.9237124611,11.7667564187],[75.9240813057,11.764748052],[75.9347345363,11.7607245003],[75.9391239446,11.7607422944],[75.9413142816,11.7548538618],[75.9437299062,11.7551848304],[75.9457275115,11.7530614724],[75.9483689626,11.7542596977],[75.9498564649,11.7495593169],[75.952642323,11.7470008786],[75.9506019633,11.7441941415],[75.9469958329,11.7438006229],[75.9444249956,11.7411339054],[75.9415892811,11.7434076491],[75.9394326345,11.7416469095],[75.9343006599,11.7423212994],[75.9330211005,11.7401133782],[75.9282729077,11.7404937277],[75.925997715,11.7391493673],[75.9189937321,11.7410269074],[75.9119927847,11.738030227],[75.909099066,11.7304739325],[75.9087382028,11.7188678159],[75.9048109741,11.7175604797],[75.900236459,11.7111017065],[75.901679695,11.7041622958],[75.9000547298,11.6988450018],[75.8826368635,11.6985628586],[75.8748087124,11.7037697898],[75.8687590297,11.702005409],[75.8619014489,11.7043955562],[75.8555593448,11.7027750801],[75.8522127754,11.7035682882],[75.8453122632,11.7078055996],[75.8457198262,11.7143292169],[75.8411371929,11.7182887367],[75.8314624334,11.7208693289],[75.831599599,11.7266675465],[75.8235781789,11.7277799181],[75.8220702534,11.7332233723],[75.8191655752,11.7342371622],[75.814086532,11.739815736],[75.8113169011,11.7398351251],[75.8098121655,11.7427640782],[75.7921519778,11.74306477],[75.7979849133,11.7473968112],[75.8004843076,11.7525730711],[75.7938055544,11.7535248428],[75.7836470908,11.7601353768],[75.7843422988,11.762452237],[75.7859303405,11.7622521995],[75.7887465823,11.7653785725],[75.7895878986,11.7717640424],[75.7875064158,11.774990029],[75.7927069786,11.7796225274],[75.7937443962,11.7895770574],[75.7771578615,11.8015874555],[75.7733799238,11.802458689],[75.7796470967,11.8051234206],[75.7812258544,11.8102633298],[75.8000893704,11.8183732315],[75.8001755377,11.8189135342]]]]}},{"type":"Feature","properties":{"code":"G12002","name":"Vellamunda","type":"Grama Panchayat","leading":"UDF","seats":{"LDF":7,"UDF":16,"NDA":0,"OTHERS":1}},"geometry":{"type":"MultiPolygon","coordinates":[[[[75.9671502783,11.7006985358],[75.9668647362,11.6989464048],[75.9641484886,11.6979077204],[75.9623419649,11.6914117362],[75.9588192647,11.6890302517],[75.9491736771,11.6966127965],[75.9436039597,11.6962324798],[75.9333956872,11.6916296834],[75.9320836815,11.6891116173],[75.9288415727,11.6877294521],[75.9211802423,11.6914189223],[75.9113983192,11.6891596983],[75.9054316714,11.691501385],[75.8975553678,11.6974236392],[75.9012982757,11.7012247921],[75.900236459,11.7111017065],[75.9048109741,11.7175604797],[75.9087382028,11.7188678159],[75.9094427327,11.7322567119],[75.9119927847,11.738030227],[75.9151379536,11.7398117509],[75.9203091316,11.7410588304],[75.925997715,11.7391493673],[75.9282729077,11.7404937277],[75.9330211005,11.7401133782],[75.9344088089,11.742343239],[75.9403255832,11.7417994117],[75.9415892811,11.7434076491],[75.9444249956,11.7411339054],[75.9469958329,11.7438006229],[75.9506019633,11.7441941415],[75.9523820011,11.7470065505],[75.9561925962,11.7441481168],[75.9562087613,11.7478147897],[75.9588689181,11.7501406981],[75.9686470629,11.7534128796],[75.9709532476,11.7500831952],[75.9757882409,11.751861701],[75.981071084,11.7472843003],[75.9825451709,11.7477686187],[75.9829211688,11.7510937824],[75.9841860165,11.7490621391],[75.9829177858,11.7470786326],[75.9848935099,11.7462801951],[75.9866631263,11.7486934583],[75.989627308,11.7458808255],[75.9901670105,11.7480875546],[75.9862709174,11.7525594488],[75.991522968,11.748932294],[75.9936867741,11.7512775953],[75.9964107499,11.7482914863],[76.0006521141,11.7501988553],[76.0021549632,11.753080748],[76.0042243673,11.7518534119],[76.0087012966,11.7533514901],[76.0121113527,11.7523258518],[76.0137974015,11.7562560042],[76.0130371896,11.7581771204],[76.0153016547,11.7577748051],[76.0175217655,11.7596877502],[76.0175703042,11.7575742066],[76.0206033723,11.7582828479],[76.020757428,11.7555027314],[76.0236694427,11.7543140591],[76.0163849547,11.7492870724],[76.0158697879,11.7464952582],[76.0293180897,11.7355449762],[76.0268417003,11.7315538272],[76.0262097158,11.72510723],[76.0208352284,11.7234542404],[76.0175962466,11.725175687],[76.0188969972,11.7226204018],[76.0160743074,11.72154002],[76.0128695245,11.7233782054],[76.0094516684,11.7194759828],[76.0038145792,11.7199725542],[76.0047091359,11.7151628439],[76.0002315957,11.7086782769],[75.9976483679,11.7117027991],[75.996630715,11.7090808555],[75.9935011714,11.7115215819],[75.9889467498,11.711520836],[75.9882085026,11.7085925057],[75.9854620455,11.7076854374],[75.984711893,11.7055840037],[75.9773114657,11.7053555867],[75.978093989,11.702125593],[75.9756534523,11.7025598219],[75.9731806742,11.7076554975],[75.970961663,11.7073691851],[75.9703201374,11.7049496169],[75.967767659,11.7051785023],[75.9673208289,11.7022406434],[75.9671502783,11.7006985358]]]]}},{"type":"Feature","properties":{"code":"G12012","name":"Vengappally","type":"Grama Panchayat","leading":"UDF","seats":{"LDF":3,"UDF":9,"NDA":1,"OTHERS":1}},"geometry":{"type":"MultiPolygon","coordinates":[[[[76.0344942174,11.6102801639],[76.0344942174,11.6102801639],[76.0344942174,11.6102801639]]]]}},{"type":"Feature","properties":{"code":"G12013","name":"Vythiri","type":"Grama Panchayat","leading":"LDF","seats":{"LDF":6,"UDF":5,"NDA":0,"OTHERS":4}},"geometry":{"type":"MultiPolygon","coordinates":[[[[75.9974951728,11.5318941944],[76.0052920024,11.5390276282],[76.0124318877,11.5401801352],[76.0178297879,11.5478574068],[76.0220236474,11.5486507113],[76.0243722029,11.5509580769],[76.0232378031,11.5527862562],[76.0243536607,11.5561671203],[76.0277830602,11.5604857886],[76.0265525695,11.5606603372],[76.0264100868,11.563488651],[76.0307464163,11.5686436436],[76.0293887808,11.5700142033],[76.0313582373,11.5725514919],[76.0291375983,11.5755404363],[76.031216688,11.5768898466],[76.0390454114,11.5744804023],[76.0389636916,11.5821547678],[76.0373840662,11.5837042581],[76.0397824449,11.5861409851],[76.0406465847,11.5902166572],[76.0449482797,11.5905641947],[76.0502901331,11.5878364278],[76.0548739593,11.5895378899],[76.0610807718,11.5869171089],[76.0635578232,11.5817538569],[76.0671802185,11.5786420337],[76.0683060348,11.5747179394],[76.0723768852,11.5733101475],[76.069915081,11.570662751],[76.0669130361,11.57175706],[76.0659415145,11.5707064776],[76.0658796888,11.5544309646],[76.0640653066,11.5456833109],[76.0681289319,11.5460213199],[76.0750191638,11.543262459],[76.0851546413,11.5340582039],[76.0815124732,11.5277166732],[76.0805882766,11.5218451497],[76.0796143564,11.5210258665],[76.0789020795,11.5224692006],[76.0749858731,11.5232106278],[76.0721123745,11.5185123337],[76.0676140302,11.5169650612],[76.0635702972,11.5098222781],[76.0588496719,11.509418425],[76.0565916558,11.5056536329],[76.0514416206,11.501902036],[76.0468165896,11.5050884925],[76.0384683489,11.5017606012],[76.0372290619,11.5066137129],[76.0337358542,11.5102240392],[76.0181660893,11.5142257221],[76.0164785609,11.5177555139],[76.0000470278,11.5260479267],[75.9976341125,11.5317576941],[75.9974951728,11.5318941944]]]]}},{"type":"Feature","properties":{"code":"M12051","name":"Kalpetta","type":"Municipality","leading":"LDF","seats":{"LDF":15,"UDF":8,"NDA":2,"OTHERS":5}},"geometry":{"type":"MultiPolygon","coordinates":[[[[76.0878703203,11.5803906264],[76.0878305168,11.5746230008],[76.0821752368,11.5719461163],[76.0685885891,11.5745370782],[76.0610807718,11.5869171089],[76.0548791282,11.5890266066],[76.0543940335,11.5941879334],[76.046277065,11.6051709021],[76.0470281653,11.6086309065],[76.0562406652,11.6106302062],[76.059230581,11.6138080253],[76.0582818729,11.6157857924],[76.0607810812,11.6157092747],[76.0602920761,11.6176280557],[76.0640563828,11.6195340904],[76.0618730508,11.6206319388],[76.0581426825,11.6196773892],[76.0571916352,11.6219195373],[76.0545455532,11.6207629219],[76.0503045897,11.6261724297],[76.0485997122,11.6320285277],[76.0516090675,11.6356056311],[76.0559256862,11.6375163027],[76.0567443075,11.6401473246],[76.0592776563,11.6381948986],[76.0615206094,11.6392038356],[76.061896831,11.6375665676],[76.0600661148,11.6368654768],[76.0608552057,11.635238639],[76.0649300016,11.6345009657],[76.0640874231,11.6383702432],[76.0667626159,11.6421494951],[76.0771183936,11.6482393361],[76.0807545682,11.6465447887],[76.087219878,11.6468137488],[76.0870982992,11.6431930417],[76.0949169012,11.6456890697],[76.0961033125,11.6392407125],[76.0929052625,11.636792165],[76.0952302866,11.6283922761],[76.1023622614,11.6212993914],[76.110888788,11.6195764807],[76.1126397679,11.6171407821],[76.111722942,11.6091584829],[76.1073392631,11.6063197331],[76.1025624913,11.5993674691],[76.1040213149,11.5881829773],[76.0938434675,11.5806833714],[76.0913253675,11.580330244],[76.0902192387,11.5822607605],[76.0877522502,11.5803730047],[76.0878703203,11.5803906264]]]]}},{"type":"Feature","properties":{"code":"M12081","name":"Mananthavadi","type":"Municipality","leading":"UDF","seats":{"LDF":15,"UDF":21,"NDA":0,"OTHERS":1}},"geometry":{"type":"MultiPolygon","coordinates":[[[[76.0051741749,11.7882884602],[76.0004996404,11.7872131269],[76.0021914887,11.7932380086],[75.9984791963,11.7924786896],[75.9982803695,11.7997590386],[75.9960998358,11.798328764],[75.9914440492,11.8005552263],[75.9889032866,11.7985268407],[75.9803961097,11.800120772],[75.9777414101,11.7968781128],[75.9729694165,11.7958187724],[75.9705586401,11.79775821],[75.9628889536,11.7978347626],[75.9618819502,11.7998726536],[75.9644820933,11.8039984173],[75.9639099545,11.80781483],[75.9661477531,11.8091734106],[75.9696929481,11.8167006494],[75.9670709248,11.817338775],[75.9671602631,11.8206375855],[75.968982581,11.8226244893],[75.9750152604,11.8226772703],[75.9769679885,11.8267110239],[75.976141083,11.8304399204],[75.978882169,11.8332923194],[75.9822060479,11.8328432023],[75.9812741033,11.8403785549],[75.9610292855,11.8479682817],[75.9568388828,11.85214693],[75.9593585548,11.8558642719],[75.9618492435,11.8762488869],[75.9693262064,11.8814989761],[75.9756347871,11.8889789738],[75.9812887674,11.8852150037],[75.9874912688,11.8848159896],[75.990502568,11.879162391],[75.9964932647,11.8794864256],[75.9949031559,11.8769461043],[75.9985042818,11.873827491],[75.9983735832,11.8672596902],[76.0082362217,11.8584448742],[76.0078528181,11.8523071233],[76.0099426408,11.8514209971],[76.0113834684,11.8466186056],[76.0154833866,11.8462760419],[76.0156900719,11.8417961086],[76.0276507815,11.8355878589],[76.0254913016,11.8284397951],[76.0259655231,11.8241679123],[76.0361319557,11.8296723719],[76.0410890059,11.8282044259],[76.0461969703,11.8301555646],[76.0495284929,11.8293004002],[76.0514995664,11.8319969837],[76.0562291263,11.8298589889],[76.0592288068,11.8325470533],[76.0651858786,11.8301251615],[76.0668026071,11.8310344664],[76.0664002131,11.8346005225],[76.0684901158,11.8325652093],[76.0716991225,11.8326433031],[76.0706120946,11.8268123508],[76.0744899644,11.8260361087],[76.0765144644,11.8273919022],[76.0778220719,11.8224750698],[76.0833882633,11.8218709959],[76.0873725881,11.82648191],[76.0901033641,11.8235133026],[76.0907238934,11.8151474383],[76.0893062773,11.8130338679],[76.0858345124,11.8126377687],[76.0852468606,11.8076719366],[76.0796889983,11.8090213739],[76.0748125593,11.7986852232],[76.0696910151,11.7933749696],[76.0652935399,11.7952972192],[76.0610982126,11.7931541869],[76.0616117911,11.7889758973],[76.0587631228,11.7764182778],[76.0539104183,11.7778487712],[76.0526660109,11.7740604982],[76.0485098016,11.7802695877],[76.0415500222,11.781067041],[76.0450002131,11.7880458079],[76.0417872062,11.7890168635],[76.0359570546,11.8021296652],[76.0303271726,11.8012412724],[76.0244789245,11.7887041412],[76.020079226,11.7869176348],[76.0150229371,11.7882439642],[76.0165349275,11.7836123349],[76.0158837729,11.7793712748],[76.0094027093,11.7807631502],[76.009867415,11.7839485426],[76.0052921299,11.7882701245],[76.0051741749,11.7882884602]]]]}},{"type":"Feature","properties":{"code":"M12082","name":"Sulthanbethery","type":"Municipality","leading":"UDF","seats":{"LDF":14,"UDF":19,"NDA":1,"OTHERS":2}},"geometry":{"type":"MultiPolygon","coordinates":[[[[76.2409234908,11.6397249577],[76.2382571347,11.6384684877],[76.2273552963,11.6450962046],[76.2258622523,11.6463409914],[76.2276342025,11.6495498034],[76.2258572019,11.6474358377],[76.2178819148,11.6517822609],[76.2154484587,11.660282189],[76.2175725243,11.6622802722],[76.2143120458,11.6680152031],[76.2202873822,11.6706822133],[76.2182155177,11.6739366089],[76.2134401185,11.6761781601],[76.2151707643,11.6777551331],[76.2142373141,11.6805986308],[76.2164565921,11.6820827712],[76.2181598751,11.6811906151],[76.2173879573,11.6851754299],[76.2200941878,11.688164659],[76.2309482915,11.6901823912],[76.2328718531,11.692888535],[76.232299373,11.6945212682],[76.2358313412,11.6945657768],[76.2316433818,11.6956054317],[76.2263324035,11.7010194587],[76.2216507283,11.7033558183],[76.2211324498,11.7064642617],[76.2258441243,11.7109644108],[76.2320016219,11.7126956039],[76.2322426848,11.7141940893],[76.2293174944,11.7227960712],[76.2292192933,11.7299949288],[76.2226070514,11.7392041785],[76.2243576209,11.7560379514],[76.2279288805,11.759556364],[76.2287680588,11.765617895],[76.2232774542,11.7702059195],[76.2243409014,11.7726934368],[76.2208519832,11.777789817],[76.2216917032,11.7820117124],[76.2202528967,11.7826333097],[76.2209710827,11.7857220035],[76.219522773,11.7870486561],[76.2216268484,11.7879594221],[76.2202821046,11.7938430293],[76.2263714479,11.8065505014],[76.2468423806,11.8030090263],[76.2615199082,11.808976497],[76.2623051795,11.7819353489],[76.2697140635,11.7734328803],[76.2762803314,11.7694854489],[76.2786479743,11.7397150639],[76.2716993538,11.7392938699],[76.2709274692,11.7422193442],[76.2694216358,11.7416655852],[76.269297707,11.7385888492],[76.2590286544,11.7349235188],[76.2506336097,11.7235199201],[76.2531052847,11.7208454526],[76.2528553797,11.7147685899],[76.2632153417,11.7133128479],[76.283680739,11.7139709024],[76.2957903497,11.7040625264],[76.2853302875,11.6931500468],[76.2869549967,11.6770093122],[76.2842331984,11.6728598393],[76.287838134,11.6737162241],[76.2885781994,11.6710908373],[76.2999426675,11.6614875538],[76.3036968214,11.6544438104],[76.3019166488,11.6499481568],[76.3008055757,11.6561813973],[76.2942443671,11.6594050809],[76.2907715655,11.6584719226],[76.290190475,11.6546985823],[76.2808460278,11.6548549534],[76.2766910304,11.6571152513],[76.2760207956,11.6542213206],[76.264384023,11.6475759169],[76.2644131473,11.6452736063],[76.2611157606,11.6480293506],[76.2569000784,11.6437512578],[76.2546034321,11.6376128996],[76.2463281759,11.6359205275],[76.2443199229,11.6372218567],[76.2435810793,11.6403702533],[76.2411203323,11.6398221256],[76.2409234908,11.6397249577]]]]}}]}
